{"type":"FeatureCollection", "features": [
{"type":"Feature","geometry":{"type":"Polygon","coordinates":[[[-75.75259,39.19943],[-75.74936,39.16481],[-75.74579,39.11494],[-75.74263,39.07983],[-75.73061,39.08792],[-75.72193,39.092],[-75.69604,39.1012],[-75.68116,39.10509],[-75.6718,39.11186],[-75.66496,39.11435],[-75.65619,39.11346],[-75.64252,39.11633],[-75.63437,39.11184],[-75.6195,39.11168],[-75.60517,39.11488],[-75.59286,39.11279],[-75.57387,39.11584],[-75.58321,39.09986],[-75.57922,39.08721],[-75.5734,39.08571],[-75.56812,39.09107],[-75.55851,39.0924],[-75.55714,39.09555],[-75.53853,39.09505],[-75.5352,39.09772],[-75.51587,39.10033],[-75.49866,39.1121],[-75.48662,39.1114],[-75.47537,39.10595],[-75.46478,39.09649],[-75.46197,39.09101],[-75.46535,39.08619],[-75.45729,39.08562],[-75.4418,39.0804],[-75.43961,39.07747],[-75.42612,39.07001],[-75.4129,39.0701],[-75.40982,39.07237],[-75.401,39.06615],[-75.40314,39.07861],[-75.39981,39.09909],[-75.40813,39.12251],[-75.40753,39.1341],[-75.41336,39.1533],[-75.41062,39.15625],[-75.41027,39.16915],[-75.40827,39.17463],[-75.40014,39.18646],[-75.39777,39.19398],[-75.39708,39.20453],[-75.39926,39.21582],[-75.40703,39.22574],[-75.40504,39.24032],[-75.40899,39.24627],[-75.41652,39.24317],[-75.41632,39.23635],[-75.42189,39.23546],[-75.42824,39.2451],[-75.44807,39.24229],[-75.45341,39.24507],[-75.46085,39.24475],[-75.47173,39.2506],[-75.47765,39.24873],[-75.50416,39.24627],[-75.51131,39.24427],[-75.52373,39.24589],[-75.53012,39.25182],[-75.53575,39.24889],[-75.53951,39.25149],[-75.54985,39.25105],[-75.55519,39.24429],[-75.57582,39.24366],[-75.58473,39.24203],[-75.58386,39.23328],[-75.62636,39.22228],[-75.62967,39.21587],[-75.62069,39.21265],[-75.60525,39.21202],[-75.60504,39.21022],[-75.6179,39.19992],[-75.6238,39.18811],[-75.62906,39.18563],[-75.63901,39.18711],[-75.64718,39.18384],[-75.65104,39.17347],[-75.65925,39.1747],[-75.67215,39.1793],[-75.70042,39.19249],[-75.71913,39.19009],[-75.72447,39.18644],[-75.73414,39.18333],[-75.74119,39.18803],[-75.74623,39.20031],[-75.75259,39.19943]]]},"properties":{"STATEFP":"10","COUNTYFP":"001","COUSUBFP":"90740","COUSUBNS":"01935606","GEOIDFQ":"0600000US1000190740","GEOID":"1000190740","NAME":"Dover","NAMELSAD":"Dover CCD","STUSPS":"DE","NAMELSADCO":"Kent County","STATE_NAME":"Delaware","LSAD":"22","ALAND":392916497,"AWATER":249081055}},
{"type":"Feature","geometry":{"type":"Polygon","coordinates":[[[-75.77958,39.53554],[-75.77225,39.44564],[-75.7601,39.29682],[-75.7149,39.29937],[-75.68519,39.29709],[-75.6752,39.2905],[-75.66581,39.29057],[-75.65446,39.29118],[-75.64096,39.30132],[-75.63266,39.30125],[-75.62613,39.30413],[-75.61963,39.31006],[-75.6066,39.30809],[-75.59206,39.31125],[-75.58434,39.30872],[-75.57462,39.31343],[-75.56872,39.32352],[-75.56901,39.32874],[-75.55884,39.33333],[-75.55572,39.33707],[-75.56052,39.34507],[-75.55738,39.3491],[-75.54522,39.35076],[-75.54159,39.35437],[-75.53585,39.35062],[-75.52845,39.35831],[-75.52142,39.35861],[-75.51237,39.36566],[-75.5158,39.37835],[-75.52126,39.38165],[-75.52358,39.39158],[-75.53598,39.40938],[-75.53851,39.4165],[-75.55589,39.43035],[-75.57183,39.4389],[-75.57308,39.44537],[-75.58018,39.45079],[-75.58944,39.46081],[-75.59233,39.46758],[-75.59307,39.47919],[-75.58781,39.49033],[-75.58773,39.49635],[-75.57644,39.5092],[-75.57236,39.5171],[-75.56936,39.54059],[-75.56564,39.55851],[-75.56412,39.56068],[-75.62057,39.55283],[-75.63372,39.55506],[-75.64241,39.55497],[-75.65104,39.55264],[-75.66443,39.54554],[-75.68631,39.54197],[-75.71169,39.54388],[-75.72661,39.54182],[-75.7559,39.54023],[-75.76795,39.53629],[-75.77958,39.53554]]]},"properties":{"STATEFP":"10","COUNTYFP":"003","COUSUBFP":"92072","COUSUBNS":"01935615","GEOIDFQ":"0600000US1000392072","GEOID":"1000392072","NAME":"Middletown-Odessa","NAMELSAD":"Middletown-Odessa CCD","STUSPS":"DE","NAMELSADCO":"New Castle County","STATE_NAME":"Delaware","LSAD":"22","ALAND":483425824,"AWATER":75218803}},
{"type":"Feature","geometry":{"type":"Polygon","coordinates":[[[-75.40899,39.24627],[-75.40936,39.2511],[-75.40618,39.25811],[-75.409,39.26413],[-75.43477,39.29059],[-75.43759,39.29839],[-75.43694,39.30938],[-75.43903,39.31338],[-75.45281,39.31843],[-75.45537,39.32473],[-75.46042,39.32824],[-75.46932,39.33082],[-75.47996,39.33658],[-75.47943,39.33902],[-75.49038,39.34282],[-75.49412,39.34658],[-75.49416,39.35461],[-75.50528,39.35917],[-75.51237,39.36566],[-75.52142,39.35861],[-75.52845,39.35831],[-75.53585,39.35062],[-75.54159,39.35437],[-75.54522,39.35076],[-75.55738,39.3491],[-75.56052,39.34507],[-75.55572,39.33707],[-75.55884,39.33333],[-75.56901,39.32874],[-75.56872,39.32352],[-75.57462,39.31343],[-75.58434,39.30872],[-75.59206,39.31125],[-75.6066,39.30809],[-75.61963,39.31006],[-75.62613,39.30413],[-75.63266,39.30125],[-75.64096,39.30132],[-75.65446,39.29118],[-75.66581,39.29057],[-75.66248,39.27826],[-75.6404,39.25219],[-75.63639,39.24549],[-75.63471,39.23411],[-75.62793,39.22861],[-75.62636,39.22228],[-75.58386,39.23328],[-75.58473,39.24203],[-75.57582,39.24366],[-75.55519,39.24429],[-75.54985,39.25105],[-75.53951,39.25149],[-75.53575,39.24889],[-75.53012,39.25182],[-75.52373,39.24589],[-75.51131,39.24427],[-75.50416,39.24627],[-75.47765,39.24873],[-75.47173,39.2506],[-75.46085,39.24475],[-75.45341,39.24507],[-75.44807,39.24229],[-75.42824,39.2451],[-75.42189,39.23546],[-75.41632,39.23635],[-75.41652,39.24317],[-75.40899,39.24627]]]},"properties":{"STATEFP":"10","COUNTYFP":"001","COUSUBFP":"93700","COUSUBNS":"01935626","GEOIDFQ":"0600000US1000193700","GEOID":"1000193700","NAME":"Smyrna","NAMELSAD":"Smyrna CCD","STUSPS":"DE","NAMELSADCO":"Kent County","STATE_NAME":"Delaware","LSAD":"22","ALAND":175481380,"AWATER":89320867}},
{"type":"Feature","geometry":{"type":"Polygon","coordinates":[[[-75.35697,38.52482],[-75.35327,38.51921],[-75.35108,38.5104],[-75.34713,38.50605],[-75.342,38.48794],[-75.33854,38.48092],[-75.31924,38.47982],[-75.32565,38.47229],[-75.31977,38.46639],[-75.32125,38.46088],[-75.32706,38.46012],[-75.33148,38.45191],[-75.25272,38.4514],[-75.18555,38.45121],[-75.04894,38.45126],[-75.04975,38.48639],[-75.06003,38.60771],[-75.061,38.60841],[-75.10319,38.60686],[-75.11586,38.60479],[-75.12463,38.6008],[-75.16088,38.59285],[-75.17414,38.58786],[-75.19504,38.58956],[-75.20883,38.59167],[-75.22281,38.58878],[-75.23466,38.5877],[-75.2405,38.59141],[-75.24591,38.59133],[-75.2583,38.58316],[-75.2618,38.57245],[-75.27476,38.56453],[-75.27799,38.55734],[-75.28625,38.55154],[-75.28899,38.55225],[-75.30067,38.54618],[-75.3067,38.53885],[-75.30563,38.53148],[-75.32674,38.52905],[-75.33439,38.52703],[-75.35697,38.52482]]]},"properties":{"STATEFP":"10","COUNTYFP":"005","COUSUBFP":"93552","COUSUBNS":"01935625","GEOIDFQ":"0600000US1000593552","GEOID":"1000593552","NAME":"Selbyville-Frankford","NAMELSAD":"Selbyville-Frankford CCD","STUSPS":"DE","NAMELSADCO":"Sussex County","STATE_NAME":"Delaware","LSAD":"22","ALAND":323899578,"AWATER":140592874}},
{"type":"Feature","geometry":{"type":"Polygon","coordinates":[[[-75.061,38.60841],[-75.06522,38.63239],[-75.06551,38.66103],[-75.07922,38.73824],[-75.08215,38.77216],[-75.09201,38.8039],[-75.0971,38.7887],[-75.11333,38.783],[-75.13402,38.78224],[-75.15902,38.79019],[-75.19055,38.80686],[-75.20533,38.82339],[-75.22724,38.84051],[-75.2464,38.83816],[-75.25309,38.8441],[-75.2574,38.83759],[-75.26671,38.82881],[-75.27659,38.82975],[-75.28074,38.8264],[-75.29074,38.82658],[-75.30876,38.82407],[-75.30207,38.81831],[-75.26873,38.80283],[-75.25187,38.7908],[-75.24599,38.78769],[-75.20496,38.76124],[-75.19252,38.75441],[-75.18672,38.7496],[-75.17387,38.7484],[-75.19702,38.73081],[-75.20632,38.72148],[-75.20645,38.71444],[-75.21481,38.70179],[-75.21748,38.68605],[-75.22168,38.67793],[-75.22262,38.66335],[-75.21622,38.65138],[-75.20748,38.64338],[-75.19609,38.63643],[-75.19363,38.63756],[-75.18932,38.65374],[-75.18944,38.66576],[-75.17628,38.66365],[-75.1668,38.65714],[-75.1566,38.65569],[-75.14996,38.65298],[-75.14107,38.64364],[-75.12551,38.64041],[-75.11003,38.64408],[-75.09529,38.64475],[-75.09054,38.64154],[-75.08521,38.62843],[-75.08855,38.62177],[-75.0994,38.6145],[-75.10319,38.60686],[-75.061,38.60841]]]},"properties":{"STATEFP":"10","COUNTYFP":"005","COUSUBFP":"91776","COUSUBNS":"01935613","GEOIDFQ":"0600000US1000591776","GEOID":"1000591776","NAME":"Lewes","NAMELSAD":"Lewes CCD","STUSPS":"DE","NAMELSADCO":"Sussex County","STATE_NAME":"Delaware","LSAD":"22","ALAND":195797331,"AWATER":235998103}},
{"type":"Feature","geometry":{"type":"Polygon","coordinates":[[[-75.57612,39.769],[-75.5802,39.76284],[-75.57507,39.75961],[-75.57857,39.75447],[-75.58748,39.75811],[-75.5885,39.75248],[-75.58166,39.74972],[-75.58431,39.73921],[-75.57712,39.74192],[-75.57053,39.72928],[-75.56091,39.72889],[-75.53566,39.71876],[-75.53258,39.70664],[-75.52553,39.7005],[-75.50911,39.72009],[-75.49649,39.7433],[-75.50598,39.74206],[-75.51583,39.74613],[-75.52582,39.75904],[-75.51843,39.76241],[-75.5184,39.76763],[-75.52995,39.77176],[-75.5353,39.76739],[-75.55715,39.76146],[-75.55911,39.7685],[-75.57005,39.77096],[-75.57612,39.769]]]},"properties":{"STATEFP":"10","COUNTYFP":"003","COUSUBFP":"93996","COUSUBNS":"01935628","GEOIDFQ":"0600000US1000393996","GEOID":"1000393996","NAME":"Wilmington","NAMELSAD":"Wilmington CCD","STUSPS":"DE","NAMELSADCO":"New Castle County","STATE_NAME":"Delaware","LSAD":"22","ALAND":28218288,"AWATER":16303526}},
{"type":"Feature","geometry":{"type":"Polygon","coordinates":[[[-75.62636,39.22228],[-75.62793,39.22861],[-75.63471,39.23411],[-75.63639,39.24549],[-75.6404,39.25219],[-75.66248,39.27826],[-75.66581,39.29057],[-75.6752,39.2905],[-75.68519,39.29709],[-75.7149,39.29937],[-75.7601,39.29682],[-75.75595,39.24596],[-75.75259,39.19943],[-75.74623,39.20031],[-75.74119,39.18803],[-75.73414,39.18333],[-75.72447,39.18644],[-75.71913,39.19009],[-75.70042,39.19249],[-75.67215,39.1793],[-75.65925,39.1747],[-75.65104,39.17347],[-75.64718,39.18384],[-75.63901,39.18711],[-75.62906,39.18563],[-75.6238,39.18811],[-75.6179,39.19992],[-75.60504,39.21022],[-75.60525,39.21202],[-75.62069,39.21265],[-75.62967,39.21587],[-75.62636,39.22228]]]},"properties":{"STATEFP":"10","COUNTYFP":"001","COUSUBFP":"91480","COUSUBNS":"01935611","GEOIDFQ":"0600000US1000191480","GEOID":"1000191480","NAME":"Kenton","NAMELSAD":"Kenton CCD","STUSPS":"DE","NAMELSADCO":"Kent County","STATE_NAME":"Delaware","LSAD":"22","ALAND":124745857,"AWATER":0}},
{"type":"Feature","geometry":{"type":"Polygon","coordinates":[[[-75.5885,39.75248],[-75.61139,39.76075],[-75.63366,39.76288],[-75.63657,39.74763],[-75.63116,39.7407],[-75.63451,39.73891],[-75.63378,39.73429],[-75.63698,39.72687],[-75.63308,39.72349],[-75.63469,39.71867],[-75.63987,39.71735],[-75.64619,39.7077],[-75.65007,39.701],[-75.64545,39.69691],[-75.62928,39.70151],[-75.62123,39.69738],[-75.611,39.70957],[-75.60338,39.71109],[-75.59724,39.70892],[-75.59023,39.71561],[-75.58246,39.71854],[-75.57221,39.71707],[-75.55994,39.72144],[-75.56091,39.72889],[-75.57053,39.72928],[-75.57712,39.74192],[-75.58431,39.73921],[-75.58166,39.74972],[-75.5885,39.75248]]]},"properties":{"STATEFP":"10","COUNTYFP":"003","COUSUBFP":"91924","COUSUBNS":"01935614","GEOIDFQ":"0600000US1000391924","GEOID":"1000391924","NAME":"Lower Christiana","NAMELSAD":"Lower Christiana CCD","STUSPS":"DE","NAMELSADCO":"New Castle County","STATE_NAME":"Delaware","LSAD":"22","ALAND":29675886,"AWATER":431151}},
{"type":"Feature","geometry":{"type":"Polygon","coordinates":[[[-75.57612,39.769],[-75.57744,39.7744],[-75.57056,39.78094],[-75.57699,39.78449],[-75.58032,39.79168],[-75.57522,39.79554],[-75.56629,39.80968],[-75.56994,39.81734],[-75.57568,39.82256],[-75.57304,39.82911],[-75.57939,39.83855],[-75.59367,39.83746],[-75.61725,39.834],[-75.64152,39.82836],[-75.66282,39.82115],[-75.68599,39.81105],[-75.70121,39.80261],[-75.72705,39.78413],[-75.74439,39.76785],[-75.75307,39.75763],[-75.76588,39.73811],[-75.76087,39.73635],[-75.75537,39.72901],[-75.74317,39.7334],[-75.73539,39.73287],[-75.72674,39.74041],[-75.71821,39.7454],[-75.70269,39.7509],[-75.70428,39.76201],[-75.70666,39.76648],[-75.69068,39.77503],[-75.68418,39.76885],[-75.68296,39.76278],[-75.67421,39.76742],[-75.66418,39.77061],[-75.6604,39.75158],[-75.65268,39.75307],[-75.641,39.74209],[-75.63451,39.73891],[-75.63116,39.7407],[-75.63657,39.74763],[-75.63366,39.76288],[-75.61139,39.76075],[-75.5885,39.75248],[-75.58748,39.75811],[-75.57857,39.75447],[-75.57507,39.75961],[-75.5802,39.76284],[-75.57612,39.769]]]},"properties":{"STATEFP":"10","COUNTYFP":"003","COUSUBFP":"92960","COUSUBNS":"01935621","GEOIDFQ":"0600000US1000392960","GEOID":"1000392960","NAME":"Piedmont","NAMELSAD":"Piedmont CCD","STUSPS":"DE","NAMELSADCO":"New Castle County","STATE_NAME":"Delaware","LSAD":"22","ALAND":102488833,"AWATER":950855}},
{"type":"Feature","geometry":{"type":"Polygon","coordinates":[[[-75.63451,39.73891],[-75.641,39.74209],[-75.65268,39.75307],[-75.6604,39.75158],[-75.66418,39.77061],[-75.67421,39.76742],[-75.68296,39.76278],[-75.68418,39.76885],[-75.69068,39.77503],[-75.70666,39.76648],[-75.70428,39.76201],[-75.70269,39.7509],[-75.71821,39.7454],[-75.71162,39.74032],[-75.70854,39.73465],[-75.70247,39.72924],[-75.70115,39.72392],[-75.69393,39.7108],[-75.69626,39.69769],[-75.68547,39.70114],[-75.67861,39.69752],[-75.66967,39.69997],[-75.66557,39.69796],[-75.65567,39.70292],[-75.65327,39.70757],[-75.64619,39.7077],[-75.63987,39.71735],[-75.63469,39.71867],[-75.63308,39.72349],[-75.63698,39.72687],[-75.63378,39.73429],[-75.63451,39.73891]]]},"properties":{"STATEFP":"10","COUNTYFP":"003","COUSUBFP":"93108","COUSUBNS":"01935622","GEOIDFQ":"0600000US1000393108","GEOID":"1000393108","NAME":"Pike Creek-Central Kirkwood","NAMELSAD":"Pike Creek-Central Kirkwood CCD","STUSPS":"DE","NAMELSADCO":"New Castle County","STATE_NAME":"Delaware","LSAD":"22","ALAND":37517099,"AWATER":5739}},
{"type":"Feature","geometry":{"type":"Polygon","coordinates":[[[-75.64619,39.7077],[-75.65327,39.70757],[-75.65567,39.70292],[-75.66557,39.69796],[-75.66967,39.69997],[-75.67861,39.69752],[-75.68547,39.70114],[-75.69626,39.69769],[-75.69881,39.69357],[-75.70627,39.6906],[-75.70084,39.68448],[-75.69605,39.66966],[-75.69771,39.64845],[-75.70252,39.64525],[-75.70552,39.63554],[-75.69893,39.63114],[-75.68858,39.63586],[-75.68398,39.63334],[-75.67705,39.63947],[-75.67407,39.64646],[-75.67667,39.64868],[-75.66915,39.65394],[-75.66696,39.65796],[-75.65485,39.66554],[-75.64204,39.66681],[-75.64209,39.67268],[-75.63643,39.67424],[-75.6283,39.68821],[-75.62147,39.6905],[-75.62123,39.69738],[-75.62928,39.70151],[-75.64545,39.69691],[-75.65007,39.701],[-75.64619,39.7077]]]},"properties":{"STATEFP":"10","COUNTYFP":"003","COUSUBFP":"93848","COUSUBNS":"01935627","GEOIDFQ":"0600000US1000393848","GEOID":"1000393848","NAME":"Upper Christiana","NAMELSAD":"Upper Christiana CCD","STUSPS":"DE","NAMELSADCO":"New Castle County","STATE_NAME":"Delaware","LSAD":"22","ALAND":31032213,"AWATER":44286}},
{"type":"Feature","geometry":{"type":"Polygon","coordinates":[[[-75.53136,38.71027],[-75.5211,38.70838],[-75.4806,38.69239],[-75.48425,38.68786],[-75.49363,38.68115],[-75.50089,38.68117],[-75.50432,38.67622],[-75.51206,38.67346],[-75.51988,38.6675],[-75.51164,38.66509],[-75.48843,38.66286],[-75.47456,38.65464],[-75.43038,38.65207],[-75.41648,38.64266],[-75.40161,38.63971],[-75.39239,38.63191],[-75.37338,38.62901],[-75.36602,38.62551],[-75.35739,38.61905],[-75.35112,38.61671],[-75.34652,38.62015],[-75.33763,38.62058],[-75.36809,38.65296],[-75.35854,38.65346],[-75.34486,38.6475],[-75.33017,38.64282],[-75.3235,38.63936],[-75.31517,38.63847],[-75.31138,38.6337],[-75.29593,38.63217],[-75.29901,38.66274],[-75.30261,38.67475],[-75.3079,38.68253],[-75.30954,38.68638],[-75.31078,38.70108],[-75.31669,38.71419],[-75.32516,38.71116],[-75.36593,38.70055],[-75.36519,38.71443],[-75.36278,38.71672],[-75.36019,38.73215],[-75.36039,38.74048],[-75.3581,38.74495],[-75.35517,38.75036],[-75.37081,38.75395],[-75.38194,38.74937],[-75.39128,38.749],[-75.4052,38.75129],[-75.41228,38.74858],[-75.41545,38.74266],[-75.42422,38.73928],[-75.42696,38.74268],[-75.45684,38.74647],[-75.46421,38.74663],[-75.4843,38.75564],[-75.49414,38.75728],[-75.50035,38.75564],[-75.50983,38.74176],[-75.51199,38.73329],[-75.52492,38.72457],[-75.53052,38.71801],[-75.53136,38.71027]]]},"properties":{"STATEFP":"10","COUNTYFP":"005","COUSUBFP":"91036","COUSUBNS":"01935608","GEOIDFQ":"0600000US1000591036","GEOID":"1000591036","NAME":"Georgetown","NAMELSAD":"Georgetown CCD","STUSPS":"DE","NAMELSADCO":"Sussex County","STATE_NAME":"Delaware","LSAD":"22","ALAND":183453551,"AWATER":905354}},
{"type":"Feature","geometry":{"type":"Polygon","coordinates":[[[-75.35697,38.52482],[-75.35867,38.5367],[-75.35464,38.54622],[-75.37068,38.55459],[-75.37624,38.56176],[-75.38076,38.57622],[-75.38877,38.58319],[-75.39073,38.59396],[-75.39343,38.59815],[-75.40907,38.593],[-75.41321,38.5933],[-75.44554,38.60416],[-75.48465,38.62032],[-75.51529,38.60354],[-75.5193,38.6066],[-75.52901,38.6029],[-75.54883,38.6018],[-75.5704,38.60189],[-75.59069,38.59615],[-75.59979,38.59837],[-75.60869,38.59857],[-75.6247,38.59581],[-75.63388,38.60045],[-75.6501,38.60251],[-75.65655,38.59965],[-75.66095,38.59033],[-75.66954,38.58744],[-75.66939,38.57772],[-75.67943,38.56649],[-75.69168,38.5576],[-75.70156,38.56074],[-75.69878,38.522],[-75.69367,38.46008],[-75.66284,38.45876],[-75.55993,38.45558],[-75.50014,38.45414],[-75.42873,38.45267],[-75.38421,38.45212],[-75.33148,38.45191],[-75.32706,38.46012],[-75.32125,38.46088],[-75.31977,38.46639],[-75.32565,38.47229],[-75.31924,38.47982],[-75.33854,38.48092],[-75.342,38.48794],[-75.34713,38.50605],[-75.35108,38.5104],[-75.35327,38.51921],[-75.35697,38.52482]]]},"properties":{"STATEFP":"10","COUNTYFP":"005","COUSUBFP":"91628","COUSUBNS":"01935612","GEOIDFQ":"0600000US1000591628","GEOID":"1000591628","NAME":"Laurel-Delmar","NAMELSAD":"Laurel-Delmar CCD","STUSPS":"DE","NAMELSADCO":"Sussex County","STATE_NAME":"Delaware","LSAD":"22","ALAND":471766384,"AWATER":3876818}},
{"type":"Feature","geometry":{"type":"Polygon","coordinates":[[[-75.22724,38.84051],[-75.23203,38.84425],[-75.26311,38.87735],[-75.27336,38.88387],[-75.28027,38.89235],[-75.30408,38.91316],[-75.31228,38.92459],[-75.3171,38.93344],[-75.31591,38.93973],[-75.31192,38.94592],[-75.31353,38.95043],[-75.32127,38.95346],[-75.32463,38.94971],[-75.33244,38.95071],[-75.335,38.94732],[-75.34352,38.94744],[-75.34597,38.95344],[-75.35277,38.94793],[-75.36102,38.95753],[-75.38065,38.96187],[-75.38252,38.95591],[-75.39361,38.95285],[-75.40072,38.94772],[-75.39853,38.94074],[-75.40287,38.93747],[-75.39861,38.93352],[-75.39911,38.92691],[-75.40892,38.9197],[-75.41668,38.91803],[-75.41832,38.91426],[-75.4301,38.91335],[-75.43405,38.91082],[-75.44039,38.91313],[-75.46058,38.90938],[-75.46515,38.91131],[-75.48482,38.90375],[-75.48816,38.89898],[-75.48803,38.89278],[-75.49438,38.88788],[-75.49778,38.88213],[-75.50817,38.87895],[-75.51631,38.864],[-75.51887,38.84968],[-75.51179,38.83997],[-75.49654,38.83577],[-75.47797,38.82591],[-75.47553,38.82737],[-75.46443,38.81645],[-75.45738,38.81364],[-75.46549,38.80687],[-75.4767,38.79239],[-75.47488,38.788],[-75.48312,38.77905],[-75.4873,38.7707],[-75.49464,38.76474],[-75.50035,38.75564],[-75.49414,38.75728],[-75.4843,38.75564],[-75.46421,38.74663],[-75.45684,38.74647],[-75.42696,38.74268],[-75.42422,38.73928],[-75.41545,38.74266],[-75.41228,38.74858],[-75.4052,38.75129],[-75.39128,38.749],[-75.38194,38.74937],[-75.37081,38.75395],[-75.35517,38.75036],[-75.3581,38.74495],[-75.34984,38.74752],[-75.33577,38.74877],[-75.34149,38.77584],[-75.34012,38.78144],[-75.34239,38.8085],[-75.34538,38.81567],[-75.34362,38.82655],[-75.34571,38.83414],[-75.32665,38.8323],[-75.31248,38.82874],[-75.30876,38.82407],[-75.29074,38.82658],[-75.28074,38.8264],[-75.27659,38.82975],[-75.26671,38.82881],[-75.2574,38.83759],[-75.25309,38.8441],[-75.2464,38.83816],[-75.22724,38.84051]]]},"properties":{"STATEFP":"10","COUNTYFP":"005","COUSUBFP":"92368","COUSUBNS":"01935617","GEOIDFQ":"0600000US1000592368","GEOID":"1000592368","NAME":"Milford South","NAMELSAD":"Milford South CCD","STUSPS":"DE","NAMELSADCO":"Sussex County","STATE_NAME":"Delaware","LSAD":"22","ALAND":330362731,"AWATER":265889589}},
{"type":"Feature","geometry":{"type":"Polygon","coordinates":[[[-75.53136,38.71027],[-75.54584,38.70807],[-75.55577,38.70775],[-75.56548,38.71025],[-75.59048,38.72299],[-75.58827,38.70661],[-75.58908,38.69967],[-75.60203,38.69512],[-75.62015,38.70184],[-75.62993,38.7093],[-75.64626,38.7182],[-75.66161,38.71014],[-75.67323,38.70999],[-75.69315,38.7039],[-75.70186,38.70319],[-75.71288,38.70564],[-75.70156,38.56074],[-75.69168,38.5576],[-75.67943,38.56649],[-75.66939,38.57772],[-75.66954,38.58744],[-75.66095,38.59033],[-75.65655,38.59965],[-75.6501,38.60251],[-75.63388,38.60045],[-75.6247,38.59581],[-75.60869,38.59857],[-75.59979,38.59837],[-75.59069,38.59615],[-75.5704,38.60189],[-75.54883,38.6018],[-75.52901,38.6029],[-75.5193,38.6066],[-75.51529,38.60354],[-75.48465,38.62032],[-75.4381,38.64523],[-75.43038,38.65207],[-75.47456,38.65464],[-75.48843,38.66286],[-75.51164,38.66509],[-75.51988,38.6675],[-75.51206,38.67346],[-75.50432,38.67622],[-75.50089,38.68117],[-75.49363,38.68115],[-75.48425,38.68786],[-75.4806,38.69239],[-75.5211,38.70838],[-75.53136,38.71027]]]},"properties":{"STATEFP":"10","COUNTYFP":"005","COUSUBFP":"93404","COUSUBNS":"01935624","GEOIDFQ":"0600000US1000593404","GEOID":"1000593404","NAME":"Seaford","NAMELSAD":"Seaford CCD","STUSPS":"DE","NAMELSADCO":"Sussex County","STATE_NAME":"Delaware","LSAD":"22","ALAND":242024311,"AWATER":3755372}},
{"type":"Feature","geometry":{"type":"Polygon","coordinates":[[[-75.74263,39.07983],[-75.73863,39.02971],[-75.73202,39.03197],[-75.7191,39.03357],[-75.71203,39.02828],[-75.69224,39.02308],[-75.68447,39.02322],[-75.63261,39.01487],[-75.62507,39.01519],[-75.61682,39.01145],[-75.6122,39.00456],[-75.59771,39.0113],[-75.60581,39.02923],[-75.60303,39.04131],[-75.5971,39.04158],[-75.59178,39.03637],[-75.5731,39.03354],[-75.55195,39.03752],[-75.5459,39.03122],[-75.53389,39.01458],[-75.52892,39.01019],[-75.51337,39.02381],[-75.50608,39.02415],[-75.49766,39.02954],[-75.48581,39.0264],[-75.47596,39.02608],[-75.47572,39.02086],[-75.46938,39.01396],[-75.46186,39.01671],[-75.45748,39.03791],[-75.45822,39.04736],[-75.46207,39.06399],[-75.45729,39.08562],[-75.46535,39.08619],[-75.46197,39.09101],[-75.46478,39.09649],[-75.47537,39.10595],[-75.48662,39.1114],[-75.49866,39.1121],[-75.51587,39.10033],[-75.5352,39.09772],[-75.53853,39.09505],[-75.55714,39.09555],[-75.55851,39.0924],[-75.56812,39.09107],[-75.5734,39.08571],[-75.57922,39.08721],[-75.58321,39.09986],[-75.57387,39.11584],[-75.59286,39.11279],[-75.60517,39.11488],[-75.6195,39.11168],[-75.63437,39.11184],[-75.64252,39.11633],[-75.65619,39.11346],[-75.66496,39.11435],[-75.6718,39.11186],[-75.68116,39.10509],[-75.69604,39.1012],[-75.72193,39.092],[-75.73061,39.08792],[-75.74263,39.07983]]]},"properties":{"STATEFP":"10","COUNTYFP":"001","COUSUBFP":"90444","COUSUBNS":"01935604","GEOIDFQ":"0600000US1000190444","GEOID":"1000190444","NAME":"Central Kent","NAMELSAD":"Central Kent CCD","STUSPS":"DE","NAMELSADCO":"Kent County","STATE_NAME":"Delaware","LSAD":"22","ALAND":213522622,"AWATER":780887}},
{"type":"Feature","geometry":{"type":"Polygon","coordinates":[[[-75.73863,39.02971],[-75.73286,38.95737],[-75.72158,38.9603],[-75.69681,38.97098],[-75.69318,38.96058],[-75.67436,38.95381],[-75.66049,38.95],[-75.65098,38.94953],[-75.62718,38.94066],[-75.60904,38.94498],[-75.60031,38.952],[-75.57928,38.94894],[-75.56595,38.9532],[-75.54869,38.95408],[-75.54491,38.95177],[-75.53589,38.95994],[-75.51759,38.96825],[-75.50049,38.97844],[-75.50935,38.98478],[-75.52248,39.00443],[-75.52892,39.01019],[-75.53389,39.01458],[-75.5459,39.03122],[-75.55195,39.03752],[-75.5731,39.03354],[-75.59178,39.03637],[-75.5971,39.04158],[-75.60303,39.04131],[-75.60581,39.02923],[-75.59771,39.0113],[-75.6122,39.00456],[-75.61682,39.01145],[-75.62507,39.01519],[-75.63261,39.01487],[-75.68447,39.02322],[-75.69224,39.02308],[-75.71203,39.02828],[-75.7191,39.03357],[-75.73202,39.03197],[-75.73863,39.02971]]]},"properties":{"STATEFP":"10","COUNTYFP":"001","COUSUBFP":"90888","COUSUBNS":"01935607","GEOIDFQ":"0600000US1000190888","GEOID":"1000190888","NAME":"Felton","NAMELSAD":"Felton CCD","STUSPS":"DE","NAMELSADCO":"Kent County","STATE_NAME":"Delaware","LSAD":"22","ALAND":147898698,"AWATER":542235}},
{"type":"Feature","geometry":{"type":"Polygon","coordinates":[[[-75.48482,38.90375],[-75.48949,38.9055],[-75.49272,38.92259],[-75.4904,38.9243],[-75.49053,38.93429],[-75.50062,38.93713],[-75.48788,38.94605],[-75.48789,38.96535],[-75.49415,38.96845],[-75.50049,38.97844],[-75.51759,38.96825],[-75.53589,38.95994],[-75.54491,38.95177],[-75.54869,38.95408],[-75.56595,38.9532],[-75.57928,38.94894],[-75.60031,38.952],[-75.60904,38.94498],[-75.62718,38.94066],[-75.65098,38.94953],[-75.66049,38.95],[-75.67436,38.95381],[-75.69318,38.96058],[-75.69681,38.97098],[-75.72158,38.9603],[-75.73286,38.95737],[-75.7226,38.82986],[-75.55501,38.83565],[-75.54873,38.84108],[-75.53958,38.84363],[-75.53623,38.84989],[-75.52044,38.85574],[-75.51631,38.864],[-75.50817,38.87895],[-75.49778,38.88213],[-75.49438,38.88788],[-75.48803,38.89278],[-75.48816,38.89898],[-75.48482,38.90375]]]},"properties":{"STATEFP":"10","COUNTYFP":"001","COUSUBFP":"91332","COUSUBNS":"01935610","GEOIDFQ":"0600000US1000191332","GEOID":"1000191332","NAME":"Harrington","NAMELSAD":"Harrington CCD","STUSPS":"DE","NAMELSADCO":"Kent County","STATE_NAME":"Delaware","LSAD":"22","ALAND":264403136,"AWATER":403905}},
{"type":"Feature","geometry":{"type":"Polygon","coordinates":[[[-75.45729,39.08562],[-75.46207,39.06399],[-75.45822,39.04736],[-75.45748,39.03791],[-75.46186,39.01671],[-75.46938,39.01396],[-75.47572,39.02086],[-75.47596,39.02608],[-75.48581,39.0264],[-75.49766,39.02954],[-75.50608,39.02415],[-75.51337,39.02381],[-75.52892,39.01019],[-75.52248,39.00443],[-75.50935,38.98478],[-75.50049,38.97844],[-75.49415,38.96845],[-75.48789,38.96535],[-75.48788,38.94605],[-75.50062,38.93713],[-75.49053,38.93429],[-75.4904,38.9243],[-75.49272,38.92259],[-75.48949,38.9055],[-75.48482,38.90375],[-75.46515,38.91131],[-75.46058,38.90938],[-75.44039,38.91313],[-75.43405,38.91082],[-75.4301,38.91335],[-75.41832,38.91426],[-75.41668,38.91803],[-75.40892,38.9197],[-75.39911,38.92691],[-75.39861,38.93352],[-75.40287,38.93747],[-75.39853,38.94074],[-75.40072,38.94772],[-75.39361,38.95285],[-75.38252,38.95591],[-75.38065,38.96187],[-75.36102,38.95753],[-75.35277,38.94793],[-75.34597,38.95344],[-75.34352,38.94744],[-75.335,38.94732],[-75.33244,38.95071],[-75.32463,38.94971],[-75.32127,38.95346],[-75.31353,38.95043],[-75.31192,38.94592],[-75.31161,38.96764],[-75.31495,38.98078],[-75.31835,38.98819],[-75.34089,39.01996],[-75.34576,39.02486],[-75.36012,39.03284],[-75.37156,39.04296],[-75.37987,39.04879],[-75.38791,39.05117],[-75.39628,39.05788],[-75.401,39.06615],[-75.40982,39.07237],[-75.4129,39.0701],[-75.42612,39.07001],[-75.43961,39.07747],[-75.4418,39.0804],[-75.45729,39.08562]]]},"properties":{"STATEFP":"10","COUNTYFP":"001","COUSUBFP":"92220","COUSUBNS":"01935616","GEOIDFQ":"0600000US1000192220","GEOID":"1000192220","NAME":"Milford North","NAMELSAD":"Milford North CCD","STUSPS":"DE","NAMELSADCO":"Kent County","STATE_NAME":"Delaware","LSAD":"22","ALAND":198922906,"AWATER":209647968}},
{"type":"Feature","geometry":{"type":"Polygon","coordinates":[[[-75.50035,38.75564],[-75.49464,38.76474],[-75.4873,38.7707],[-75.48312,38.77905],[-75.47488,38.788],[-75.4767,38.79239],[-75.46549,38.80687],[-75.45738,38.81364],[-75.46443,38.81645],[-75.47553,38.82737],[-75.47797,38.82591],[-75.49654,38.83577],[-75.51179,38.83997],[-75.51887,38.84968],[-75.51631,38.864],[-75.52044,38.85574],[-75.53623,38.84989],[-75.53958,38.84363],[-75.54873,38.84108],[-75.55501,38.83565],[-75.7226,38.82986],[-75.71288,38.70564],[-75.70186,38.70319],[-75.69315,38.7039],[-75.67323,38.70999],[-75.66161,38.71014],[-75.64626,38.7182],[-75.62993,38.7093],[-75.62015,38.70184],[-75.60203,38.69512],[-75.58908,38.69967],[-75.58827,38.70661],[-75.59048,38.72299],[-75.56548,38.71025],[-75.55577,38.70775],[-75.54584,38.70807],[-75.53136,38.71027],[-75.53052,38.71801],[-75.52492,38.72457],[-75.51199,38.73329],[-75.50983,38.74176],[-75.50035,38.75564]]]},"properties":{"STATEFP":"10","COUNTYFP":"005","COUSUBFP":"90296","COUSUBNS":"01935603","GEOIDFQ":"0600000US1000590296","GEOID":"1000590296","NAME":"Bridgeville-Greenwood","NAMELSAD":"Bridgeville-Greenwood CCD","STUSPS":"DE","NAMELSADCO":"Sussex County","STATE_NAME":"Delaware","LSAD":"22","ALAND":277882966,"AWATER":14151}},
{"type":"Feature","geometry":{"type":"Polygon","coordinates":[[[-75.72661,39.54182],[-75.72494,39.54522],[-75.7057,39.55371],[-75.70305,39.55656],[-75.69759,39.57054],[-75.67852,39.5923],[-75.69122,39.59975],[-75.69009,39.60291],[-75.69328,39.61729],[-75.70419,39.62593],[-75.70552,39.63554],[-75.70727,39.64019],[-75.71539,39.63979],[-75.71931,39.63617],[-75.72522,39.63603],[-75.7331,39.64137],[-75.74099,39.64334],[-75.74246,39.64707],[-75.7571,39.64697],[-75.78376,39.63943],[-75.78754,39.63903],[-75.77958,39.53554],[-75.76795,39.53629],[-75.7559,39.54023],[-75.72661,39.54182]]]},"properties":{"STATEFP":"10","COUNTYFP":"003","COUSUBFP":"91110","COUSUBNS":"01935605","GEOIDFQ":"0600000US1000391110","GEOID":"1000391110","NAME":"Glasgow","NAMELSAD":"Glasgow CCD","STUSPS":"DE","NAMELSADCO":"New Castle County","STATE_NAME":"Delaware","LSAD":"22","ALAND":82055314,"AWATER":1601078}},
{"type":"Feature","geometry":{"type":"MultiPolygon","coordinates":[[[[-75.56091,39.72889],[-75.55994,39.72144],[-75.57221,39.71707],[-75.58246,39.71854],[-75.59023,39.71561],[-75.59724,39.70892],[-75.60338,39.71109],[-75.611,39.70957],[-75.62123,39.69738],[-75.62147,39.6905],[-75.6283,39.68821],[-75.63643,39.67424],[-75.64209,39.67268],[-75.64204,39.66681],[-75.65485,39.66554],[-75.66696,39.65796],[-75.66915,39.65394],[-75.67667,39.64868],[-75.67407,39.64646],[-75.67705,39.63947],[-75.68398,39.63334],[-75.68858,39.63586],[-75.69893,39.63114],[-75.70552,39.63554],[-75.70419,39.62593],[-75.69328,39.61729],[-75.69009,39.60291],[-75.69122,39.59975],[-75.67852,39.5923],[-75.66804,39.60445],[-75.66146,39.60766],[-75.65719,39.60591],[-75.64124,39.60709],[-75.62707,39.60472],[-75.62158,39.60754],[-75.61348,39.60686],[-75.61134,39.61018],[-75.61493,39.61595],[-75.61197,39.62197],[-75.58715,39.65101],[-75.56904,39.65649],[-75.56225,39.65671],[-75.52553,39.7005],[-75.53258,39.70664],[-75.53566,39.71876],[-75.56091,39.72889]]],[[[-75.5708,39.62677],[-75.57105,39.62132],[-75.562,39.60575],[-75.55617,39.60639],[-75.5587,39.61793],[-75.55945,39.62981],[-75.5708,39.62677]]]]},"properties":{"STATEFP":"10","COUNTYFP":"003","COUSUBFP":"92812","COUSUBNS":"01935620","GEOIDFQ":"0600000US1000392812","GEOID":"1000392812","NAME":"New Castle","NAMELSAD":"New Castle CCD","STUSPS":"DE","NAMELSADCO":"New Castle County","STATE_NAME":"Delaware","LSAD":"22","ALAND":97877859,"AWATER":34975581}},
{"type":"Feature","geometry":{"type":"MultiPolygon","coordinates":[[[[-75.56412,39.56068],[-75.5716,39.56773],[-75.58661,39.57888],[-75.59875,39.58912],[-75.60358,39.58896],[-75.61187,39.59741],[-75.61348,39.60686],[-75.62158,39.60754],[-75.62707,39.60472],[-75.64124,39.60709],[-75.65719,39.60591],[-75.66146,39.60766],[-75.66804,39.60445],[-75.67852,39.5923],[-75.69759,39.57054],[-75.70305,39.55656],[-75.7057,39.55371],[-75.72494,39.54522],[-75.72661,39.54182],[-75.71169,39.54388],[-75.68631,39.54197],[-75.66443,39.54554],[-75.65104,39.55264],[-75.64241,39.55497],[-75.63372,39.55506],[-75.62057,39.55283],[-75.56412,39.56068]]],[[[-75.57971,39.59789],[-75.57543,39.58812],[-75.56769,39.58573],[-75.56582,39.59061],[-75.57971,39.59789]]]]},"properties":{"STATEFP":"10","COUNTYFP":"003","COUSUBFP":"93256","COUSUBNS":"01935623","GEOIDFQ":"0600000US1000393256","GEOID":"1000393256","NAME":"Red Lion","NAMELSAD":"Red Lion CCD","STUSPS":"DE","NAMELSADCO":"New Castle County","STATE_NAME":"Delaware","LSAD":"22","ALAND":52508557,"AWATER":28132943}},
{"type":"Feature","geometry":{"type":"Polygon","coordinates":[[[-75.10319,38.60686],[-75.0994,38.6145],[-75.08855,38.62177],[-75.08521,38.62843],[-75.09054,38.64154],[-75.09529,38.64475],[-75.11003,38.64408],[-75.12551,38.64041],[-75.14107,38.64364],[-75.14996,38.65298],[-75.1566,38.65569],[-75.1668,38.65714],[-75.17628,38.66365],[-75.18944,38.66576],[-75.18932,38.65374],[-75.19363,38.63756],[-75.19609,38.63643],[-75.20748,38.64338],[-75.21622,38.65138],[-75.22262,38.66335],[-75.235,38.67364],[-75.24439,38.67795],[-75.25636,38.67655],[-75.26914,38.68097],[-75.27628,38.68117],[-75.28992,38.67684],[-75.29716,38.68074],[-75.3079,38.68253],[-75.30261,38.67475],[-75.29901,38.66274],[-75.29593,38.63217],[-75.31138,38.6337],[-75.31517,38.63847],[-75.3235,38.63936],[-75.33017,38.64282],[-75.34486,38.6475],[-75.35854,38.65346],[-75.36809,38.65296],[-75.33763,38.62058],[-75.34652,38.62015],[-75.35112,38.61671],[-75.35739,38.61905],[-75.36602,38.62551],[-75.37338,38.62901],[-75.39239,38.63191],[-75.40161,38.63971],[-75.41648,38.64266],[-75.43038,38.65207],[-75.4381,38.64523],[-75.48465,38.62032],[-75.44554,38.60416],[-75.41321,38.5933],[-75.40907,38.593],[-75.39343,38.59815],[-75.39073,38.59396],[-75.38877,38.58319],[-75.38076,38.57622],[-75.37624,38.56176],[-75.37068,38.55459],[-75.35464,38.54622],[-75.35867,38.5367],[-75.35697,38.52482],[-75.33439,38.52703],[-75.32674,38.52905],[-75.30563,38.53148],[-75.3067,38.53885],[-75.30067,38.54618],[-75.28899,38.55225],[-75.28625,38.55154],[-75.27799,38.55734],[-75.27476,38.56453],[-75.2618,38.57245],[-75.2583,38.58316],[-75.24591,38.59133],[-75.2405,38.59141],[-75.23466,38.5877],[-75.22281,38.58878],[-75.20883,38.59167],[-75.19504,38.58956],[-75.17414,38.58786],[-75.16088,38.59285],[-75.12463,38.6008],[-75.11586,38.60479],[-75.10319,38.60686]]]},"properties":{"STATEFP":"10","COUNTYFP":"005","COUSUBFP":"92516","COUSUBNS":"01935618","GEOIDFQ":"0600000US1000592516","GEOID":"1000592516","NAME":"Millsboro","NAMELSAD":"Millsboro CCD","STUSPS":"DE","NAMELSADCO":"Sussex County","STATE_NAME":"Delaware","LSAD":"22","ALAND":235822742,"AWATER":21674892}},
{"type":"Feature","geometry":{"type":"Polygon","coordinates":[[[-75.30876,38.82407],[-75.31248,38.82874],[-75.32665,38.8323],[-75.34571,38.83414],[-75.34362,38.82655],[-75.34538,38.81567],[-75.34239,38.8085],[-75.34012,38.78144],[-75.34149,38.77584],[-75.33577,38.74877],[-75.34984,38.74752],[-75.3581,38.74495],[-75.36039,38.74048],[-75.36019,38.73215],[-75.36278,38.71672],[-75.36519,38.71443],[-75.36593,38.70055],[-75.32516,38.71116],[-75.31669,38.71419],[-75.31078,38.70108],[-75.30954,38.68638],[-75.3079,38.68253],[-75.29716,38.68074],[-75.28992,38.67684],[-75.27628,38.68117],[-75.26914,38.68097],[-75.25636,38.67655],[-75.24439,38.67795],[-75.235,38.67364],[-75.22262,38.66335],[-75.22168,38.67793],[-75.21748,38.68605],[-75.21481,38.70179],[-75.20645,38.71444],[-75.20632,38.72148],[-75.19702,38.73081],[-75.17387,38.7484],[-75.18672,38.7496],[-75.19252,38.75441],[-75.20496,38.76124],[-75.24599,38.78769],[-75.25187,38.7908],[-75.26873,38.80283],[-75.30207,38.81831],[-75.30876,38.82407]]]},"properties":{"STATEFP":"10","COUNTYFP":"005","COUSUBFP":"92664","COUSUBNS":"01935619","GEOIDFQ":"0600000US1000592664","GEOID":"1000592664","NAME":"Milton","NAMELSAD":"Milton CCD","STUSPS":"DE","NAMELSADCO":"Sussex County","STATE_NAME":"Delaware","LSAD":"22","ALAND":163580848,"AWATER":1421898}},
{"type":"Feature","geometry":{"type":"Polygon","coordinates":[[[-75.76588,39.73811],[-75.77379,39.7222],[-75.7886,39.7222],[-75.78866,39.65821],[-75.78754,39.63903],[-75.78376,39.63943],[-75.7571,39.64697],[-75.74246,39.64707],[-75.74099,39.64334],[-75.7331,39.64137],[-75.72522,39.63603],[-75.71931,39.63617],[-75.71539,39.63979],[-75.70727,39.64019],[-75.70552,39.63554],[-75.70252,39.64525],[-75.69771,39.64845],[-75.69605,39.66966],[-75.70084,39.68448],[-75.70627,39.6906],[-75.69881,39.69357],[-75.69626,39.69769],[-75.69393,39.7108],[-75.70115,39.72392],[-75.70247,39.72924],[-75.70854,39.73465],[-75.71162,39.74032],[-75.71821,39.7454],[-75.72674,39.74041],[-75.73539,39.73287],[-75.74317,39.7334],[-75.75537,39.72901],[-75.76087,39.73635],[-75.76588,39.73811]]]},"properties":{"STATEFP":"10","COUNTYFP":"003","COUSUBFP":"92738","COUSUBNS":"01935609","GEOIDFQ":"0600000US1000392738","GEOID":"1000392738","NAME":"Newark","NAMELSAD":"Newark CCD","STUSPS":"DE","NAMELSADCO":"New Castle County","STATE_NAME":"Delaware","LSAD":"22","ALAND":77926974,"AWATER":15366}},
{"type":"Feature","geometry":{"type":"Polygon","coordinates":[[[-75.49649,39.7433],[-75.49024,39.75479],[-75.4685,39.78647],[-75.42342,39.80662],[-75.45374,39.82031],[-75.48124,39.82911],[-75.49884,39.83331],[-75.51844,39.83631],[-75.53935,39.83821],[-75.57046,39.83901],[-75.57939,39.83855],[-75.57304,39.82911],[-75.57568,39.82256],[-75.56994,39.81734],[-75.56629,39.80968],[-75.57522,39.79554],[-75.58032,39.79168],[-75.57699,39.78449],[-75.57056,39.78094],[-75.57744,39.7744],[-75.57612,39.769],[-75.57005,39.77096],[-75.55911,39.7685],[-75.55715,39.76146],[-75.5353,39.76739],[-75.52995,39.77176],[-75.5184,39.76763],[-75.51843,39.76241],[-75.52582,39.75904],[-75.51583,39.74613],[-75.50598,39.74206],[-75.49649,39.7433]]]},"properties":{"STATEFP":"10","COUNTYFP":"003","COUSUBFP":"90148","COUSUBNS":"01935602","GEOIDFQ":"0600000US1000390148","GEOID":"1000390148","NAME":"Brandywine","NAMELSAD":"Brandywine CCD","STUSPS":"DE","NAMELSADCO":"New Castle County","STATE_NAME":"Delaware","LSAD":"22","ALAND":81483854,"AWATER":17633712}}
]}