{"type":"FeatureCollection", "features": [
{"type":"Feature","geometry":{"type":"Polygon","coordinates":[[[-71.787,41.65612],[-71.78936,41.59685],[-71.76081,41.59804],[-71.65357,41.5987],[-71.64335,41.60096],[-71.54481,41.60199],[-71.54609,41.62576],[-71.54711,41.66185],[-71.58977,41.66051],[-71.66594,41.65869],[-71.69494,41.65842],[-71.787,41.65612]]]},"properties":{"STATEFP":"44","COUNTYFP":"003","COUSUBFP":"77720","COUSUBNS":"01220059","GEOIDFQ":"0600000US4400377720","GEOID":"4400377720","NAME":"West Greenwich","NAMELSAD":"West Greenwich town","STUSPS":"RI","NAMELSADCO":"Kent County","STATE_NAME":"Rhode Island","LSAD":"43","ALAND":130269418,"AWATER":2598306}},
{"type":"Feature","geometry":{"type":"Polygon","coordinates":[[[-71.3943,41.89765],[-71.40469,41.89478],[-71.40705,41.89191],[-71.40371,41.88106],[-71.38101,41.88407],[-71.38153,41.89323],[-71.3817,41.89706],[-71.38827,41.89981],[-71.3943,41.89765]]]},"properties":{"STATEFP":"44","COUNTYFP":"007","COUSUBFP":"14140","COUSUBNS":"01220067","GEOIDFQ":"0600000US4400714140","GEOID":"4400714140","NAME":"Central Falls","NAMELSAD":"Central Falls city","STUSPS":"RI","NAMELSADCO":"Providence County","STATE_NAME":"Rhode Island","LSAD":"25","ALAND":3092443,"AWATER":208466}},
{"type":"Feature","geometry":{"type":"Polygon","coordinates":[[[-71.69101,41.85646],[-71.66843,41.72747],[-71.64425,41.7278],[-71.54743,41.73003],[-71.54735,41.7312],[-71.55317,41.75698],[-71.55929,41.78934],[-71.56563,41.81499],[-71.57464,41.85875],[-71.61313,41.85777],[-71.69101,41.85646]]]},"properties":{"STATEFP":"44","COUNTYFP":"007","COUSUBFP":"64220","COUSUBNS":"01220077","GEOIDFQ":"0600000US4400764220","GEOID":"4400764220","NAME":"Scituate","NAMELSAD":"Scituate town","STUSPS":"RI","NAMELSADCO":"Providence County","STATE_NAME":"Rhode Island","LSAD":"43","ALAND":124665548,"AWATER":17111431}},
{"type":"Feature","geometry":{"type":"Polygon","coordinates":[[[-71.69101,41.85646],[-71.73766,41.85572],[-71.74748,41.85524],[-71.79469,41.85441],[-71.79106,41.77027],[-71.78969,41.7252],[-71.72011,41.72633],[-71.66843,41.72747],[-71.69101,41.85646]]]},"properties":{"STATEFP":"44","COUNTYFP":"007","COUSUBFP":"27460","COUSUBNS":"01220072","GEOIDFQ":"0600000US4400727460","GEOID":"4400727460","NAME":"Foster","NAMELSAD":"Foster town","STUSPS":"RI","NAMELSADCO":"Providence County","STATE_NAME":"Rhode Island","LSAD":"43","ALAND":131446005,"AWATER":2835602}},
{"type":"Feature","geometry":{"type":"Polygon","coordinates":[[[-71.60673,42.01341],[-71.76601,42.00975],[-71.79924,42.00807],[-71.79765,41.92865],[-71.7419,41.92975],[-71.63973,41.93243],[-71.62939,41.93238],[-71.59031,41.93367],[-71.60673,42.01341]]]},"properties":{"STATEFP":"44","COUNTYFP":"007","COUSUBFP":"11800","COUSUBNS":"01220081","GEOIDFQ":"0600000US4400711800","GEOID":"4400711800","NAME":"Burrillville","NAMELSAD":"Burrillville town","STUSPS":"RI","NAMELSADCO":"Providence County","STATE_NAME":"Rhode Island","LSAD":"43","ALAND":142233929,"AWATER":5391503}},
{"type":"Feature","geometry":{"type":"Polygon","coordinates":[[[-71.29534,41.70721],[-71.29122,41.70267],[-71.29312,41.68835],[-71.29893,41.68152],[-71.30263,41.68175],[-71.30609,41.67258],[-71.30499,41.65935],[-71.3014,41.64998],[-71.29762,41.65384],[-71.29786,41.65828],[-71.29055,41.66239],[-71.28764,41.67246],[-71.28907,41.67959],[-71.2855,41.68243],[-71.27885,41.67835],[-71.28037,41.67258],[-71.27766,41.66628],[-71.26768,41.6574],[-71.27008,41.65244],[-71.26705,41.64495],[-71.25956,41.6426],[-71.2546,41.65225],[-71.25342,41.66059],[-71.24438,41.66912],[-71.23844,41.66557],[-71.23464,41.67746],[-71.24248,41.68793],[-71.24581,41.69716],[-71.24369,41.69839],[-71.25153,41.71541],[-71.29138,41.70955],[-71.29404,41.71028],[-71.29534,41.70721]]]},"properties":{"STATEFP":"44","COUNTYFP":"001","COUSUBFP":"09280","COUSUBNS":"01220083","GEOIDFQ":"0600000US4400109280","GEOID":"4400109280","NAME":"Bristol","NAMELSAD":"Bristol town","STUSPS":"RI","NAMELSADCO":"Bristol County","STATE_NAME":"Rhode Island","LSAD":"43","ALAND":25352632,"AWATER":27927497}},
{"type":"Feature","geometry":{"type":"Polygon","coordinates":[[[-71.54481,41.60199],[-71.52243,41.60257],[-71.48443,41.60259],[-71.48545,41.61297],[-71.48804,41.61605],[-71.48248,41.62358],[-71.47132,41.62908],[-71.46784,41.63417],[-71.46869,41.63859],[-71.45802,41.64981],[-71.45488,41.64744],[-71.44602,41.65538],[-71.44238,41.66361],[-71.44493,41.66403],[-71.49922,41.66295],[-71.53338,41.66216],[-71.54711,41.66185],[-71.54609,41.62576],[-71.54481,41.60199]]]},"properties":{"STATEFP":"44","COUNTYFP":"003","COUSUBFP":"22240","COUSUBNS":"01220085","GEOIDFQ":"0600000US4400322240","GEOID":"4400322240","NAME":"East Greenwich","NAMELSAD":"East Greenwich town","STUSPS":"RI","NAMELSADCO":"Kent County","STATE_NAME":"Rhode Island","LSAD":"43","ALAND":42413289,"AWATER":629589}},
{"type":"Feature","geometry":{"type":"Polygon","coordinates":[[[-71.37502,41.85745],[-71.37233,41.85055],[-71.37359,41.83249],[-71.37743,41.82929],[-71.38708,41.81637],[-71.39353,41.81476],[-71.3935,41.8071],[-71.3852,41.8021],[-71.3808,41.7963],[-71.372,41.78982],[-71.37169,41.78338],[-71.36513,41.77751],[-71.36608,41.77112],[-71.36085,41.75517],[-71.36235,41.75089],[-71.3599,41.74506],[-71.35582,41.74506],[-71.35149,41.75264],[-71.31792,41.77616],[-71.3279,41.7805],[-71.3293,41.7868],[-71.3339,41.7945],[-71.3393,41.7963],[-71.3408,41.8002],[-71.3392,41.809],[-71.3472,41.8231],[-71.3449,41.828],[-71.3352,41.8355],[-71.3422,41.8448],[-71.33449,41.86124],[-71.37502,41.85745]]]},"properties":{"STATEFP":"44","COUNTYFP":"007","COUSUBFP":"22960","COUSUBNS":"01220071","GEOIDFQ":"0600000US4400722960","GEOID":"4400722960","NAME":"East Providence","NAMELSAD":"East Providence city","STUSPS":"RI","NAMELSADCO":"Providence County","STATE_NAME":"Rhode Island","LSAD":"25","ALAND":34406029,"AWATER":8602870}},
{"type":"Feature","geometry":{"type":"Polygon","coordinates":[[[-71.71502,41.5542],[-71.70924,41.54756],[-71.70083,41.54885],[-71.69606,41.53995],[-71.69547,41.52864],[-71.68722,41.52841],[-71.68933,41.52391],[-71.7055,41.51511],[-71.70811,41.50956],[-71.71649,41.50312],[-71.71534,41.49177],[-71.71784,41.48683],[-71.71372,41.4778],[-71.71687,41.47697],[-71.71989,41.46722],[-71.71977,41.45976],[-71.71233,41.45981],[-71.71123,41.45619],[-71.71701,41.4499],[-71.71804,41.44353],[-71.72253,41.43777],[-71.71901,41.42832],[-71.71637,41.43305],[-71.70751,41.43539],[-71.70138,41.43065],[-71.69214,41.43277],[-71.68647,41.43697],[-71.67694,41.44884],[-71.67444,41.45797],[-71.67172,41.46109],[-71.66434,41.45842],[-71.65523,41.45914],[-71.65011,41.45352],[-71.64938,41.44888],[-71.63978,41.44595],[-71.63182,41.4471],[-71.61838,41.44668],[-71.61229,41.45204],[-71.60891,41.45223],[-71.59863,41.45804],[-71.59692,41.46139],[-71.59917,41.46676],[-71.6059,41.47567],[-71.60118,41.47779],[-71.60201,41.48339],[-71.60801,41.48948],[-71.60952,41.49802],[-71.60749,41.50093],[-71.61304,41.52512],[-71.62071,41.56423],[-71.71502,41.5542]]]},"properties":{"STATEFP":"44","COUNTYFP":"009","COUSUBFP":"61160","COUSUBNS":"01220089","GEOIDFQ":"0600000US4400961160","GEOID":"4400961160","NAME":"Richmond","NAMELSAD":"Richmond town","STUSPS":"RI","NAMELSADCO":"Washington County","STATE_NAME":"Rhode Island","LSAD":"43","ALAND":104433008,"AWATER":1119929}},
{"type":"Feature","geometry":{"type":"Polygon","coordinates":[[[-71.3817,41.89706],[-71.3814,41.9648],[-71.3814,42.0188],[-71.45812,42.01776],[-71.45989,42.00757],[-71.48736,41.97909],[-71.47866,41.97714],[-71.47414,41.97262],[-71.46536,41.96939],[-71.46178,41.95742],[-71.45724,41.95657],[-71.45099,41.94991],[-71.44255,41.94741],[-71.43095,41.93464],[-71.43094,41.92699],[-71.42833,41.92354],[-71.4217,41.92215],[-71.41842,41.91882],[-71.40539,41.911],[-71.39705,41.91062],[-71.40048,41.90137],[-71.3943,41.89765],[-71.38827,41.89981],[-71.3817,41.89706]]]},"properties":{"STATEFP":"44","COUNTYFP":"007","COUSUBFP":"20080","COUSUBNS":"01220068","GEOIDFQ":"0600000US4400720080","GEOID":"4400720080","NAME":"Cumberland","NAMELSAD":"Cumberland town","STUSPS":"RI","NAMELSADCO":"Providence County","STATE_NAME":"Rhode Island","LSAD":"43","ALAND":68601211,"AWATER":4683753}},
{"type":"Feature","geometry":{"type":"Polygon","coordinates":[[[-71.37502,41.85745],[-71.40927,41.8566],[-71.41742,41.85967],[-71.435,41.86182],[-71.47246,41.83698],[-71.47243,41.83418],[-71.46477,41.83105],[-71.46242,41.82469],[-71.47131,41.82414],[-71.46367,41.80505],[-71.44222,41.8072],[-71.43927,41.80203],[-71.43934,41.79724],[-71.43648,41.78841],[-71.43405,41.78631],[-71.42061,41.78618],[-71.42381,41.77727],[-71.41496,41.77319],[-71.41004,41.77376],[-71.40511,41.77933],[-71.40426,41.78585],[-71.38941,41.78634],[-71.38247,41.7851],[-71.37169,41.78338],[-71.372,41.78982],[-71.3808,41.7963],[-71.3852,41.8021],[-71.3935,41.8071],[-71.39353,41.81476],[-71.38708,41.81637],[-71.37743,41.82929],[-71.37359,41.83249],[-71.37233,41.85055],[-71.37502,41.85745]]]},"properties":{"STATEFP":"44","COUNTYFP":"007","COUSUBFP":"59000","COUSUBNS":"01220076","GEOIDFQ":"0600000US4400759000","GEOID":"4400759000","NAME":"Providence","NAMELSAD":"Providence city","STUSPS":"RI","NAMELSADCO":"Providence County","STATE_NAME":"Rhode Island","LSAD":"25","ALAND":47670947,"AWATER":5643961}},
{"type":"Feature","geometry":{"type":"Polygon","coordinates":[[[-71.5228,41.37669],[-71.50293,41.3742],[-71.49727,41.37131],[-71.48896,41.36435],[-71.48087,41.36025],[-71.4842,41.37184],[-71.47492,41.3861],[-71.46898,41.39362],[-71.46374,41.39575],[-71.46233,41.40128],[-71.45621,41.40512],[-71.45297,41.40968],[-71.45264,41.41778],[-71.45482,41.42182],[-71.45584,41.43299],[-71.44895,41.43848],[-71.43813,41.44165],[-71.43114,41.4473],[-71.43026,41.45304],[-71.42668,41.45882],[-71.43001,41.46114],[-71.43074,41.47064],[-71.42763,41.47254],[-71.4184,41.47265],[-71.41796,41.48207],[-71.42027,41.48358],[-71.42142,41.49863],[-71.41958,41.50365],[-71.44815,41.50279],[-71.4501,41.5018],[-71.44666,41.48908],[-71.4496,41.4724],[-71.4484,41.46873],[-71.45114,41.4616],[-71.45162,41.45316],[-71.46428,41.44354],[-71.48333,41.43542],[-71.4948,41.4273],[-71.4971,41.4175],[-71.5032,41.4176],[-71.50483,41.40751],[-71.51464,41.38479],[-71.5228,41.37669]]]},"properties":{"STATEFP":"44","COUNTYFP":"009","COUSUBFP":"48340","COUSUBNS":"01220093","GEOIDFQ":"0600000US4400948340","GEOID":"4400948340","NAME":"Narragansett","NAMELSAD":"Narragansett town","STUSPS":"RI","NAMELSADCO":"Washington County","STATE_NAME":"Rhode Island","LSAD":"43","ALAND":35911187,"AWATER":61848426}},
{"type":"Feature","geometry":{"type":"MultiPolygon","coordinates":[[[[-71.44493,41.66403],[-71.44702,41.67122],[-71.44457,41.6743],[-71.4477,41.67787],[-71.4502,41.68646],[-71.44592,41.69114],[-71.44134,41.68645],[-71.43381,41.68696],[-71.41807,41.68421],[-71.39816,41.68341],[-71.39055,41.6841],[-71.38988,41.6719],[-71.37791,41.66665],[-71.37299,41.67258],[-71.37344,41.67861],[-71.37154,41.68536],[-71.36489,41.68838],[-71.3656,41.6937],[-71.36441,41.7047],[-71.36572,41.71162],[-71.35728,41.71659],[-71.36988,41.71828],[-71.37653,41.72165],[-71.38105,41.72732],[-71.38081,41.73885],[-71.37606,41.74417],[-71.38057,41.74595],[-71.38105,41.7557],[-71.3838,41.75851],[-71.38852,41.76378],[-71.39412,41.76404],[-71.39958,41.76832],[-71.4107,41.76655],[-71.41438,41.76295],[-71.42199,41.76458],[-71.42622,41.76102],[-71.43756,41.75983],[-71.44062,41.75215],[-71.44654,41.74889],[-71.44468,41.74016],[-71.45128,41.7397],[-71.45534,41.73237],[-71.48391,41.7316],[-71.4858,41.72613],[-71.49712,41.71317],[-71.50519,41.71131],[-71.51276,41.70667],[-71.51891,41.6959],[-71.50168,41.69647],[-71.49922,41.66295],[-71.44493,41.66403]]],[[[-71.46784,41.63417],[-71.45912,41.63795],[-71.45137,41.62946],[-71.44929,41.63673],[-71.44199,41.64328],[-71.44251,41.64582],[-71.4328,41.65132],[-71.41758,41.65495],[-71.40888,41.65384],[-71.40862,41.66317],[-71.41765,41.6653],[-71.42428,41.67027],[-71.44238,41.66361],[-71.44602,41.65538],[-71.45488,41.64744],[-71.45802,41.64981],[-71.46869,41.63859],[-71.46784,41.63417]]]]},"properties":{"STATEFP":"44","COUNTYFP":"003","COUSUBFP":"74300","COUSUBNS":"01220058","GEOIDFQ":"0600000US4400374300","GEOID":"4400374300","NAME":"Warwick","NAMELSAD":"Warwick city","STUSPS":"RI","NAMELSADCO":"Kent County","STATE_NAME":"Rhode Island","LSAD":"25","ALAND":90651872,"AWATER":38201407}},
{"type":"Feature","geometry":{"type":"Polygon","coordinates":[[[-71.24369,41.69839],[-71.24099,41.69774],[-71.22787,41.7055],[-71.2248,41.7105],[-71.26139,41.7523],[-71.2844,41.76201],[-71.28659,41.7424],[-71.2898,41.73381],[-71.28729,41.7285],[-71.28929,41.716],[-71.29404,41.71028],[-71.29138,41.70955],[-71.25153,41.71541],[-71.24369,41.69839]]]},"properties":{"STATEFP":"44","COUNTYFP":"001","COUSUBFP":"73760","COUSUBNS":"01220057","GEOIDFQ":"0600000US4400173760","GEOID":"4400173760","NAME":"Warren","NAMELSAD":"Warren town","STUSPS":"RI","NAMELSADCO":"Bristol County","STATE_NAME":"Rhode Island","LSAD":"43","ALAND":15949813,"AWATER":6732451}},
{"type":"Feature","geometry":{"type":"Polygon","coordinates":[[[-71.54735,41.7312],[-71.53429,41.73017],[-71.48391,41.7316],[-71.45534,41.73237],[-71.45128,41.7397],[-71.44468,41.74016],[-71.44654,41.74889],[-71.44062,41.75215],[-71.43756,41.75983],[-71.42622,41.76102],[-71.42199,41.76458],[-71.41438,41.76295],[-71.4107,41.76655],[-71.39958,41.76832],[-71.39412,41.76404],[-71.38852,41.76378],[-71.3838,41.75851],[-71.3855,41.76866],[-71.39174,41.78105],[-71.39056,41.78371],[-71.38247,41.7851],[-71.38941,41.78634],[-71.40426,41.78585],[-71.40511,41.77933],[-71.41004,41.77376],[-71.41496,41.77319],[-71.42381,41.77727],[-71.42061,41.78618],[-71.43405,41.78631],[-71.43648,41.78841],[-71.43934,41.79724],[-71.43927,41.80203],[-71.44222,41.8072],[-71.46367,41.80505],[-71.46758,41.79811],[-71.47974,41.79685],[-71.48941,41.79168],[-71.50307,41.78914],[-71.51384,41.78842],[-71.53056,41.79145],[-71.53423,41.79321],[-71.54731,41.79213],[-71.55929,41.78934],[-71.55317,41.75698],[-71.54735,41.7312]]]},"properties":{"STATEFP":"44","COUNTYFP":"007","COUSUBFP":"19180","COUSUBNS":"01220069","GEOIDFQ":"0600000US4400719180","GEOID":"4400719180","NAME":"Cranston","NAMELSAD":"Cranston city","STUSPS":"RI","NAMELSADCO":"Providence County","STATE_NAME":"Rhode Island","LSAD":"25","ALAND":73413571,"AWATER":4331474}},
{"type":"Feature","geometry":{"type":"Polygon","coordinates":[[[-71.55929,41.78934],[-71.54731,41.79213],[-71.53423,41.79321],[-71.53056,41.79145],[-71.51384,41.78842],[-71.50307,41.78914],[-71.48941,41.79168],[-71.47974,41.79685],[-71.46758,41.79811],[-71.46367,41.80505],[-71.47131,41.82414],[-71.46242,41.82469],[-71.46477,41.83105],[-71.47243,41.83418],[-71.47246,41.83698],[-71.47722,41.83791],[-71.48097,41.85082],[-71.48564,41.85352],[-71.48821,41.86192],[-71.49555,41.86898],[-71.57464,41.85875],[-71.56563,41.81499],[-71.55929,41.78934]]]},"properties":{"STATEFP":"44","COUNTYFP":"007","COUSUBFP":"37720","COUSUBNS":"01220073","GEOIDFQ":"0600000US4400737720","GEOID":"4400737720","NAME":"Johnston","NAMELSAD":"Johnston town","STUSPS":"RI","NAMELSADCO":"Providence County","STATE_NAME":"Rhode Island","LSAD":"43","ALAND":60806168,"AWATER":2281434}},
{"type":"Feature","geometry":{"type":"Polygon","coordinates":[[[-71.3943,41.89765],[-71.40048,41.90137],[-71.39705,41.91062],[-71.40539,41.911],[-71.41842,41.91882],[-71.4217,41.92215],[-71.42833,41.92354],[-71.43094,41.92699],[-71.43095,41.93464],[-71.44255,41.94741],[-71.45099,41.94991],[-71.45724,41.95657],[-71.46178,41.95742],[-71.46536,41.96939],[-71.47414,41.97262],[-71.47866,41.97714],[-71.48736,41.97909],[-71.4891,41.97474],[-71.48668,41.96949],[-71.48813,41.95487],[-71.48705,41.94644],[-71.49079,41.94324],[-71.46676,41.87277],[-71.4219,41.8787],[-71.40371,41.88106],[-71.40705,41.89191],[-71.40469,41.89478],[-71.3943,41.89765]]]},"properties":{"STATEFP":"44","COUNTYFP":"007","COUSUBFP":"41500","COUSUBNS":"01220074","GEOIDFQ":"0600000US4400741500","GEOID":"4400741500","NAME":"Lincoln","NAMELSAD":"Lincoln town","STUSPS":"RI","NAMELSADCO":"Providence County","STATE_NAME":"Rhode Island","LSAD":"43","ALAND":46812462,"AWATER":2117796}},
{"type":"Feature","geometry":{"type":"Polygon","coordinates":[[[-71.45812,42.01776],[-71.4999,42.0172],[-71.52893,42.01497],[-71.52971,42.00988],[-71.54012,42.00981],[-71.53166,41.98956],[-71.51807,41.9837],[-71.48736,41.97909],[-71.45989,42.00757],[-71.45812,42.01776]]]},"properties":{"STATEFP":"44","COUNTYFP":"007","COUSUBFP":"80780","COUSUBNS":"01220079","GEOIDFQ":"0600000US4400780780","GEOID":"4400780780","NAME":"Woonsocket","NAMELSAD":"Woonsocket city","STUSPS":"RI","NAMELSADCO":"Providence County","STATE_NAME":"Rhode Island","LSAD":"25","ALAND":20061063,"AWATER":484431}},
{"type":"Feature","geometry":{"type":"MultiPolygon","coordinates":[[[[-71.40056,41.46094],[-71.40078,41.45497],[-71.39604,41.45202],[-71.39027,41.45504],[-71.38903,41.46555],[-71.3845,41.46411],[-71.38159,41.46806],[-71.38475,41.47836],[-71.38624,41.48769],[-71.38066,41.4888],[-71.37676,41.47488],[-71.37174,41.47752],[-71.35874,41.47711],[-71.35409,41.48045],[-71.35948,41.48309],[-71.36654,41.49479],[-71.36598,41.49882],[-71.35892,41.50328],[-71.35762,41.50871],[-71.36523,41.51203],[-71.36134,41.52638],[-71.36468,41.5414],[-71.3604,41.54779],[-71.35987,41.55631],[-71.36356,41.57086],[-71.37019,41.57396],[-71.37902,41.56777],[-71.38141,41.55879],[-71.38448,41.55674],[-71.38661,41.54583],[-71.38568,41.53904],[-71.38884,41.53445],[-71.39214,41.52447],[-71.39101,41.51458],[-71.37891,41.50495],[-71.38345,41.50105],[-71.38401,41.49381],[-71.39237,41.49186],[-71.39943,41.49298],[-71.39665,41.47892],[-71.39758,41.47376],[-71.39442,41.46722],[-71.40056,41.46094]]],[[[-71.4051,41.49821],[-71.39628,41.5037],[-71.40141,41.50627],[-71.4051,41.49821]]]]},"properties":{"STATEFP":"44","COUNTYFP":"005","COUSUBFP":"36820","COUSUBNS":"01220061","GEOIDFQ":"0600000US4400536820","GEOID":"4400536820","NAME":"Jamestown","NAMELSAD":"Jamestown town","STUSPS":"RI","NAMELSADCO":"Newport County","STATE_NAME":"Rhode Island","LSAD":"43","ALAND":24469391,"AWATER":66991102}},
{"type":"Feature","geometry":{"type":"Polygon","coordinates":[[[-71.21674,41.62559],[-71.21184,41.62353],[-71.21266,41.61007],[-71.2054,41.59433],[-71.21467,41.58597],[-71.20835,41.58117],[-71.20865,41.57103],[-71.21141,41.55822],[-71.21378,41.5568],[-71.216,41.54718],[-71.21172,41.54545],[-71.12762,41.56323],[-71.13162,41.59392],[-71.14059,41.6051],[-71.14151,41.61608],[-71.14047,41.62389],[-71.13569,41.6284],[-71.13289,41.6601],[-71.17609,41.6681],[-71.17599,41.6714],[-71.19564,41.67509],[-71.20802,41.65314],[-71.21182,41.6391],[-71.21393,41.6391],[-71.21674,41.62559]]]},"properties":{"STATEFP":"44","COUNTYFP":"005","COUSUBFP":"70880","COUSUBNS":"01220066","GEOIDFQ":"0600000US4400570880","GEOID":"4400570880","NAME":"Tiverton","NAMELSAD":"Tiverton town","STUSPS":"RI","NAMELSADCO":"Newport County","STATE_NAME":"Rhode Island","LSAD":"43","ALAND":75254509,"AWATER":18875638}},
{"type":"Feature","geometry":{"type":"Polygon","coordinates":[[[-71.71901,41.42832],[-71.72607,41.42721],[-71.72595,41.42236],[-71.73003,41.41452],[-71.7234,41.40797],[-71.72356,41.40436],[-71.73125,41.39851],[-71.73078,41.38647],[-71.72988,41.3317],[-71.71604,41.33109],[-71.70517,41.33429],[-71.69669,41.34098],[-71.68807,41.34282],[-71.64285,41.35566],[-71.63832,41.35543],[-71.62562,41.36076],[-71.59514,41.44623],[-71.59952,41.44991],[-71.60891,41.45223],[-71.61229,41.45204],[-71.61838,41.44668],[-71.63182,41.4471],[-71.63978,41.44595],[-71.64938,41.44888],[-71.65011,41.45352],[-71.65523,41.45914],[-71.66434,41.45842],[-71.67172,41.46109],[-71.67444,41.45797],[-71.67694,41.44884],[-71.68647,41.43697],[-71.69214,41.43277],[-71.70138,41.43065],[-71.70751,41.43539],[-71.71637,41.43305],[-71.71901,41.42832]]]},"properties":{"STATEFP":"44","COUNTYFP":"009","COUSUBFP":"14500","COUSUBNS":"01220080","GEOIDFQ":"0600000US4400914500","GEOID":"4400914500","NAME":"Charlestown","NAMELSAD":"Charlestown town","STUSPS":"RI","NAMELSADCO":"Washington County","STATE_NAME":"Rhode Island","LSAD":"43","ALAND":94641259,"AWATER":59366507}},
{"type":"Feature","geometry":{"type":"Polygon","coordinates":[[[-71.78936,41.59685],[-71.7917,41.54611],[-71.78215,41.54688],[-71.75121,41.55112],[-71.74427,41.55114],[-71.71502,41.5542],[-71.62071,41.56423],[-71.61304,41.52512],[-71.58698,41.51821],[-71.53053,41.50375],[-71.50789,41.50006],[-71.51222,41.51532],[-71.51957,41.52993],[-71.51916,41.55791],[-71.51793,41.57726],[-71.51843,41.59404],[-71.52243,41.60257],[-71.54481,41.60199],[-71.64335,41.60096],[-71.65357,41.5987],[-71.76081,41.59804],[-71.78936,41.59685]]]},"properties":{"STATEFP":"44","COUNTYFP":"009","COUSUBFP":"25300","COUSUBNS":"01220087","GEOIDFQ":"0600000US4400925300","GEOID":"4400925300","NAME":"Exeter","NAMELSAD":"Exeter town","STUSPS":"RI","NAMELSADCO":"Washington County","STATE_NAME":"Rhode Island","LSAD":"43","ALAND":148804442,"AWATER":2411410}},
{"type":"Feature","geometry":{"type":"Polygon","coordinates":[[[-71.30161,41.56203],[-71.31053,41.54692],[-71.30808,41.53938],[-71.3127,41.53651],[-71.31415,41.53145],[-71.31135,41.52422],[-71.31267,41.52143],[-71.30242,41.507],[-71.28567,41.48897],[-71.28231,41.48829],[-71.27664,41.48004],[-71.26886,41.4847],[-71.26764,41.48821],[-71.25819,41.48792],[-71.25208,41.48592],[-71.24043,41.47615],[-71.23744,41.48571],[-71.24426,41.48574],[-71.24799,41.49029],[-71.24074,41.5017],[-71.24074,41.50555],[-71.23345,41.51407],[-71.26572,41.53818],[-71.28062,41.54697],[-71.30161,41.56203]]]},"properties":{"STATEFP":"44","COUNTYFP":"005","COUSUBFP":"45460","COUSUBNS":"01220063","GEOIDFQ":"0600000US4400545460","GEOID":"4400545460","NAME":"Middletown","NAMELSAD":"Middletown town","STUSPS":"RI","NAMELSADCO":"Newport County","STATE_NAME":"Rhode Island","LSAD":"43","ALAND":32891673,"AWATER":5406460}},
{"type":"Feature","geometry":{"type":"Polygon","coordinates":[[[-71.57464,41.85875],[-71.58189,41.89467],[-71.59031,41.93367],[-71.62939,41.93238],[-71.63973,41.93243],[-71.7419,41.92975],[-71.79765,41.92865],[-71.79469,41.85441],[-71.74748,41.85524],[-71.73766,41.85572],[-71.69101,41.85646],[-71.61313,41.85777],[-71.57464,41.85875]]]},"properties":{"STATEFP":"44","COUNTYFP":"007","COUSUBFP":"30340","COUSUBNS":"01220070","GEOIDFQ":"0600000US4400730340","GEOID":"4400730340","NAME":"Glocester","NAMELSAD":"Glocester town","STUSPS":"RI","NAMELSADCO":"Providence County","STATE_NAME":"Rhode Island","LSAD":"43","ALAND":140463699,"AWATER":6914230}},
{"type":"Feature","geometry":{"type":"Polygon","coordinates":[[[-71.21172,41.54545],[-71.20493,41.5408],[-71.20826,41.52888],[-71.2048,41.52334],[-71.20477,41.5191],[-71.20079,41.51437],[-71.20638,41.49922],[-71.20226,41.49838],[-71.19939,41.49177],[-71.19017,41.48429],[-71.19235,41.46656],[-71.19661,41.46476],[-71.19398,41.4564],[-71.18628,41.46029],[-71.16865,41.46145],[-71.17023,41.46838],[-71.1631,41.47174],[-71.15927,41.47599],[-71.15086,41.47582],[-71.13909,41.48345],[-71.14109,41.48994],[-71.13687,41.49394],[-71.12057,41.49745],[-71.1224,41.52216],[-71.12762,41.56323],[-71.21172,41.54545]]]},"properties":{"STATEFP":"44","COUNTYFP":"005","COUSUBFP":"42400","COUSUBNS":"01220062","GEOIDFQ":"0600000US4400542400","GEOID":"4400542400","NAME":"Little Compton","NAMELSAD":"Little Compton town","STUSPS":"RI","NAMELSADCO":"Newport County","STATE_NAME":"Rhode Island","LSAD":"43","ALAND":53214256,"AWATER":21427333}},
{"type":"Feature","geometry":{"type":"Polygon","coordinates":[[[-71.31267,41.52143],[-71.32803,41.51885],[-71.33069,41.5077],[-71.32312,41.50309],[-71.32282,41.49115],[-71.31806,41.48776],[-71.31652,41.47756],[-71.32353,41.47583],[-71.33599,41.46965],[-71.33438,41.4782],[-71.33644,41.48199],[-71.3479,41.47059],[-71.36119,41.46462],[-71.35616,41.45054],[-71.35361,41.44975],[-71.34418,41.45403],[-71.33476,41.44952],[-71.32375,41.46013],[-71.31848,41.45572],[-71.30439,41.4545],[-71.30398,41.46372],[-71.29685,41.46913],[-71.29739,41.48479],[-71.28567,41.48897],[-71.30242,41.507],[-71.31267,41.52143]]]},"properties":{"STATEFP":"44","COUNTYFP":"005","COUSUBFP":"49960","COUSUBNS":"01220064","GEOIDFQ":"0600000US4400549960","GEOID":"4400549960","NAME":"Newport","NAMELSAD":"Newport city","STUSPS":"RI","NAMELSADCO":"Newport County","STATE_NAME":"Rhode Island","LSAD":"25","ALAND":19828478,"AWATER":9630691}},
{"type":"Feature","geometry":{"type":"Polygon","coordinates":[[[-71.60891,41.45223],[-71.59952,41.44991],[-71.59514,41.44623],[-71.62562,41.36076],[-71.61651,41.36299],[-71.59476,41.36516],[-71.58609,41.36809],[-71.55157,41.37442],[-71.53724,41.37333],[-71.53155,41.37649],[-71.5228,41.37669],[-71.51464,41.38479],[-71.50483,41.40751],[-71.5032,41.4176],[-71.4971,41.4175],[-71.4948,41.4273],[-71.48333,41.43542],[-71.46428,41.44354],[-71.45162,41.45316],[-71.45114,41.4616],[-71.4484,41.46873],[-71.4496,41.4724],[-71.44666,41.48908],[-71.4501,41.5018],[-71.45812,41.49907],[-71.49186,41.49722],[-71.50789,41.50006],[-71.53053,41.50375],[-71.58698,41.51821],[-71.61304,41.52512],[-71.60749,41.50093],[-71.60952,41.49802],[-71.60801,41.48948],[-71.60201,41.48339],[-71.60118,41.47779],[-71.6059,41.47567],[-71.59917,41.46676],[-71.59692,41.46139],[-71.59863,41.45804],[-71.60891,41.45223]]]},"properties":{"STATEFP":"44","COUNTYFP":"009","COUSUBFP":"67460","COUSUBNS":"01220090","GEOIDFQ":"0600000US4400967460","GEOID":"4400967460","NAME":"South Kingstown","NAMELSAD":"South Kingstown town","STUSPS":"RI","NAMELSADCO":"Washington County","STATE_NAME":"Rhode Island","LSAD":"43","ALAND":145998461,"AWATER":60361219}},
{"type":"Feature","geometry":{"type":"MultiPolygon","coordinates":[[[[-71.21393,41.6391],[-71.21658,41.6391],[-71.21919,41.65367],[-71.22228,41.6542],[-71.22537,41.6471],[-71.23226,41.64337],[-71.23654,41.63839],[-71.24628,41.63981],[-71.25108,41.63878],[-71.25888,41.63323],[-71.26102,41.62738],[-71.27186,41.62399],[-71.27523,41.61944],[-71.27241,41.61504],[-71.27344,41.60699],[-71.28065,41.59285],[-71.28526,41.59237],[-71.28907,41.58271],[-71.28408,41.57939],[-71.28838,41.57327],[-71.29436,41.57142],[-71.30161,41.56203],[-71.28062,41.54697],[-71.26572,41.53818],[-71.23345,41.51407],[-71.22944,41.52154],[-71.22799,41.5283],[-71.23477,41.53254],[-71.23664,41.53585],[-71.23488,41.54169],[-71.23652,41.54489],[-71.23369,41.55236],[-71.2382,41.55877],[-71.23626,41.56499],[-71.23613,41.57477],[-71.2436,41.58751],[-71.24106,41.60695],[-71.24071,41.61923],[-71.23649,41.62137],[-71.22413,41.62289],[-71.21674,41.62559],[-71.21393,41.6391]]],[[[-71.28802,41.64558],[-71.28591,41.63801],[-71.27704,41.63803],[-71.27817,41.64731],[-71.28802,41.64558]]],[[[-71.35382,41.64747],[-71.35073,41.63391],[-71.33737,41.63128],[-71.32556,41.62414],[-71.32661,41.61611],[-71.33375,41.60586],[-71.33705,41.59469],[-71.33595,41.5859],[-71.3312,41.58032],[-71.3261,41.57858],[-71.3167,41.58313],[-71.30264,41.60553],[-71.30405,41.61878],[-71.30812,41.62624],[-71.31403,41.62792],[-71.31712,41.63139],[-71.32682,41.6317],[-71.33906,41.63706],[-71.34468,41.64253],[-71.33709,41.64673],[-71.33934,41.65503],[-71.33765,41.65797],[-71.34693,41.66333],[-71.35157,41.6586],[-71.34384,41.65486],[-71.35382,41.64747]]],[[[-71.36704,41.6607],[-71.36254,41.65114],[-71.35635,41.65209],[-71.3534,41.65787],[-71.36071,41.66112],[-71.36704,41.6607]]],[[[-71.37224,41.59985],[-71.36943,41.59817],[-71.36338,41.60353],[-71.36549,41.60669],[-71.37224,41.59985]]]]},"properties":{"STATEFP":"44","COUNTYFP":"005","COUSUBFP":"57880","COUSUBNS":"01220065","GEOIDFQ":"0600000US4400557880","GEOID":"4400557880","NAME":"Portsmouth","NAMELSAD":"Portsmouth town","STUSPS":"RI","NAMELSADCO":"Newport County","STATE_NAME":"Rhode Island","LSAD":"43","ALAND":59635472,"AWATER":94130601}},
{"type":"Feature","geometry":{"type":"Polygon","coordinates":[[[-71.41742,41.85967],[-71.4219,41.8787],[-71.46676,41.87277],[-71.49555,41.86898],[-71.48821,41.86192],[-71.48564,41.85352],[-71.48097,41.85082],[-71.47722,41.83791],[-71.47246,41.83698],[-71.435,41.86182],[-71.41742,41.85967]]]},"properties":{"STATEFP":"44","COUNTYFP":"007","COUSUBFP":"51760","COUSUBNS":"01219763","GEOIDFQ":"0600000US4400751760","GEOID":"4400751760","NAME":"North Providence","NAMELSAD":"North Providence town","STUSPS":"RI","NAMELSADCO":"Providence County","STATE_NAME":"Rhode Island","LSAD":"43","ALAND":14598075,"AWATER":318957}},
{"type":"Feature","geometry":{"type":"Polygon","coordinates":[[[-71.40371,41.88106],[-71.4219,41.8787],[-71.41742,41.85967],[-71.40927,41.8566],[-71.37502,41.85745],[-71.33449,41.86124],[-71.334,41.8623],[-71.3408,41.8816],[-71.3387,41.8984],[-71.38153,41.89323],[-71.38101,41.88407],[-71.40371,41.88106]]]},"properties":{"STATEFP":"44","COUNTYFP":"007","COUSUBFP":"54640","COUSUBNS":"01219816","GEOIDFQ":"0600000US4400754640","GEOID":"4400754640","NAME":"Pawtucket","NAMELSAD":"Pawtucket city","STUSPS":"RI","NAMELSADCO":"Providence County","STATE_NAME":"Rhode Island","LSAD":"25","ALAND":22447898,"AWATER":770317}},
{"type":"Feature","geometry":{"type":"Polygon","coordinates":[[[-71.29404,41.71028],[-71.28929,41.716],[-71.28729,41.7285],[-71.2898,41.73381],[-71.28659,41.7424],[-71.2844,41.76201],[-71.31792,41.77616],[-71.35149,41.75264],[-71.35582,41.74506],[-71.34825,41.74205],[-71.34112,41.73477],[-71.33946,41.72484],[-71.32419,41.72538],[-71.30713,41.72165],[-71.30798,41.71276],[-71.3038,41.70657],[-71.29534,41.70721],[-71.29404,41.71028]]]},"properties":{"STATEFP":"44","COUNTYFP":"001","COUSUBFP":"05140","COUSUBNS":"01220084","GEOIDFQ":"0600000US4400105140","GEOID":"4400105140","NAME":"Barrington","NAMELSAD":"Barrington town","STUSPS":"RI","NAMELSADCO":"Bristol County","STATE_NAME":"Rhode Island","LSAD":"43","ALAND":21198328,"AWATER":18699186}},
{"type":"Feature","geometry":{"type":"Polygon","coordinates":[[[-71.71502,41.5542],[-71.74427,41.55114],[-71.75121,41.55112],[-71.78215,41.54688],[-71.7917,41.54611],[-71.79767,41.41691],[-71.79632,41.41622],[-71.80054,41.40111],[-71.79722,41.39321],[-71.79003,41.39262],[-71.78412,41.38694],[-71.77877,41.38964],[-71.77153,41.39706],[-71.76566,41.39625],[-71.76332,41.40131],[-71.75594,41.40766],[-71.75047,41.40782],[-71.74536,41.40233],[-71.73125,41.39851],[-71.72356,41.40436],[-71.7234,41.40797],[-71.73003,41.41452],[-71.72595,41.42236],[-71.72607,41.42721],[-71.71901,41.42832],[-71.72253,41.43777],[-71.71804,41.44353],[-71.71701,41.4499],[-71.71123,41.45619],[-71.71233,41.45981],[-71.71977,41.45976],[-71.71989,41.46722],[-71.71687,41.47697],[-71.71372,41.4778],[-71.71784,41.48683],[-71.71534,41.49177],[-71.71649,41.50312],[-71.70811,41.50956],[-71.7055,41.51511],[-71.68933,41.52391],[-71.68722,41.52841],[-71.69547,41.52864],[-71.69606,41.53995],[-71.70083,41.54885],[-71.70924,41.54756],[-71.71502,41.5542]]]},"properties":{"STATEFP":"44","COUNTYFP":"009","COUSUBFP":"35380","COUSUBNS":"01220092","GEOIDFQ":"0600000US4400935380","GEOID":"4400935380","NAME":"Hopkinton","NAMELSAD":"Hopkinton town","STUSPS":"RI","NAMELSADCO":"Washington County","STATE_NAME":"Rhode Island","LSAD":"43","ALAND":111385175,"AWATER":3313033}},
{"type":"Feature","geometry":{"type":"Polygon","coordinates":[[[-71.73125,41.39851],[-71.74536,41.40233],[-71.75047,41.40782],[-71.75594,41.40766],[-71.76332,41.40131],[-71.76566,41.39625],[-71.77153,41.39706],[-71.77877,41.38964],[-71.78412,41.38694],[-71.79003,41.39262],[-71.79722,41.39321],[-71.80054,41.40111],[-71.79632,41.41622],[-71.79767,41.41691],[-71.80144,41.41555],[-71.8129,41.4194],[-71.82033,41.41938],[-71.82457,41.41524],[-71.83411,41.41158],[-71.83965,41.41212],[-71.84347,41.40583],[-71.84115,41.39923],[-71.84213,41.39536],[-71.83265,41.38716],[-71.83353,41.38237],[-71.83064,41.37877],[-71.83161,41.3709],[-71.83763,41.3655],[-71.8357,41.35357],[-71.8313,41.3513],[-71.82938,41.34241],[-71.83616,41.33601],[-71.84771,41.3296],[-71.85192,41.32466],[-71.86211,41.31661],[-71.86277,41.30979],[-71.85743,41.30632],[-71.84528,41.31187],[-71.83375,41.31563],[-71.81534,41.32024],[-71.7737,41.32798],[-71.76103,41.32849],[-71.75166,41.3254],[-71.74676,41.32809],[-71.72988,41.3317],[-71.73078,41.38647],[-71.73125,41.39851]]]},"properties":{"STATEFP":"44","COUNTYFP":"009","COUSUBFP":"77000","COUSUBNS":"01220091","GEOIDFQ":"0600000US4400977000","GEOID":"4400977000","NAME":"Westerly","NAMELSAD":"Westerly town","STUSPS":"RI","NAMELSADCO":"Washington County","STATE_NAME":"Rhode Island","LSAD":"43","ALAND":76323893,"AWATER":116618434}},
{"type":"Feature","geometry":{"type":"Polygon","coordinates":[[[-71.59031,41.93367],[-71.55533,41.93687],[-71.49079,41.94324],[-71.48705,41.94644],[-71.48813,41.95487],[-71.48668,41.96949],[-71.4891,41.97474],[-71.48736,41.97909],[-71.51807,41.9837],[-71.53166,41.98956],[-71.54012,42.00981],[-71.52971,42.00988],[-71.52893,42.01497],[-71.60673,42.01341],[-71.59031,41.93367]]]},"properties":{"STATEFP":"44","COUNTYFP":"007","COUSUBFP":"52480","COUSUBNS":"01219815","GEOIDFQ":"0600000US4400752480","GEOID":"4400752480","NAME":"North Smithfield","NAMELSAD":"North Smithfield town","STUSPS":"RI","NAMELSADCO":"Providence County","STATE_NAME":"Rhode Island","LSAD":"43","ALAND":61899990,"AWATER":2495010}},
{"type":"Feature","geometry":{"type":"Polygon","coordinates":[[[-71.49922,41.66295],[-71.50168,41.69647],[-71.51891,41.6959],[-71.51276,41.70667],[-71.50519,41.71131],[-71.49712,41.71317],[-71.4858,41.72613],[-71.48391,41.7316],[-71.53429,41.73017],[-71.53287,41.68192],[-71.53338,41.66216],[-71.49922,41.66295]]]},"properties":{"STATEFP":"44","COUNTYFP":"003","COUSUBFP":"78440","COUSUBNS":"01220060","GEOIDFQ":"0600000US4400378440","GEOID":"4400378440","NAME":"West Warwick","NAMELSAD":"West Warwick town","STUSPS":"RI","NAMELSADCO":"Kent County","STATE_NAME":"Rhode Island","LSAD":"43","ALAND":20284599,"AWATER":590046}},
{"type":"Feature","geometry":{"type":"Polygon","coordinates":[[[-71.49555,41.86898],[-71.46676,41.87277],[-71.49079,41.94324],[-71.55533,41.93687],[-71.59031,41.93367],[-71.58189,41.89467],[-71.57464,41.85875],[-71.49555,41.86898]]]},"properties":{"STATEFP":"44","COUNTYFP":"007","COUSUBFP":"66200","COUSUBNS":"01219817","GEOIDFQ":"0600000US4400766200","GEOID":"4400766200","NAME":"Smithfield","NAMELSAD":"Smithfield town","STUSPS":"RI","NAMELSADCO":"Providence County","STATE_NAME":"Rhode Island","LSAD":"43","ALAND":67938931,"AWATER":3673454}},
{"type":"Feature","geometry":{"type":"Polygon","coordinates":[[[-71.54711,41.66185],[-71.53338,41.66216],[-71.53287,41.68192],[-71.53429,41.73017],[-71.54735,41.7312],[-71.54743,41.73003],[-71.64425,41.7278],[-71.66843,41.72747],[-71.72011,41.72633],[-71.78969,41.7252],[-71.787,41.65612],[-71.69494,41.65842],[-71.66594,41.65869],[-71.58977,41.66051],[-71.54711,41.66185]]]},"properties":{"STATEFP":"44","COUNTYFP":"003","COUSUBFP":"18640","COUSUBNS":"01220082","GEOIDFQ":"0600000US4400318640","GEOID":"4400318640","NAME":"Coventry","NAMELSAD":"Coventry town","STUSPS":"RI","NAMELSADCO":"Kent County","STATE_NAME":"Rhode Island","LSAD":"43","ALAND":152969590,"AWATER":8666762}},
{"type":"Feature","geometry":{"type":"Polygon","coordinates":[[[-71.52243,41.60257],[-71.51843,41.59404],[-71.51793,41.57726],[-71.51916,41.55791],[-71.51957,41.52993],[-71.51222,41.51532],[-71.50789,41.50006],[-71.49186,41.49722],[-71.45812,41.49907],[-71.4501,41.5018],[-71.44815,41.50279],[-71.41958,41.50365],[-71.41494,41.5163],[-71.41551,41.52986],[-71.41765,41.53626],[-71.42312,41.53875],[-71.43104,41.5501],[-71.42787,41.55548],[-71.43437,41.56163],[-71.44216,41.56382],[-71.44409,41.56804],[-71.43809,41.57059],[-71.44641,41.5745],[-71.44641,41.58322],[-71.43881,41.58144],[-71.41958,41.58578],[-71.411,41.58659],[-71.40377,41.58932],[-71.40361,41.60296],[-71.41433,41.60259],[-71.41694,41.6049],[-71.41195,41.61112],[-71.40434,41.61183],[-71.40244,41.61556],[-71.40862,41.62196],[-71.40315,41.62747],[-71.40753,41.63333],[-71.40888,41.65384],[-71.41758,41.65495],[-71.4328,41.65132],[-71.44251,41.64582],[-71.44199,41.64328],[-71.44929,41.63673],[-71.45137,41.62946],[-71.45912,41.63795],[-71.46784,41.63417],[-71.47132,41.62908],[-71.48248,41.62358],[-71.48804,41.61605],[-71.48545,41.61297],[-71.48443,41.60259],[-71.52243,41.60257]]]},"properties":{"STATEFP":"44","COUNTYFP":"009","COUSUBFP":"51580","COUSUBNS":"01220088","GEOIDFQ":"0600000US4400951580","GEOID":"4400951580","NAME":"North Kingstown","NAMELSAD":"North Kingstown town","STUSPS":"RI","NAMELSADCO":"Washington County","STATE_NAME":"Rhode Island","LSAD":"43","ALAND":111808792,"AWATER":39629489}},
{"type":"Feature","geometry":{"type":"Polygon","coordinates":[[[-71.61313,41.16028],[-71.61157,41.15391],[-71.59999,41.14693],[-71.5937,41.14634],[-71.5805,41.14909],[-71.57857,41.14762],[-71.56589,41.14901],[-71.54705,41.15368],[-71.54387,41.16132],[-71.54445,41.16491],[-71.55023,41.16679],[-71.55463,41.17342],[-71.55791,41.17302],[-71.56467,41.17967],[-71.5664,41.18821],[-71.56137,41.2006],[-71.55556,41.20832],[-71.55407,41.21296],[-71.56255,41.22422],[-71.57632,41.22491],[-71.57692,41.21102],[-71.58063,41.20337],[-71.58955,41.19656],[-71.59746,41.18519],[-71.60556,41.18214],[-71.61313,41.16028]]]},"properties":{"STATEFP":"44","COUNTYFP":"009","COUSUBFP":"50500","COUSUBNS":"01220043","GEOIDFQ":"0600000US4400950500","GEOID":"4400950500","NAME":"New Shoreham","NAMELSAD":"New Shoreham town","STUSPS":"RI","NAMELSADCO":"Washington County","STATE_NAME":"Rhode Island","LSAD":"43","ALAND":23521379,"AWATER":260101284}}
]}