{"type":"FeatureCollection", "features": [
{"type":"Feature","geometry":{"type":"Polygon","coordinates":[[[-112.53858,37.00067],[-112.60979,37.00075],[-112.8295,37.00042],[-112.96647,37.00022],[-113.0799,37.00019],[-113.27454,37.00014],[-113.48447,37.00009],[-113.62429,37.00006],[-113.91598,36.99999],[-114.0506,37.0004],[-114.04999,36.95777],[-114.05062,36.84313],[-114.0494,36.68886],[-114.04774,36.62001],[-114.0449,36.49608],[-114.04313,36.46972],[-114.04282,36.43828],[-114.0432,36.37941],[-114.04476,36.33169],[-114.04411,36.3154],[-114.04545,36.29171],[-114.04546,36.27328],[-114.04396,36.24699],[-114.04394,36.19335],[-114.05779,36.18863],[-114.06822,36.17769],[-114.08123,36.15021],[-114.0917,36.1373],[-114.09699,36.12082],[-114.10742,36.1194],[-114.11702,36.11485],[-114.12128,36.10952],[-114.12103,36.10389],[-114.1119,36.09584],[-114.11965,36.08582],[-114.12402,36.07556],[-114.13121,36.06577],[-114.13621,36.05323],[-114.13484,36.04387],[-114.13826,36.03719],[-114.14467,36.03427],[-114.14591,36.02723],[-114.15139,36.02313],[-114.16442,36.02685],[-114.17327,36.02675],[-114.19122,36.02002],[-114.21193,36.01483],[-114.22646,36.01461],[-114.23344,36.01284],[-114.24214,36.01519],[-114.2614,36.02545],[-114.26922,36.03681],[-114.27086,36.04552],[-114.27817,36.04582],[-114.29087,36.05051],[-114.29975,36.05736],[-114.3119,36.05766],[-114.31242,36.06612],[-114.30417,36.07558],[-114.30694,36.08249],[-114.32878,36.1055],[-114.33463,36.10678],[-114.34502,36.11847],[-114.35897,36.1278],[-114.37018,36.14262],[-114.38148,36.14135],[-114.39837,36.1458],[-114.40914,36.147],[-114.41525,36.14512],[-114.42311,36.13735],[-114.44374,36.12559],[-114.44713,36.12602],[-114.45649,36.13803],[-114.46867,36.13889],[-114.48383,36.12972],[-114.49885,36.12661],[-114.50847,36.12991],[-114.50717,36.13634],[-114.50034,36.1407],[-114.50105,36.14452],[-114.5081,36.14971],[-114.51428,36.1508],[-114.52885,36.14775],[-114.53923,36.15176],[-114.54874,36.1507],[-114.55537,36.15237],[-114.57109,36.1511],[-114.57958,36.1467],[-114.59647,36.14154],[-114.61064,36.13156],[-114.6206,36.13176],[-114.63047,36.14222],[-114.64012,36.13513],[-114.65813,36.12413],[-114.66434,36.1163],[-114.67187,36.11596],[-114.68267,36.10915],[-114.69365,36.11248],[-114.70374,36.10835],[-114.71729,36.10769],[-114.73616,36.10437],[-114.74708,36.09701],[-114.7548,36.0847],[-114.74334,36.07054],[-114.73625,36.05847],[-114.7357,36.05339],[-114.74249,36.04556],[-114.74002,36.03747],[-114.73248,36.03743],[-114.72367,36.03123],[-114.72286,36.02716],[-114.74052,36.01334],[-114.74324,36.00653],[-114.73985,35.99211],[-114.74376,35.9851],[-114.74059,35.97566],[-114.72994,35.96218],[-114.72959,35.95962],[-114.71254,35.93186],[-114.70753,35.92806],[-114.70852,35.91231],[-114.70027,35.90177],[-114.67798,35.88471],[-114.67201,35.87802],[-114.66321,35.87369],[-114.66262,35.86921],[-114.66969,35.86508],[-114.68201,35.86328],[-114.69146,35.85866],[-114.69437,35.85446],[-114.7036,35.8526],[-114.70653,35.84903],[-114.70229,35.84079],[-114.69525,35.83229],[-114.70371,35.81459],[-114.71211,35.80619],[-114.69891,35.79019],[-114.70141,35.76909],[-114.69571,35.75599],[-114.69731,35.73369],[-114.70545,35.71176],[-114.70142,35.70108],[-114.69607,35.69645],[-114.68266,35.68857],[-114.68221,35.67819],[-114.69021,35.66516],[-114.689,35.65028],[-114.67761,35.64177],[-114.6661,35.62239],[-114.65946,35.61955],[-114.65341,35.61079],[-114.65431,35.59759],[-114.65924,35.58748],[-114.67497,35.58066],[-114.66839,35.57433],[-114.66323,35.56516],[-114.66052,35.54098],[-114.65716,35.5323],[-114.66398,35.52216],[-114.67124,35.51952],[-114.67716,35.51287],[-114.67871,35.49875],[-114.67582,35.48853],[-114.67191,35.48209],[-114.67316,35.47481],[-114.66599,35.46799],[-114.66694,35.45948],[-114.66354,35.4478],[-114.65401,35.43587],[-114.65275,35.43082],[-114.62676,35.40964],[-114.62089,35.39687],[-114.6177,35.38013],[-114.61121,35.37012],[-114.60575,35.35845],[-114.59516,35.32424],[-114.5975,35.29695],[-114.58713,35.26238],[-114.58293,35.2321],[-114.58031,35.2201],[-114.57996,35.20964],[-114.57212,35.20059],[-114.56924,35.18348],[-114.56953,35.16232],[-114.57394,35.14389],[-114.5726,35.13956],[-114.57826,35.12881],[-114.58532,35.12504],[-114.59779,35.12174],[-114.62136,35.12115],[-114.63228,35.11709],[-114.64435,35.1059],[-114.64676,35.10187],[-114.64283,35.0965],[-114.62252,35.0887],[-114.61313,35.0831],[-114.60474,35.07483],[-114.60291,35.06859],[-114.60669,35.05894],[-114.62712,35.04472],[-114.63689,35.02837],[-114.63802,35.02056],[-114.63667,35.00881],[-114.62944,34.99183],[-114.62991,34.98079],[-114.63461,34.96906],[-114.63495,34.95892],[-114.62981,34.94481],[-114.62975,34.93868],[-114.63324,34.92123],[-114.63088,34.90726],[-114.63542,34.89519],[-114.63677,34.88571],[-114.63518,34.875],[-114.63068,34.86635],[-114.61988,34.85687],[-114.60425,34.84957],[-114.58684,34.83567],[-114.57645,34.8153],[-114.57101,34.79429],[-114.55865,34.77385],[-114.55268,34.76687],[-114.54031,34.75711],[-114.52961,34.75082],[-114.51662,34.73675],[-114.49586,34.72796],[-114.49097,34.72485],[-114.48751,34.71663],[-114.47368,34.71396],[-114.46862,34.70757],[-114.46525,34.6912],[-114.45535,34.67684],[-114.45101,34.66491],[-114.45718,34.65999],[-114.45703,34.65627],[-114.44428,34.64654],[-114.44029,34.63824],[-114.44152,34.63153],[-114.43874,34.62145],[-114.4242,34.61045],[-114.42433,34.60234],[-114.43636,34.5968],[-114.43439,34.59257],[-114.42238,34.58071],[-114.40523,34.56964],[-114.3896,34.54298],[-114.38084,34.52972],[-114.37822,34.51652],[-114.37812,34.50729],[-114.38236,34.49576],[-114.38155,34.47788],[-114.38719,34.46202],[-114.3867,34.45791],[-114.37372,34.44694],[-114.3634,34.44777],[-114.34261,34.45144],[-114.33537,34.45004],[-114.32613,34.43725],[-114.31905,34.43583],[-114.30102,34.42681],[-114.29223,34.41761],[-114.29175,34.4111],[-114.2868,34.40534],[-114.28011,34.40315],[-114.26432,34.40133],[-114.25274,34.3901],[-114.23427,34.37666],[-114.22611,34.36592],[-114.21377,34.36246],[-114.19948,34.36137],[-114.17691,34.34931],[-114.16881,34.33951],[-114.15721,34.31786],[-114.13828,34.30323],[-114.12839,34.3041],[-114.11443,34.2954],[-114.10591,34.29664],[-114.09824,34.30064],[-114.08744,34.29856],[-114.07972,34.29211],[-114.06925,34.29048],[-114.05667,34.27879],[-114.04737,34.27356],[-114.04688,34.26997],[-114.03139,34.25969],[-114.0253,34.26799],[-114.01904,34.26612],[-114.01238,34.25696],[-114.00579,34.25374],[-113.99012,34.25447],[-113.97881,34.25742],[-113.96335,34.25814],[-113.94956,34.25708],[-113.93957,34.25486],[-113.93125,34.25002],[-113.90547,34.24835],[-113.89571,34.24882],[-113.87105,34.25504],[-113.85171,34.25126],[-113.84966,34.24254],[-113.8443,34.23656],[-113.83808,34.22387],[-113.82522,34.22544],[-113.81319,34.23257],[-113.79461,34.23674],[-113.78117,34.22922],[-113.77417,34.22905],[-113.75784,34.23669],[-113.74385,34.24012],[-113.73074,34.24025],[-113.72292,34.22325],[-113.71494,34.22146],[-113.71418,34.21768],[-113.70736,34.21522],[-113.70438,34.20994],[-113.68968,34.21075],[-113.67929,34.20987],[-113.67606,34.21262],[-113.66397,34.21206],[-113.65918,34.2173],[-113.64343,34.22362],[-113.63424,34.22402],[-113.62631,34.22917],[-113.61763,34.22742],[-113.59938,34.23334],[-113.59721,34.23719],[-113.58673,34.24339],[-113.5833,34.25786],[-113.57338,34.2675],[-113.5686,34.2747],[-113.55368,34.2857],[-113.54686,34.29737],[-113.53939,34.30645],[-113.53097,34.31015],[-113.51674,34.31036],[-113.51055,34.30444],[-113.49447,34.30289],[-113.48981,34.3052],[-113.48113,34.30317],[-113.47603,34.30544],[-113.47047,34.30193],[-113.4658,34.30391],[-113.45232,34.3],[-113.44211,34.29965],[-113.43314,34.30151],[-113.41964,34.29872],[-113.41246,34.29447],[-113.40145,34.29968],[-113.39496,34.29943],[-113.38654,34.29488],[-113.37051,34.29197],[-113.35905,34.295],[-113.35186,34.29948],[-113.34148,34.31233],[-113.34087,34.31903],[-113.33342,34.31791],[-113.33315,34.47861],[-113.33347,34.56131],[-113.33436,34.56131],[-113.33394,34.67732],[-113.3331,34.67732],[-113.33303,34.78858],[-113.33291,35.1127],[-113.33292,35.19122],[-113.33322,35.34628],[-113.33305,35.49996],[-113.33416,35.52822],[-113.33419,35.55344],[-113.33392,35.80074],[-113.32951,35.81302],[-113.33311,35.82208],[-113.32683,35.8277],[-113.32689,35.8407],[-113.31503,35.85446],[-113.31039,35.86321],[-113.3127,35.87501],[-113.30933,35.88539],[-113.31118,35.89326],[-113.32289,35.8988],[-113.32388,35.90263],[-113.33485,35.91386],[-113.33414,35.91872],[-113.32878,35.92601],[-113.32551,35.93473],[-113.32864,35.95016],[-113.32569,35.95502],[-113.31712,35.96139],[-113.31726,35.96861],[-113.32295,35.97673],[-113.33459,35.97948],[-113.34141,35.99071],[-113.34014,36.00328],[-113.34836,36.01312],[-113.35171,36.03425],[-113.35418,36.04037],[-113.34744,36.05504],[-113.33077,36.06832],[-113.32617,36.07842],[-113.32366,36.09083],[-113.31997,36.09677],[-113.31343,36.1],[-113.30058,36.09573],[-113.27925,36.09734],[-113.25716,36.0885],[-113.24629,36.09334],[-113.23115,36.08952],[-113.22492,36.09114],[-113.21445,36.10912],[-113.20167,36.11904],[-113.20528,36.13313],[-113.19675,36.15295],[-113.18049,36.15884],[-113.16668,36.16694],[-113.16293,36.17174],[-113.15476,36.17454],[-113.14597,36.17299],[-113.13708,36.16642],[-113.12136,36.17378],[-113.11409,36.18322],[-113.09547,36.19357],[-113.08717,36.1954],[-113.07098,36.2039],[-113.05276,36.20937],[-113.04217,36.22319],[-113.03621,36.22823],[-113.01911,36.23671],[-113.00634,36.23875],[-112.98796,36.23237],[-112.98121,36.23177],[-112.94072,36.24134],[-112.93176,36.24454],[-112.92546,36.25633],[-112.91508,36.25814],[-112.90295,36.25376],[-112.89824,36.25476],[-112.88433,36.26382],[-112.87846,36.27626],[-112.87314,36.28059],[-112.86503,36.28238],[-112.84616,36.27701],[-112.83773,36.27885],[-112.83201,36.2855],[-112.8245,36.28834],[-112.81255,36.28856],[-112.80038,36.28433],[-112.79244,36.28504],[-112.78909,36.29093],[-112.78629,36.30199],[-112.77171,36.30311],[-112.76168,36.31005],[-112.75805,36.32232],[-112.74683,36.3246],[-112.73904,36.31994],[-112.72796,36.31793],[-112.72058,36.32278],[-112.7265,36.34204],[-112.72399,36.34599],[-112.69883,36.35533],[-112.68931,36.35385],[-112.68532,36.34383],[-112.68157,36.34166],[-112.66842,36.34661],[-112.65663,36.35723],[-112.65103,36.36609],[-112.64905,36.37978],[-112.63991,36.38881],[-112.62949,36.39161],[-112.63095,36.40272],[-112.62413,36.41003],[-112.63205,36.42751],[-112.63831,36.42648],[-112.6443,36.43428],[-112.64087,36.44881],[-112.64512,36.45731],[-112.63553,36.46374],[-112.62302,36.47474],[-112.62596,36.47978],[-112.62559,36.48613],[-112.63566,36.48408],[-112.63682,36.49476],[-112.64583,36.49687],[-112.64158,36.5011],[-112.64637,36.50991],[-112.65163,36.50911],[-112.65618,36.51509],[-112.6528,36.51789],[-112.65891,36.52904],[-112.66003,36.54315],[-112.65426,36.54346],[-112.65007,36.55106],[-112.65631,36.5534],[-112.65363,36.55792],[-112.63325,36.57007],[-112.62611,36.58185],[-112.6293,36.58954],[-112.62095,36.59594],[-112.62307,36.61481],[-112.62272,36.62675],[-112.62668,36.62894],[-112.62495,36.63514],[-112.63074,36.65177],[-112.62762,36.65509],[-112.63283,36.66184],[-112.63853,36.67412],[-112.63351,36.6785],[-112.63433,36.68717],[-112.62878,36.69185],[-112.63044,36.69655],[-112.62424,36.71201],[-112.62763,36.71435],[-112.62257,36.72042],[-112.62297,36.72427],[-112.61223,36.73685],[-112.61354,36.74883],[-112.61709,36.75071],[-112.61622,36.76309],[-112.62039,36.76381],[-112.61632,36.7747],[-112.61973,36.78274],[-112.6138,36.78751],[-112.61422,36.79153],[-112.5998,36.8082],[-112.60139,36.81676],[-112.59433,36.83329],[-112.59261,36.84083],[-112.58477,36.84745],[-112.58426,36.86072],[-112.5785,36.86469],[-112.57235,36.88326],[-112.57435,36.88652],[-112.57019,36.89555],[-112.56149,36.90022],[-112.55849,36.90547],[-112.54865,36.91243],[-112.54637,36.92311],[-112.54953,36.92578],[-112.54496,36.93876],[-112.5293,36.95244],[-112.53184,36.95545],[-112.53085,36.96689],[-112.53531,36.97187],[-112.54241,36.98686],[-112.54347,36.99609],[-112.53858,37.00067]]]},"properties":{"STATEFP":"04","COUNTYFP":"015","COUNTYNS":"00025445","GEOIDFQ":"0500000US04015","GEOID":"04015","NAME":"Mohave","NAMELSAD":"Mohave County","STUSPS":"AZ","STATE_NAME":"Arizona","LSAD":"06","ALAND":34530024143,"AWATER":333399390}},
{"type":"Feature","geometry":{"type":"Polygon","coordinates":[[[-113.33331,34.00004],[-113.33506,33.63863],[-113.33506,33.48555],[-113.33505,33.37747],[-113.33392,33.37743],[-113.33422,33.25004],[-113.3336,33.24763],[-113.33336,33.20465],[-113.33383,33.11705],[-113.33378,32.95827],[-113.33371,32.76748],[-113.3337,32.59359],[-113.33389,32.50519],[-113.02806,32.50507],[-112.91585,32.50536],[-112.72544,32.50537],[-112.57475,32.50606],[-112.52071,32.50676],[-112.20362,32.50672],[-112.20357,32.68359],[-112.20352,32.83652],[-112.20349,32.94173],[-112.20302,32.94204],[-112.20298,33.02915],[-112.20215,33.02915],[-112.20214,33.13457],[-112.20204,33.29047],[-112.20169,33.30751],[-112.19369,33.29894],[-112.19749,33.28933],[-112.19751,33.27844],[-112.19178,33.26504],[-112.18104,33.26253],[-112.17576,33.26311],[-112.16132,33.25428],[-112.15096,33.25425],[-112.14449,33.25088],[-112.13967,33.24367],[-112.13473,33.24156],[-112.13247,33.23348],[-112.12647,33.23552],[-112.11622,33.2316],[-112.11368,33.22747],[-112.10298,33.23056],[-112.09581,33.23036],[-112.08958,33.22495],[-112.08821,33.21983],[-112.09211,33.20925],[-112.08195,33.20469],[-111.89308,33.20471],[-111.89255,33.20328],[-111.80637,33.20469],[-111.68591,33.20464],[-111.58263,33.20541],[-111.58329,33.29787],[-111.58408,33.3788],[-111.5807,33.37874],[-111.58063,33.4658],[-111.47681,33.46589],[-111.26975,33.46592],[-111.04786,33.46574],[-111.03998,33.46602],[-111.04638,33.4786],[-111.13666,33.64631],[-111.15335,33.67761],[-111.16966,33.66732],[-111.17176,33.66138],[-111.18062,33.65979],[-111.20028,33.64026],[-111.20944,33.6335],[-111.20745,33.62057],[-111.21493,33.61406],[-111.21675,33.60832],[-111.22425,33.60312],[-111.23195,33.60951],[-111.23078,33.61241],[-111.23836,33.61845],[-111.24954,33.62433],[-111.2557,33.62113],[-111.26283,33.62316],[-111.27071,33.63359],[-111.28727,33.65243],[-111.2876,33.65897],[-111.29503,33.66087],[-111.30063,33.66513],[-111.31775,33.68285],[-111.32601,33.68438],[-111.33139,33.68834],[-111.33832,33.70275],[-111.33752,33.72116],[-111.35073,33.73223],[-111.35483,33.73325],[-111.35934,33.74097],[-111.37214,33.74521],[-111.37469,33.74985],[-111.38087,33.74768],[-111.38681,33.75004],[-111.38235,33.75825],[-111.38698,33.7631],[-111.38944,33.77666],[-111.3798,33.79574],[-111.38791,33.80321],[-111.3841,33.81619],[-111.37151,33.81885],[-111.37232,33.82392],[-111.38356,33.83362],[-111.38753,33.83372],[-111.39548,33.84086],[-111.39579,33.84428],[-111.38808,33.86341],[-111.39631,33.86857],[-111.39772,33.87782],[-111.41223,33.8846],[-111.41147,33.89141],[-111.41373,33.89736],[-111.40812,33.90518],[-111.4085,33.91238],[-111.40507,33.91922],[-111.42639,33.92607],[-111.43729,33.91626],[-111.45174,33.921],[-111.44716,33.93476],[-111.44739,33.94174],[-111.45218,33.94863],[-111.44797,33.95752],[-111.45273,33.96243],[-111.44809,33.97328],[-111.43506,33.98069],[-111.4331,33.9844],[-111.44281,33.99137],[-111.44035,33.99642],[-111.46604,34.00577],[-111.47823,34.00208],[-111.49499,33.99995],[-111.72633,34.00004],[-111.87465,34.01648],[-111.9962,34.02987],[-112.16476,34.04817],[-112.16148,34.04223],[-112.16535,34.03313],[-112.16113,34.01772],[-112.16966,34.01686],[-112.18209,34.01317],[-112.18039,34.00574],[-112.18625,33.99717],[-112.19337,33.9903],[-112.19414,33.97793],[-112.20286,33.9705],[-112.21501,33.96715],[-112.21451,33.96374],[-112.22194,33.96067],[-112.2304,33.95404],[-112.24035,33.95664],[-112.24026,33.95049],[-112.2358,33.94729],[-112.24137,33.94053],[-112.23156,33.93604],[-112.23505,33.91641],[-112.24295,33.91546],[-112.24073,33.90826],[-112.24304,33.90536],[-112.25564,33.90543],[-112.27516,33.8934],[-112.2776,33.89044],[-112.27617,33.88247],[-112.42793,33.9207],[-112.68501,33.98519],[-112.7438,33.99986],[-112.82422,33.99992],[-113.142,34.00003],[-113.33331,34.00004]]]},"properties":{"STATEFP":"04","COUNTYFP":"013","COUNTYNS":"00037026","GEOIDFQ":"0500000US04013","GEOID":"04013","NAME":"Maricopa","NAMELSAD":"Maricopa County","STUSPS":"AZ","STATE_NAME":"Arizona","LSAD":"06","ALAND":23833110076,"AWATER":62108694}},
{"type":"Feature","geometry":{"type":"Polygon","coordinates":[[[-111.03998,33.46602],[-110.9746,33.34175],[-110.94668,33.25005],[-110.8707,33.12806],[-110.86564,33.11948],[-110.78321,32.98479],[-110.78108,32.98374],[-110.7649,32.98644],[-110.76528,33.0006],[-110.76378,33.00495],[-110.75363,33.00702],[-110.7468,33.0107],[-110.74331,33.01888],[-110.73804,33.02011],[-110.72934,33.02731],[-110.72911,33.03546],[-110.72512,33.04189],[-110.71634,33.04124],[-110.71683,33.05282],[-110.7257,33.06939],[-110.71158,33.08158],[-110.70507,33.08377],[-110.69333,33.07705],[-110.68828,33.08125],[-110.69132,33.08893],[-110.68329,33.08812],[-110.68327,33.09998],[-110.67978,33.1012],[-110.67801,33.11118],[-110.67276,33.11164],[-110.66908,33.11802],[-110.6624,33.11906],[-110.65678,33.11354],[-110.64084,33.13237],[-110.63441,33.14237],[-110.62066,33.14401],[-110.60848,33.14237],[-110.59384,33.13385],[-110.58698,33.13731],[-110.57944,33.14713],[-110.56899,33.14481],[-110.56175,33.14935],[-110.56131,33.15338],[-110.55017,33.15739],[-110.54547,33.16906],[-110.54067,33.1638],[-110.52772,33.17231],[-110.52763,33.1763],[-110.51627,33.17569],[-110.50968,33.18002],[-110.50473,33.18625],[-110.49878,33.18683],[-110.48922,33.18328],[-110.47059,33.18214],[-110.46329,33.18334],[-110.46424,33.19236],[-110.45394,33.19804],[-110.44902,33.19453],[-110.44643,33.18985],[-110.43263,33.18771],[-110.42974,33.19098],[-110.40859,33.19204],[-110.40051,33.19838],[-110.41047,33.20605],[-110.4139,33.21156],[-110.42159,33.21719],[-110.41707,33.22682],[-110.42215,33.22867],[-110.42765,33.23594],[-110.43524,33.23919],[-110.43679,33.25129],[-110.44383,33.25553],[-110.44349,33.26218],[-110.44852,33.26524],[-110.4492,33.2744],[-110.45508,33.28215],[-110.45338,33.29063],[-110.45719,33.29527],[-110.44723,33.30029],[-110.45082,33.31633],[-110.44424,33.32638],[-110.4474,33.3338],[-110.44782,33.34814],[-110.44529,33.35437],[-110.45173,33.36156],[-110.44311,33.36784],[-110.44154,33.38167],[-110.42785,33.38831],[-110.41873,33.38631],[-110.41307,33.40155],[-110.40822,33.39946],[-110.39512,33.40443],[-110.38075,33.40274],[-110.36298,33.39822],[-110.35638,33.4046],[-110.35286,33.40353],[-110.34295,33.42056],[-110.34119,33.42693],[-110.32957,33.42717],[-110.32158,33.43275],[-110.31309,33.43347],[-110.3031,33.42877],[-110.29238,33.42966],[-110.27672,33.4405],[-110.27226,33.44208],[-110.26567,33.43543],[-110.25216,33.43847],[-110.24743,33.43642],[-110.22946,33.44414],[-110.21534,33.436],[-110.21089,33.44175],[-110.20628,33.43937],[-110.19662,33.44305],[-110.19285,33.44902],[-110.17678,33.4484],[-110.16918,33.45163],[-110.16969,33.46539],[-110.00065,33.46592],[-110.00065,33.57693],[-110.00065,33.727],[-110.00066,33.8796],[-110.00066,34.00005],[-110.07096,34.00005],[-110.25249,34.00005],[-110.39152,34.00005],[-110.53662,34.00005],[-110.75067,34.00005],[-110.75068,34.26331],[-110.76696,34.259],[-110.76734,34.26731],[-110.75789,34.27934],[-110.76461,34.29243],[-110.7797,34.299],[-110.78577,34.30304],[-110.78775,34.30865],[-110.79414,34.3051],[-110.796,34.2991],[-110.80281,34.29805],[-110.80836,34.30856],[-110.81103,34.29569],[-110.8339,34.30296],[-110.83846,34.30882],[-110.84448,34.30536],[-110.82457,34.29539],[-110.82031,34.28811],[-110.83482,34.28097],[-110.83184,34.27324],[-110.83575,34.26932],[-110.84806,34.2672],[-110.85615,34.27066],[-110.86061,34.2699],[-110.87741,34.27581],[-110.88872,34.28634],[-110.88643,34.29252],[-110.89522,34.29549],[-110.89692,34.30245],[-110.90762,34.30076],[-110.92715,34.3105],[-110.94082,34.31048],[-110.9461,34.31728],[-110.95276,34.31461],[-110.96038,34.31742],[-110.96908,34.3243],[-110.96926,34.32769],[-110.97586,34.33684],[-110.99731,34.34413],[-110.99905,34.35017],[-111.00462,34.35175],[-111.00568,34.3608],[-111.01134,34.35997],[-111.02606,34.3646],[-111.03219,34.36145],[-111.02588,34.35382],[-111.02825,34.34638],[-111.03318,34.34093],[-111.04266,34.34284],[-111.05001,34.34715],[-111.05777,34.35573],[-111.04947,34.35952],[-111.03973,34.37329],[-111.04425,34.37964],[-111.05014,34.37243],[-111.05408,34.37881],[-111.06103,34.37731],[-111.07626,34.3816],[-111.07621,34.38683],[-111.08647,34.39022],[-111.0875,34.395],[-111.10104,34.39017],[-111.11199,34.39012],[-111.11018,34.38519],[-111.11834,34.38304],[-111.12874,34.39037],[-111.13111,34.38662],[-111.14013,34.38492],[-111.14585,34.3756],[-111.15095,34.37936],[-111.14886,34.38484],[-111.15207,34.39426],[-111.16098,34.40382],[-111.17173,34.40253],[-111.17354,34.40598],[-111.1847,34.40999],[-111.19461,34.40566],[-111.19769,34.4087],[-111.20662,34.40986],[-111.21503,34.41783],[-111.2219,34.41666],[-111.22215,34.42565],[-111.2311,34.43175],[-111.2399,34.43144],[-111.24666,34.45081],[-111.25405,34.45226],[-111.25648,34.44678],[-111.26197,34.44282],[-111.26677,34.44463],[-111.27913,34.43993],[-111.28696,34.43985],[-111.28897,34.43598],[-111.2968,34.4372],[-111.29889,34.43347],[-111.30805,34.43307],[-111.31104,34.42795],[-111.32075,34.42777],[-111.3243,34.42259],[-111.33198,34.42486],[-111.35406,34.42461],[-111.35192,34.43074],[-111.35354,34.43619],[-111.37167,34.43963],[-111.38744,34.42914],[-111.38816,34.42461],[-111.39936,34.42226],[-111.40117,34.41086],[-111.41125,34.408],[-111.4034,34.39775],[-111.38642,34.3978],[-111.38963,34.38778],[-111.39528,34.38506],[-111.40033,34.37889],[-111.40714,34.37689],[-111.41175,34.38226],[-111.41858,34.38002],[-111.41953,34.3881],[-111.4291,34.391],[-111.42473,34.39464],[-111.42239,34.40823],[-111.42618,34.42522],[-111.41811,34.43469],[-111.41116,34.43332],[-111.40571,34.43951],[-111.41177,34.44286],[-111.41924,34.44341],[-111.42691,34.44805],[-111.43563,34.4461],[-111.4332,34.4404],[-111.4427,34.43399],[-111.44939,34.43371],[-111.45377,34.42707],[-111.46011,34.42515],[-111.46727,34.41424],[-111.47526,34.41317],[-111.48025,34.4153],[-111.47969,34.42744],[-111.4838,34.43141],[-111.49304,34.42969],[-111.49187,34.42274],[-111.49835,34.42129],[-111.50849,34.42219],[-111.51242,34.41566],[-111.52496,34.41153],[-111.53755,34.4125],[-111.54924,34.42008],[-111.54173,34.42397],[-111.52853,34.42303],[-111.53017,34.42995],[-111.51766,34.43039],[-111.51945,34.43769],[-111.51748,34.44502],[-111.50819,34.44096],[-111.49599,34.44674],[-111.49314,34.45206],[-111.48321,34.45359],[-111.47306,34.46013],[-111.48161,34.46278],[-111.49377,34.46207],[-111.50896,34.45466],[-111.51928,34.45827],[-111.52248,34.45526],[-111.53921,34.45424],[-111.53776,34.45929],[-111.52929,34.46258],[-111.5207,34.46346],[-111.51243,34.46803],[-111.51032,34.48909],[-111.52102,34.49825],[-111.52456,34.49497],[-111.52094,34.48627],[-111.52373,34.47758],[-111.52846,34.4704],[-111.53301,34.46875],[-111.53758,34.47452],[-111.5427,34.47122],[-111.54337,34.46565],[-111.55058,34.46222],[-111.55465,34.4717],[-111.55453,34.43937],[-111.56339,34.432],[-111.57192,34.42969],[-111.57294,34.42327],[-111.57673,34.42056],[-111.587,34.42021],[-111.59128,34.42213],[-111.60102,34.41926],[-111.61205,34.4051],[-111.61885,34.40075],[-111.63028,34.39748],[-111.63067,34.39319],[-111.6419,34.39425],[-111.65964,34.38625],[-111.65695,34.36769],[-111.66544,34.35307],[-111.66747,34.34386],[-111.66459,34.34231],[-111.66557,34.33112],[-111.66245,34.32464],[-111.6698,34.30696],[-111.67438,34.30617],[-111.68452,34.29732],[-111.67568,34.28946],[-111.67348,34.29494],[-111.66381,34.29595],[-111.66585,34.28549],[-111.68401,34.28279],[-111.68006,34.27093],[-111.68158,34.26158],[-111.69013,34.26018],[-111.69014,34.25668],[-111.69654,34.25038],[-111.69986,34.24025],[-111.69812,34.23013],[-111.70433,34.22682],[-111.70296,34.22059],[-111.70502,34.21232],[-111.69737,34.21188],[-111.6905,34.20496],[-111.69019,34.2],[-111.69589,34.19316],[-111.70275,34.1981],[-111.71197,34.19653],[-111.70696,34.19111],[-111.69731,34.19014],[-111.69497,34.1812],[-111.70366,34.18264],[-111.70552,34.17628],[-111.72009,34.15973],[-111.71198,34.15107],[-111.50067,34.15102],[-111.4809,34.14843],[-111.48309,34.14194],[-111.48855,34.1394],[-111.49138,34.13077],[-111.48119,34.13145],[-111.47974,34.11896],[-111.47429,34.11847],[-111.47083,34.11158],[-111.47474,34.10566],[-111.48544,34.09511],[-111.48122,34.09251],[-111.47538,34.08039],[-111.46376,34.07244],[-111.46071,34.0662],[-111.46207,34.05931],[-111.47171,34.0582],[-111.46811,34.04685],[-111.47136,34.04213],[-111.48291,34.04007],[-111.48443,34.03651],[-111.49241,34.03789],[-111.49698,34.02884],[-111.49439,34.02378],[-111.4952,34.01455],[-111.49892,34.01081],[-111.49883,34.00423],[-111.49499,33.99995],[-111.47823,34.00208],[-111.46604,34.00577],[-111.44035,33.99642],[-111.44281,33.99137],[-111.4331,33.9844],[-111.43506,33.98069],[-111.44809,33.97328],[-111.45273,33.96243],[-111.44797,33.95752],[-111.45218,33.94863],[-111.44739,33.94174],[-111.44716,33.93476],[-111.45174,33.921],[-111.43729,33.91626],[-111.42639,33.92607],[-111.40507,33.91922],[-111.4085,33.91238],[-111.40812,33.90518],[-111.41373,33.89736],[-111.41147,33.89141],[-111.41223,33.8846],[-111.39772,33.87782],[-111.39631,33.86857],[-111.38808,33.86341],[-111.39579,33.84428],[-111.39548,33.84086],[-111.38753,33.83372],[-111.38356,33.83362],[-111.37232,33.82392],[-111.37151,33.81885],[-111.3841,33.81619],[-111.38791,33.80321],[-111.3798,33.79574],[-111.38944,33.77666],[-111.38698,33.7631],[-111.38235,33.75825],[-111.38681,33.75004],[-111.38087,33.74768],[-111.37469,33.74985],[-111.37214,33.74521],[-111.35934,33.74097],[-111.35483,33.73325],[-111.35073,33.73223],[-111.33752,33.72116],[-111.33832,33.70275],[-111.33139,33.68834],[-111.32601,33.68438],[-111.31775,33.68285],[-111.30063,33.66513],[-111.29503,33.66087],[-111.2876,33.65897],[-111.28727,33.65243],[-111.27071,33.63359],[-111.26283,33.62316],[-111.2557,33.62113],[-111.24954,33.62433],[-111.23836,33.61845],[-111.23078,33.61241],[-111.23195,33.60951],[-111.22425,33.60312],[-111.21675,33.60832],[-111.21493,33.61406],[-111.20745,33.62057],[-111.20944,33.6335],[-111.20028,33.64026],[-111.18062,33.65979],[-111.17176,33.66138],[-111.16966,33.66732],[-111.15335,33.67761],[-111.13666,33.64631],[-111.04638,33.4786],[-111.03998,33.46602]]]},"properties":{"STATEFP":"04","COUNTYFP":"007","COUNTYNS":"00040471","GEOIDFQ":"0500000US04007","GEOID":"04007","NAME":"Gila","NAMELSAD":"Gila County","STUSPS":"AZ","STATE_NAME":"Arizona","LSAD":"06","ALAND":12322068647,"AWATER":96466819}},
{"type":"Feature","geometry":{"type":"Polygon","coordinates":[[[-110.00068,36.99798],[-110.00068,36.89051],[-110.00067,36.77884],[-110.00067,36.65645],[-110.00067,36.50648],[-110.00067,36.36128],[-110.00067,36.25682],[-110.00067,36.07386],[-110.00067,35.88051],[-110.00067,35.76296],[-110.00067,35.66266],[-109.82696,35.66263],[-109.82672,35.60545],[-109.82696,35.51782],[-109.84376,35.51773],[-109.84381,35.4707],[-109.84439,35.37501],[-109.84379,35.37477],[-109.84392,35.23865],[-109.84374,35.1704],[-109.84294,35.17024],[-109.84504,35.00004],[-109.84338,34.95231],[-109.84489,34.90953],[-109.84462,34.82256],[-109.85193,34.82249],[-109.85064,34.69645],[-109.8505,34.64744],[-109.86523,34.55969],[-109.85345,34.50245],[-109.8468,34.47346],[-109.84823,34.47339],[-109.84843,34.38826],[-109.84829,34.32474],[-109.84898,34.22762],[-109.84941,34.12592],[-109.85916,34.12577],[-109.85929,33.98036],[-109.85928,33.87255],[-109.85927,33.77768],[-109.89177,33.77778],[-109.89168,33.56787],[-109.88506,33.56828],[-109.87794,33.56398],[-109.86827,33.56205],[-109.86737,33.55643],[-109.85654,33.54858],[-109.85265,33.53931],[-109.84827,33.53797],[-109.83877,33.52923],[-109.83354,33.53504],[-109.82346,33.5275],[-109.82578,33.52213],[-109.82133,33.51681],[-109.81987,33.51036],[-109.81326,33.50524],[-109.80575,33.50458],[-109.80525,33.5005],[-109.81348,33.48601],[-109.80649,33.4849],[-109.79978,33.48831],[-109.78455,33.48174],[-109.78402,33.47656],[-109.76727,33.47542],[-109.76217,33.48104],[-109.75322,33.48142],[-109.74769,33.48467],[-109.74234,33.49299],[-109.74404,33.50327],[-109.73964,33.51055],[-109.7283,33.51539],[-109.72531,33.5204],[-109.7131,33.52519],[-109.70783,33.53638],[-109.69882,33.53571],[-109.68477,33.54353],[-109.67928,33.55097],[-109.67848,33.55704],[-109.67194,33.55934],[-109.67066,33.56712],[-109.67553,33.57324],[-109.66062,33.58359],[-109.65242,33.58325],[-109.64351,33.58596],[-109.63575,33.58455],[-109.62493,33.58906],[-109.61963,33.58406],[-109.61689,33.59252],[-109.61203,33.59278],[-109.60416,33.60138],[-109.60548,33.61162],[-109.58959,33.61638],[-109.58558,33.61284],[-109.58009,33.61402],[-109.57191,33.62195],[-109.55939,33.62642],[-109.55509,33.62018],[-109.55015,33.62157],[-109.53456,33.62005],[-109.52818,33.62292],[-109.51962,33.63399],[-109.51863,33.64069],[-109.50606,33.64344],[-109.50006,33.65275],[-109.49544,33.6527],[-109.48633,33.65648],[-109.47981,33.66365],[-109.48401,33.67273],[-109.48106,33.6902],[-109.47519,33.69037],[-109.47461,33.69548],[-109.46211,33.69267],[-109.46174,33.69641],[-109.44178,33.71305],[-109.42974,33.71115],[-109.42107,33.71177],[-109.41247,33.70844],[-109.41157,33.71385],[-109.39729,33.71295],[-109.39347,33.71676],[-109.37847,33.72464],[-109.36887,33.7224],[-109.36156,33.72789],[-109.35257,33.72803],[-109.35753,33.73474],[-109.36446,33.73845],[-109.36204,33.74564],[-109.36276,33.75214],[-109.3544,33.76577],[-109.35454,33.77065],[-109.34858,33.77812],[-109.22099,33.7778],[-109.04695,33.77741],[-109.04643,33.87505],[-109.04701,34.00005],[-109.04674,34.16694],[-109.0464,34.38732],[-109.04625,34.47829],[-109.04616,34.57929],[-109.04609,34.77102],[-109.04536,34.78541],[-109.0461,34.79998],[-109.04585,34.95972],[-109.0459,35.02006],[-109.04602,35.16689],[-109.04608,35.25003],[-109.0468,35.36361],[-109.04655,35.50841],[-109.0463,35.61425],[-109.04621,35.69519],[-109.04608,35.82873],[-109.04597,36.0027],[-109.04573,36.11703],[-109.04618,36.18175],[-109.04584,36.32893],[-109.04561,36.42315],[-109.04543,36.52988],[-109.04543,36.76912],[-109.04543,36.87459],[-109.04522,36.99908],[-109.1812,36.99927],[-109.38256,36.99915],[-109.49534,36.99911],[-109.62567,36.99831],[-109.70977,36.99837],[-109.87567,36.9985],[-110.00068,36.99798]]]},"properties":{"STATEFP":"04","COUNTYFP":"001","COUNTYNS":"00025441","GEOIDFQ":"0500000US04001","GEOID":"04001","NAME":"Apache","NAMELSAD":"Apache County","STUSPS":"AZ","STATE_NAME":"Arizona","LSAD":"06","ALAND":29003487955,"AWATER":54140333}},
{"type":"Feature","geometry":{"type":"Polygon","coordinates":[[[-113.33342,34.31791],[-113.33374,34.25002],[-113.33342,34.24911],[-113.33323,34.12502],[-113.33363,34.12225],[-113.33331,34.00004],[-113.142,34.00003],[-112.82422,33.99992],[-112.7438,33.99986],[-112.68501,33.98519],[-112.42793,33.9207],[-112.27617,33.88247],[-112.2776,33.89044],[-112.27516,33.8934],[-112.25564,33.90543],[-112.24304,33.90536],[-112.24073,33.90826],[-112.24295,33.91546],[-112.23505,33.91641],[-112.23156,33.93604],[-112.24137,33.94053],[-112.2358,33.94729],[-112.24026,33.95049],[-112.24035,33.95664],[-112.2304,33.95404],[-112.22194,33.96067],[-112.21451,33.96374],[-112.21501,33.96715],[-112.20286,33.9705],[-112.19414,33.97793],[-112.19337,33.9903],[-112.18625,33.99717],[-112.18039,34.00574],[-112.18209,34.01317],[-112.16966,34.01686],[-112.16113,34.01772],[-112.16535,34.03313],[-112.16148,34.04223],[-112.16476,34.04817],[-111.9962,34.02987],[-111.87465,34.01648],[-111.72633,34.00004],[-111.49499,33.99995],[-111.49883,34.00423],[-111.49892,34.01081],[-111.4952,34.01455],[-111.49439,34.02378],[-111.49698,34.02884],[-111.49241,34.03789],[-111.48443,34.03651],[-111.48291,34.04007],[-111.47136,34.04213],[-111.46811,34.04685],[-111.47171,34.0582],[-111.46207,34.05931],[-111.46071,34.0662],[-111.46376,34.07244],[-111.47538,34.08039],[-111.48122,34.09251],[-111.48544,34.09511],[-111.47474,34.10566],[-111.47083,34.11158],[-111.47429,34.11847],[-111.47974,34.11896],[-111.48119,34.13145],[-111.49138,34.13077],[-111.48855,34.1394],[-111.48309,34.14194],[-111.4809,34.14843],[-111.50067,34.15102],[-111.71198,34.15107],[-111.72009,34.15973],[-111.70552,34.17628],[-111.70366,34.18264],[-111.69497,34.1812],[-111.69731,34.19014],[-111.70696,34.19111],[-111.71197,34.19653],[-111.70275,34.1981],[-111.69589,34.19316],[-111.69019,34.2],[-111.6905,34.20496],[-111.69737,34.21188],[-111.70502,34.21232],[-111.70296,34.22059],[-111.70433,34.22682],[-111.69812,34.23013],[-111.69986,34.24025],[-111.69654,34.25038],[-111.69014,34.25668],[-111.69013,34.26018],[-111.68158,34.26158],[-111.68006,34.27093],[-111.68401,34.28279],[-111.66585,34.28549],[-111.66381,34.29595],[-111.67348,34.29494],[-111.67568,34.28946],[-111.68452,34.29732],[-111.67438,34.30617],[-111.6698,34.30696],[-111.66245,34.32464],[-111.66557,34.33112],[-111.66459,34.34231],[-111.66747,34.34386],[-111.66544,34.35307],[-111.65695,34.36769],[-111.65964,34.38625],[-111.6419,34.39425],[-111.63067,34.39319],[-111.63028,34.39748],[-111.61885,34.40075],[-111.61205,34.4051],[-111.60102,34.41926],[-111.59128,34.42213],[-111.587,34.42021],[-111.57673,34.42056],[-111.57294,34.42327],[-111.57192,34.42969],[-111.56339,34.432],[-111.55453,34.43937],[-111.55465,34.4717],[-111.55454,34.50002],[-111.55312,34.50002],[-111.55337,34.63639],[-111.55204,34.63639],[-111.55211,34.8025],[-111.63994,34.80288],[-111.65781,34.80262],[-111.68557,34.80352],[-111.75891,34.80412],[-111.77826,34.8033],[-111.77999,34.81812],[-111.77858,34.8475],[-111.77762,34.88852],[-111.77762,34.981],[-111.80909,34.98106],[-111.80903,34.9763],[-111.86252,34.97626],[-112.00072,34.97647],[-112.02194,34.97584],[-112.02194,34.97405],[-112.23749,34.97389],[-112.25072,34.97329],[-112.33454,34.97302],[-112.33579,35.14823],[-112.44229,35.14924],[-112.44269,35.21287],[-112.44208,35.23737],[-112.44239,35.25917],[-112.45275,35.25283],[-112.46572,35.24753],[-112.47286,35.23819],[-112.49964,35.24266],[-112.54177,35.23642],[-112.5774,35.24339],[-112.60177,35.26739],[-112.607,35.271],[-112.62073,35.27496],[-112.61805,35.28291],[-112.6194,35.29122],[-112.62824,35.29909],[-112.63443,35.30086],[-112.64522,35.29959],[-112.65549,35.29196],[-112.66051,35.2922],[-112.67022,35.303],[-112.67949,35.30808],[-112.693,35.31142],[-112.70172,35.3115],[-112.71789,35.30677],[-112.73508,35.30502],[-112.75487,35.3062],[-112.76334,35.3133],[-112.77025,35.31519],[-112.78505,35.31577],[-112.79698,35.32297],[-112.88976,35.34359],[-112.94476,35.35251],[-112.95321,35.3529],[-112.96181,35.37688],[-112.971,35.38863],[-112.97693,35.3928],[-113.08448,35.45186],[-113.13761,35.474],[-113.14763,35.47898],[-113.15173,35.48982],[-113.15892,35.4976],[-113.17471,35.5067],[-113.19817,35.51076],[-113.21871,35.50907],[-113.23258,35.51602],[-113.24845,35.52188],[-113.2534,35.52648],[-113.26726,35.53098],[-113.28117,35.52905],[-113.2992,35.53114],[-113.31876,35.53082],[-113.33416,35.52822],[-113.33305,35.49996],[-113.33322,35.34628],[-113.33292,35.19122],[-113.33291,35.1127],[-113.33303,34.78858],[-113.3331,34.67732],[-113.33394,34.67732],[-113.33436,34.56131],[-113.33347,34.56131],[-113.33315,34.47861],[-113.33342,34.31791]]]},"properties":{"STATEFP":"04","COUNTYFP":"025","COUNTYNS":"00042809","GEOIDFQ":"0500000US04025","GEOID":"04025","NAME":"Yavapai","NAMELSAD":"Yavapai County","STUSPS":"AZ","STATE_NAME":"Arizona","LSAD":"06","ALAND":21038297494,"AWATER":11358280}},
{"type":"Feature","geometry":{"type":"Polygon","coordinates":[[[-110.44902,33.19453],[-110.44939,32.99016],[-110.44936,32.94749],[-110.44848,32.94749],[-110.44853,32.77116],[-110.44862,32.70226],[-110.44923,32.514],[-110.45152,32.514],[-110.451,32.42755],[-110.34899,32.42765],[-110.34897,32.42639],[-110.12867,32.42676],[-109.84017,32.42711],[-109.74204,32.42709],[-109.66316,32.42668],[-109.43207,32.42757],[-109.33012,32.42581],[-109.22775,32.42475],[-109.22774,32.42635],[-109.11418,32.42635],[-109.16509,32.47264],[-109.17615,32.48423],[-109.22607,32.5291],[-109.22595,32.54303],[-109.21126,32.58429],[-109.21948,32.60169],[-109.20625,32.6358],[-109.21296,32.65363],[-109.21383,32.68066],[-109.24515,32.74206],[-109.24817,32.75022],[-109.25237,32.75024],[-109.31815,32.84278],[-109.33342,32.84327],[-109.42543,32.97684],[-109.49574,33.07841],[-109.4957,33.18048],[-109.49555,33.64],[-109.49544,33.6527],[-109.50006,33.65275],[-109.50606,33.64344],[-109.51863,33.64069],[-109.51962,33.63399],[-109.52818,33.62292],[-109.53456,33.62005],[-109.55015,33.62157],[-109.55509,33.62018],[-109.55939,33.62642],[-109.57191,33.62195],[-109.58009,33.61402],[-109.58558,33.61284],[-109.58959,33.61638],[-109.60548,33.61162],[-109.60416,33.60138],[-109.61203,33.59278],[-109.61689,33.59252],[-109.61963,33.58406],[-109.62493,33.58906],[-109.63575,33.58455],[-109.64351,33.58596],[-109.65242,33.58325],[-109.66062,33.58359],[-109.67553,33.57324],[-109.67066,33.56712],[-109.67194,33.55934],[-109.67848,33.55704],[-109.67928,33.55097],[-109.68477,33.54353],[-109.69882,33.53571],[-109.70783,33.53638],[-109.7131,33.52519],[-109.72531,33.5204],[-109.7283,33.51539],[-109.73964,33.51055],[-109.74404,33.50327],[-109.74234,33.49299],[-109.74769,33.48467],[-109.75322,33.48142],[-109.76217,33.48104],[-109.76727,33.47542],[-109.78402,33.47656],[-109.78455,33.48174],[-109.79978,33.48831],[-109.80649,33.4849],[-109.81348,33.48601],[-109.80525,33.5005],[-109.80575,33.50458],[-109.81326,33.50524],[-109.81987,33.51036],[-109.82133,33.51681],[-109.82578,33.52213],[-109.82346,33.5275],[-109.83354,33.53504],[-109.83877,33.52923],[-109.84827,33.53797],[-109.85265,33.53931],[-109.85654,33.54858],[-109.86737,33.55643],[-109.86827,33.56205],[-109.87794,33.56398],[-109.88506,33.56828],[-109.89168,33.56787],[-109.89754,33.56924],[-109.9004,33.5754],[-109.91603,33.57487],[-109.92255,33.568],[-109.93796,33.57053],[-109.94275,33.56878],[-109.9501,33.57323],[-109.95766,33.57213],[-109.96364,33.57974],[-109.96852,33.5764],[-109.98108,33.57627],[-109.98386,33.57905],[-109.99509,33.58257],[-110.00065,33.57693],[-110.00065,33.46592],[-110.16969,33.46539],[-110.16918,33.45163],[-110.17678,33.4484],[-110.19285,33.44902],[-110.19662,33.44305],[-110.20628,33.43937],[-110.21089,33.44175],[-110.21534,33.436],[-110.22946,33.44414],[-110.24743,33.43642],[-110.25216,33.43847],[-110.26567,33.43543],[-110.27226,33.44208],[-110.27672,33.4405],[-110.29238,33.42966],[-110.3031,33.42877],[-110.31309,33.43347],[-110.32158,33.43275],[-110.32957,33.42717],[-110.34119,33.42693],[-110.34295,33.42056],[-110.35286,33.40353],[-110.35638,33.4046],[-110.36298,33.39822],[-110.38075,33.40274],[-110.39512,33.40443],[-110.40822,33.39946],[-110.41307,33.40155],[-110.41873,33.38631],[-110.42785,33.38831],[-110.44154,33.38167],[-110.44311,33.36784],[-110.45173,33.36156],[-110.44529,33.35437],[-110.44782,33.34814],[-110.4474,33.3338],[-110.44424,33.32638],[-110.45082,33.31633],[-110.44723,33.30029],[-110.45719,33.29527],[-110.45338,33.29063],[-110.45508,33.28215],[-110.4492,33.2744],[-110.44852,33.26524],[-110.44349,33.26218],[-110.44383,33.25553],[-110.43679,33.25129],[-110.43524,33.23919],[-110.42765,33.23594],[-110.42215,33.22867],[-110.41707,33.22682],[-110.42159,33.21719],[-110.4139,33.21156],[-110.41047,33.20605],[-110.40051,33.19838],[-110.40859,33.19204],[-110.42974,33.19098],[-110.43263,33.18771],[-110.44643,33.18985],[-110.44902,33.19453]]]},"properties":{"STATEFP":"04","COUNTYFP":"009","COUNTYNS":"00025444","GEOIDFQ":"0500000US04009","GEOID":"04009","NAME":"Graham","NAMELSAD":"Graham County","STUSPS":"AZ","STATE_NAME":"Arizona","LSAD":"06","ALAND":11970605960,"AWATER":47476264}},
{"type":"Feature","geometry":{"type":"Polygon","coordinates":[[[-113.33505,33.37747],[-113.64469,33.37733],[-113.75148,33.37731],[-113.95749,33.37758],[-113.95804,33.46441],[-114.07045,33.46444],[-114.26881,33.4644],[-114.2688,33.28914],[-114.2688,33.02996],[-114.37178,33.02996],[-114.37178,33.02803],[-114.51688,33.02783],[-114.50613,33.01701],[-114.4998,33.00391],[-114.49571,32.98008],[-114.49013,32.96989],[-114.47616,32.97517],[-114.46904,32.9723],[-114.46773,32.95632],[-114.47083,32.94933],[-114.48092,32.93525],[-114.47664,32.92363],[-114.46445,32.91313],[-114.46313,32.90188],[-114.46555,32.87481],[-114.46897,32.84516],[-114.49412,32.82329],[-114.51022,32.81642],[-114.52203,32.80168],[-114.52885,32.79631],[-114.53167,32.79119],[-114.53243,32.77692],[-114.52844,32.76728],[-114.52686,32.75709],[-114.53909,32.75695],[-114.53922,32.74981],[-114.56445,32.74955],[-114.56451,32.7423],[-114.58174,32.74232],[-114.58178,32.73495],[-114.6127,32.73452],[-114.61837,32.72825],[-114.63269,32.73085],[-114.66749,32.73423],[-114.68878,32.73768],[-114.70192,32.74555],[-114.71452,32.73039],[-114.72275,32.71307],[-114.73009,32.7043],[-114.73045,32.69884],[-114.74449,32.67867],[-114.748,32.66418],[-114.75311,32.6583],[-114.76495,32.64939],[-114.76438,32.64267],[-114.78223,32.63022],[-114.78187,32.62505],[-114.79118,32.62183],[-114.7993,32.62512],[-114.80739,32.62133],[-114.80939,32.61712],[-114.80791,32.60278],[-114.80155,32.59859],[-114.79968,32.59362],[-114.80388,32.58089],[-114.80442,32.57294],[-114.81299,32.56871],[-114.81263,32.55954],[-114.79331,32.56198],[-114.79155,32.55702],[-114.79563,32.55096],[-114.80597,32.54535],[-114.80218,32.53641],[-114.81329,32.52448],[-114.80814,32.51678],[-114.80214,32.51481],[-114.80773,32.50873],[-114.81651,32.50696],[-114.81232,32.50005],[-114.81361,32.49428],[-114.64954,32.44486],[-114.50078,32.40006],[-114.25077,32.32391],[-113.96153,32.23458],[-113.78168,32.17903],[-113.75076,32.16901],[-113.4932,32.08894],[-113.33381,32.03878],[-113.33386,32.41865],[-113.33389,32.50519],[-113.3337,32.59359],[-113.33371,32.76748],[-113.33378,32.95827],[-113.33383,33.11705],[-113.33336,33.20465],[-113.3336,33.24763],[-113.33422,33.25004],[-113.33392,33.37743],[-113.33505,33.37747]]]},"properties":{"STATEFP":"04","COUNTYFP":"027","COUNTYNS":"00023901","GEOIDFQ":"0500000US04027","GEOID":"04027","NAME":"Yuma","NAMELSAD":"Yuma County","STUSPS":"AZ","STATE_NAME":"Arizona","LSAD":"06","ALAND":14280726745,"AWATER":13242852}},
{"type":"Feature","geometry":{"type":"Polygon","coordinates":[[[-112.20362,32.50672],[-111.95513,32.50666],[-111.79254,32.50664],[-111.56926,32.50677],[-111.56925,32.50139],[-111.36977,32.50135],[-111.23269,32.50165],[-111.15757,32.50162],[-111.15749,32.51126],[-111.04722,32.51135],[-110.92837,32.51124],[-110.89918,32.51172],[-110.84508,32.51112],[-110.8451,32.51387],[-110.65294,32.5138],[-110.45152,32.514],[-110.44923,32.514],[-110.44862,32.70226],[-110.44853,32.77116],[-110.44848,32.94749],[-110.44936,32.94749],[-110.44939,32.99016],[-110.44902,33.19453],[-110.45394,33.19804],[-110.46424,33.19236],[-110.46329,33.18334],[-110.47059,33.18214],[-110.48922,33.18328],[-110.49878,33.18683],[-110.50473,33.18625],[-110.50968,33.18002],[-110.51627,33.17569],[-110.52763,33.1763],[-110.52772,33.17231],[-110.54067,33.1638],[-110.54547,33.16906],[-110.55017,33.15739],[-110.56131,33.15338],[-110.56175,33.14935],[-110.56899,33.14481],[-110.57944,33.14713],[-110.58698,33.13731],[-110.59384,33.13385],[-110.60848,33.14237],[-110.62066,33.14401],[-110.63441,33.14237],[-110.64084,33.13237],[-110.65678,33.11354],[-110.6624,33.11906],[-110.66908,33.11802],[-110.67276,33.11164],[-110.67801,33.11118],[-110.67978,33.1012],[-110.68327,33.09998],[-110.68329,33.08812],[-110.69132,33.08893],[-110.68828,33.08125],[-110.69333,33.07705],[-110.70507,33.08377],[-110.71158,33.08158],[-110.7257,33.06939],[-110.71683,33.05282],[-110.71634,33.04124],[-110.72512,33.04189],[-110.72911,33.03546],[-110.72934,33.02731],[-110.73804,33.02011],[-110.74331,33.01888],[-110.7468,33.0107],[-110.75363,33.00702],[-110.76378,33.00495],[-110.76528,33.0006],[-110.7649,32.98644],[-110.78108,32.98374],[-110.78321,32.98479],[-110.86564,33.11948],[-110.8707,33.12806],[-110.94668,33.25005],[-110.9746,33.34175],[-111.03998,33.46602],[-111.04786,33.46574],[-111.26975,33.46592],[-111.47681,33.46589],[-111.58063,33.4658],[-111.5807,33.37874],[-111.58408,33.3788],[-111.58329,33.29787],[-111.58263,33.20541],[-111.68591,33.20464],[-111.80637,33.20469],[-111.89255,33.20328],[-111.89308,33.20471],[-112.08195,33.20469],[-112.09211,33.20925],[-112.08821,33.21983],[-112.08958,33.22495],[-112.09581,33.23036],[-112.10298,33.23056],[-112.11368,33.22747],[-112.11622,33.2316],[-112.12647,33.23552],[-112.13247,33.23348],[-112.13473,33.24156],[-112.13967,33.24367],[-112.14449,33.25088],[-112.15096,33.25425],[-112.16132,33.25428],[-112.17576,33.26311],[-112.18104,33.26253],[-112.19178,33.26504],[-112.19751,33.27844],[-112.19749,33.28933],[-112.19369,33.29894],[-112.20169,33.30751],[-112.20204,33.29047],[-112.20214,33.13457],[-112.20215,33.02915],[-112.20298,33.02915],[-112.20302,32.94204],[-112.20349,32.94173],[-112.20352,32.83652],[-112.20357,32.68359],[-112.20362,32.50672]]]},"properties":{"STATEFP":"04","COUNTYFP":"021","COUNTYNS":"00025447","GEOIDFQ":"0500000US04021","GEOID":"04021","NAME":"Pinal","NAMELSAD":"Pinal County","STUSPS":"AZ","STATE_NAME":"Arizona","LSAD":"06","ALAND":13899629595,"AWATER":20747212}},
{"type":"Feature","geometry":{"type":"Polygon","coordinates":[[[-113.33416,35.52822],[-113.31876,35.53082],[-113.2992,35.53114],[-113.28117,35.52905],[-113.26726,35.53098],[-113.2534,35.52648],[-113.24845,35.52188],[-113.23258,35.51602],[-113.21871,35.50907],[-113.19817,35.51076],[-113.17471,35.5067],[-113.15892,35.4976],[-113.15173,35.48982],[-113.14763,35.47898],[-113.13761,35.474],[-113.08448,35.45186],[-112.97693,35.3928],[-112.971,35.38863],[-112.96181,35.37688],[-112.95321,35.3529],[-112.94476,35.35251],[-112.88976,35.34359],[-112.79698,35.32297],[-112.78505,35.31577],[-112.77025,35.31519],[-112.76334,35.3133],[-112.75487,35.3062],[-112.73508,35.30502],[-112.71789,35.30677],[-112.70172,35.3115],[-112.693,35.31142],[-112.67949,35.30808],[-112.67022,35.303],[-112.66051,35.2922],[-112.65549,35.29196],[-112.64522,35.29959],[-112.63443,35.30086],[-112.62824,35.29909],[-112.6194,35.29122],[-112.61805,35.28291],[-112.62073,35.27496],[-112.607,35.271],[-112.60177,35.26739],[-112.5774,35.24339],[-112.54177,35.23642],[-112.49964,35.24266],[-112.47286,35.23819],[-112.46572,35.24753],[-112.45275,35.25283],[-112.44239,35.25917],[-112.44208,35.23737],[-112.44269,35.21287],[-112.44229,35.14924],[-112.33579,35.14823],[-112.33454,34.97302],[-112.25072,34.97329],[-112.23749,34.97389],[-112.02194,34.97405],[-112.02194,34.97584],[-112.00072,34.97647],[-111.86252,34.97626],[-111.80903,34.9763],[-111.80909,34.98106],[-111.77762,34.981],[-111.77762,34.88852],[-111.77858,34.8475],[-111.77999,34.81812],[-111.77826,34.8033],[-111.75891,34.80412],[-111.68557,34.80352],[-111.65781,34.80262],[-111.63994,34.80288],[-111.55211,34.8025],[-111.55204,34.63639],[-111.55337,34.63639],[-111.55312,34.50002],[-111.55454,34.50002],[-111.55465,34.4717],[-111.55058,34.46222],[-111.54337,34.46565],[-111.5427,34.47122],[-111.53758,34.47452],[-111.53301,34.46875],[-111.52846,34.4704],[-111.52373,34.47758],[-111.52094,34.48627],[-111.52456,34.49497],[-111.52102,34.49825],[-111.51032,34.48909],[-111.51243,34.46803],[-111.5207,34.46346],[-111.52929,34.46258],[-111.53776,34.45929],[-111.53921,34.45424],[-111.52248,34.45526],[-111.51928,34.45827],[-111.50896,34.45466],[-111.49377,34.46207],[-111.48161,34.46278],[-111.47306,34.46013],[-111.48321,34.45359],[-111.49314,34.45206],[-111.49599,34.44674],[-111.50819,34.44096],[-111.51748,34.44502],[-111.51945,34.43769],[-111.51766,34.43039],[-111.53017,34.42995],[-111.52853,34.42303],[-111.54173,34.42397],[-111.54924,34.42008],[-111.53755,34.4125],[-111.52496,34.41153],[-111.51242,34.41566],[-111.50849,34.42219],[-111.49835,34.42129],[-111.49187,34.42274],[-111.49304,34.42969],[-111.4838,34.43141],[-111.47969,34.42744],[-111.48025,34.4153],[-111.47526,34.41317],[-111.46727,34.41424],[-111.46011,34.42515],[-111.45377,34.42707],[-111.44939,34.43371],[-111.4427,34.43399],[-111.4332,34.4404],[-111.43563,34.4461],[-111.42691,34.44805],[-111.41924,34.44341],[-111.41177,34.44286],[-111.40571,34.43951],[-111.41116,34.43332],[-111.41811,34.43469],[-111.42618,34.42522],[-111.42239,34.40823],[-111.42473,34.39464],[-111.4291,34.391],[-111.41953,34.3881],[-111.41858,34.38002],[-111.41175,34.38226],[-111.40714,34.37689],[-111.40033,34.37889],[-111.39528,34.38506],[-111.38963,34.38778],[-111.38642,34.3978],[-111.4034,34.39775],[-111.41125,34.408],[-111.40117,34.41086],[-111.39936,34.42226],[-111.38816,34.42461],[-111.38744,34.42914],[-111.37167,34.43963],[-111.35354,34.43619],[-111.35192,34.43074],[-111.35406,34.42461],[-111.33198,34.42486],[-111.3243,34.42259],[-111.32075,34.42777],[-111.31104,34.42795],[-111.30805,34.43307],[-111.29889,34.43347],[-111.2968,34.4372],[-111.28897,34.43598],[-111.28696,34.43985],[-111.27913,34.43993],[-111.26677,34.44463],[-111.26197,34.44282],[-111.25648,34.44678],[-111.25405,34.45226],[-111.24666,34.45081],[-111.2399,34.43144],[-111.2311,34.43175],[-111.22215,34.42565],[-111.2219,34.41666],[-111.21503,34.41783],[-111.20662,34.40986],[-111.19769,34.4087],[-111.19461,34.40566],[-111.1847,34.40999],[-111.17354,34.40598],[-111.17173,34.40253],[-111.16098,34.40382],[-111.15207,34.39426],[-111.14886,34.38484],[-111.15095,34.37936],[-111.14585,34.3756],[-111.14013,34.38492],[-111.13111,34.38662],[-111.12874,34.39037],[-111.11834,34.38304],[-111.11018,34.38519],[-111.11199,34.39012],[-111.10104,34.39017],[-111.0875,34.395],[-111.08647,34.39022],[-111.07621,34.38683],[-111.07626,34.3816],[-111.06103,34.37731],[-111.05408,34.37881],[-111.05014,34.37243],[-111.04425,34.37964],[-111.03973,34.37329],[-111.04947,34.35952],[-111.05777,34.35573],[-111.05001,34.34715],[-111.04266,34.34284],[-111.03318,34.34093],[-111.02825,34.34638],[-111.02588,34.35382],[-111.03219,34.36145],[-111.02606,34.3646],[-111.01134,34.35997],[-111.00568,34.3608],[-111.00462,34.35175],[-110.99905,34.35017],[-110.99731,34.34413],[-110.97586,34.33684],[-110.96926,34.32769],[-110.96908,34.3243],[-110.96038,34.31742],[-110.95276,34.31461],[-110.9461,34.31728],[-110.94082,34.31048],[-110.92715,34.3105],[-110.90762,34.30076],[-110.89692,34.30245],[-110.89522,34.29549],[-110.88643,34.29252],[-110.88872,34.28634],[-110.87741,34.27581],[-110.86061,34.2699],[-110.85615,34.27066],[-110.84806,34.2672],[-110.83575,34.26932],[-110.83184,34.27324],[-110.83482,34.28097],[-110.82031,34.28811],[-110.82457,34.29539],[-110.84448,34.30536],[-110.83846,34.30882],[-110.8339,34.30296],[-110.81103,34.29569],[-110.80836,34.30856],[-110.80281,34.29805],[-110.796,34.2991],[-110.79414,34.3051],[-110.78775,34.30865],[-110.78577,34.30304],[-110.7797,34.299],[-110.76461,34.29243],[-110.75789,34.27934],[-110.76734,34.26731],[-110.76696,34.259],[-110.75068,34.26331],[-110.75068,34.63665],[-110.75069,34.72075],[-110.75069,34.95694],[-110.75069,35.05347],[-110.75069,35.17017],[-110.75069,35.30769],[-110.75069,35.39488],[-110.75069,35.52365],[-110.75069,35.63981],[-110.75069,35.79483],[-110.75069,35.95895],[-110.7507,36.0864],[-110.7507,36.16594],[-110.7507,36.29843],[-110.7507,36.40995],[-110.7507,36.60536],[-110.75069,36.85255],[-110.75069,37.0032],[-111.0665,37.00239],[-111.13372,37.00078],[-111.25485,37.00108],[-111.27829,37.00047],[-111.40552,37.0015],[-111.50685,37.00143],[-111.63507,37.00137],[-111.86542,37.00126],[-112.35769,37.00103],[-112.36895,37.00113],[-112.53858,37.00067],[-112.54347,36.99609],[-112.54241,36.98686],[-112.53531,36.97187],[-112.53085,36.96689],[-112.53184,36.95545],[-112.5293,36.95244],[-112.54496,36.93876],[-112.54953,36.92578],[-112.54637,36.92311],[-112.54865,36.91243],[-112.55849,36.90547],[-112.56149,36.90022],[-112.57019,36.89555],[-112.57435,36.88652],[-112.57235,36.88326],[-112.5785,36.86469],[-112.58426,36.86072],[-112.58477,36.84745],[-112.59261,36.84083],[-112.59433,36.83329],[-112.60139,36.81676],[-112.5998,36.8082],[-112.61422,36.79153],[-112.6138,36.78751],[-112.61973,36.78274],[-112.61632,36.7747],[-112.62039,36.76381],[-112.61622,36.76309],[-112.61709,36.75071],[-112.61354,36.74883],[-112.61223,36.73685],[-112.62297,36.72427],[-112.62257,36.72042],[-112.62763,36.71435],[-112.62424,36.71201],[-112.63044,36.69655],[-112.62878,36.69185],[-112.63433,36.68717],[-112.63351,36.6785],[-112.63853,36.67412],[-112.63283,36.66184],[-112.62762,36.65509],[-112.63074,36.65177],[-112.62495,36.63514],[-112.62668,36.62894],[-112.62272,36.62675],[-112.62307,36.61481],[-112.62095,36.59594],[-112.6293,36.58954],[-112.62611,36.58185],[-112.63325,36.57007],[-112.65363,36.55792],[-112.65631,36.5534],[-112.65007,36.55106],[-112.65426,36.54346],[-112.66003,36.54315],[-112.65891,36.52904],[-112.6528,36.51789],[-112.65618,36.51509],[-112.65163,36.50911],[-112.64637,36.50991],[-112.64158,36.5011],[-112.64583,36.49687],[-112.63682,36.49476],[-112.63566,36.48408],[-112.62559,36.48613],[-112.62596,36.47978],[-112.62302,36.47474],[-112.63553,36.46374],[-112.64512,36.45731],[-112.64087,36.44881],[-112.6443,36.43428],[-112.63831,36.42648],[-112.63205,36.42751],[-112.62413,36.41003],[-112.63095,36.40272],[-112.62949,36.39161],[-112.63991,36.38881],[-112.64905,36.37978],[-112.65103,36.36609],[-112.65663,36.35723],[-112.66842,36.34661],[-112.68157,36.34166],[-112.68532,36.34383],[-112.68931,36.35385],[-112.69883,36.35533],[-112.72399,36.34599],[-112.7265,36.34204],[-112.72058,36.32278],[-112.72796,36.31793],[-112.73904,36.31994],[-112.74683,36.3246],[-112.75805,36.32232],[-112.76168,36.31005],[-112.77171,36.30311],[-112.78629,36.30199],[-112.78909,36.29093],[-112.79244,36.28504],[-112.80038,36.28433],[-112.81255,36.28856],[-112.8245,36.28834],[-112.83201,36.2855],[-112.83773,36.27885],[-112.84616,36.27701],[-112.86503,36.28238],[-112.87314,36.28059],[-112.87846,36.27626],[-112.88433,36.26382],[-112.89824,36.25476],[-112.90295,36.25376],[-112.91508,36.25814],[-112.92546,36.25633],[-112.93176,36.24454],[-112.94072,36.24134],[-112.98121,36.23177],[-112.98796,36.23237],[-113.00634,36.23875],[-113.01911,36.23671],[-113.03621,36.22823],[-113.04217,36.22319],[-113.05276,36.20937],[-113.07098,36.2039],[-113.08717,36.1954],[-113.09547,36.19357],[-113.11409,36.18322],[-113.12136,36.17378],[-113.13708,36.16642],[-113.14597,36.17299],[-113.15476,36.17454],[-113.16293,36.17174],[-113.16668,36.16694],[-113.18049,36.15884],[-113.19675,36.15295],[-113.20528,36.13313],[-113.20167,36.11904],[-113.21445,36.10912],[-113.22492,36.09114],[-113.23115,36.08952],[-113.24629,36.09334],[-113.25716,36.0885],[-113.27925,36.09734],[-113.30058,36.09573],[-113.31343,36.1],[-113.31997,36.09677],[-113.32366,36.09083],[-113.32617,36.07842],[-113.33077,36.06832],[-113.34744,36.05504],[-113.35418,36.04037],[-113.35171,36.03425],[-113.34836,36.01312],[-113.34014,36.00328],[-113.34141,35.99071],[-113.33459,35.97948],[-113.32295,35.97673],[-113.31726,35.96861],[-113.31712,35.96139],[-113.32569,35.95502],[-113.32864,35.95016],[-113.32551,35.93473],[-113.32878,35.92601],[-113.33414,35.91872],[-113.33485,35.91386],[-113.32388,35.90263],[-113.32289,35.8988],[-113.31118,35.89326],[-113.30933,35.88539],[-113.3127,35.87501],[-113.31039,35.86321],[-113.31503,35.85446],[-113.32689,35.8407],[-113.32683,35.8277],[-113.33311,35.82208],[-113.32951,35.81302],[-113.33392,35.80074],[-113.33419,35.55344],[-113.33416,35.52822]]]},"properties":{"STATEFP":"04","COUNTYFP":"005","COUNTYNS":"00025443","GEOIDFQ":"0500000US04005","GEOID":"04005","NAME":"Coconino","NAMELSAD":"Coconino County","STUSPS":"AZ","STATE_NAME":"Arizona","LSAD":"06","ALAND":48216129128,"AWATER":116640318}},
{"type":"Feature","geometry":{"type":"Polygon","coordinates":[[[-114.13828,34.30323],[-114.13953,34.29584],[-114.13605,34.28083],[-114.13704,34.27702],[-114.13121,34.26273],[-114.13545,34.25789],[-114.14478,34.25962],[-114.15335,34.25829],[-114.16463,34.259],[-114.16654,34.24965],[-114.1746,34.2473],[-114.17805,34.23997],[-114.19088,34.23086],[-114.21545,34.20896],[-114.22586,34.20177],[-114.22494,34.1939],[-114.22971,34.18693],[-114.24071,34.18323],[-114.25414,34.17383],[-114.26827,34.17021],[-114.27527,34.17215],[-114.28729,34.17053],[-114.29281,34.16673],[-114.31221,34.14478],[-114.32458,34.13676],[-114.33611,34.13403],[-114.34805,34.13446],[-114.35637,34.13043],[-114.3604,34.12358],[-114.36652,34.11858],[-114.37923,34.11599],[-114.39056,34.11008],[-114.40135,34.11165],[-114.41591,34.10764],[-114.43418,34.08738],[-114.43768,34.07194],[-114.43934,34.05789],[-114.43495,34.03778],[-114.43827,34.02261],[-114.44382,34.01618],[-114.45481,34.01097],[-114.46334,34.01226],[-114.46628,34.00388],[-114.45918,34.00002],[-114.46012,33.99389],[-114.46793,33.99288],[-114.47114,33.98804],[-114.48145,33.98126],[-114.48478,33.97552],[-114.49988,33.96179],[-114.50957,33.95726],[-114.51586,33.95811],[-114.522,33.95562],[-114.52868,33.94782],[-114.53548,33.93465],[-114.53457,33.92538],[-114.52536,33.92227],[-114.51151,33.91109],[-114.50871,33.90064],[-114.51634,33.89792],[-114.52587,33.90101],[-114.52363,33.89364],[-114.51014,33.88078],[-114.50434,33.87688],[-114.50302,33.868],[-114.51467,33.85864],[-114.52362,33.86005],[-114.53061,33.85544],[-114.5296,33.84806],[-114.51997,33.82538],[-114.52271,33.81898],[-114.52805,33.81496],[-114.52009,33.79947],[-114.51673,33.78835],[-114.50709,33.76793],[-114.50448,33.751],[-114.51235,33.73421],[-114.50418,33.72806],[-114.49656,33.71916],[-114.4942,33.70792],[-114.49649,33.6969],[-114.51241,33.69128],[-114.52396,33.68588],[-114.53035,33.67925],[-114.53212,33.6697],[-114.52644,33.66388],[-114.51711,33.66288],[-114.51834,33.65593],[-114.53058,33.65446],[-114.53321,33.64844],[-114.52539,33.64067],[-114.5238,33.6347],[-114.53031,33.62904],[-114.53121,33.62391],[-114.52207,33.61128],[-114.52919,33.60665],[-114.54062,33.59141],[-114.5403,33.58062],[-114.53596,33.56915],[-114.52683,33.55747],[-114.5246,33.55223],[-114.54201,33.54248],[-114.5589,33.53182],[-114.56096,33.51674],[-114.56953,33.50922],[-114.58047,33.50647],[-114.59155,33.49944],[-114.59971,33.48432],[-114.61247,33.47077],[-114.62292,33.45656],[-114.62228,33.44756],[-114.62964,33.42814],[-114.6433,33.41675],[-114.64954,33.41363],[-114.65838,33.41304],[-114.6739,33.4183],[-114.68795,33.41794],[-114.69565,33.41513],[-114.70173,33.40839],[-114.72006,33.40789],[-114.72528,33.40505],[-114.72287,33.39878],[-114.70841,33.38415],[-114.70735,33.37663],[-114.69905,33.36115],[-114.69803,33.35244],[-114.70094,33.33701],[-114.70524,33.32777],[-114.71079,33.32061],[-114.72362,33.31211],[-114.73122,33.30243],[-114.72326,33.28808],[-114.71787,33.28516],[-114.69445,33.27979],[-114.68436,33.27602],[-114.67703,33.27017],[-114.6724,33.26047],[-114.67449,33.2556],[-114.6882,33.24797],[-114.68942,33.24525],[-114.68273,33.23492],[-114.67448,33.2255],[-114.67371,33.21925],[-114.67875,33.20345],[-114.67519,33.18818],[-114.67583,33.18152],[-114.68025,33.16972],[-114.67873,33.16295],[-114.68707,33.1422],[-114.69683,33.13121],[-114.70368,33.11377],[-114.7079,33.09743],[-114.70649,33.08816],[-114.68902,33.08404],[-114.68699,33.07097],[-114.6743,33.05717],[-114.6751,33.04753],[-114.6708,33.03798],[-114.66232,33.03267],[-114.65783,33.03383],[-114.649,33.04676],[-114.63955,33.04529],[-114.62829,33.03105],[-114.61879,33.0272],[-114.60101,33.02541],[-114.58476,33.02823],[-114.57829,33.03538],[-114.57165,33.03662],[-114.55319,33.03397],[-114.53846,33.03342],[-114.52358,33.03096],[-114.51688,33.02783],[-114.37178,33.02803],[-114.37178,33.02996],[-114.2688,33.02996],[-114.2688,33.28914],[-114.26881,33.4644],[-114.07045,33.46444],[-113.95804,33.46441],[-113.95749,33.37758],[-113.75148,33.37731],[-113.64469,33.37733],[-113.33505,33.37747],[-113.33506,33.48555],[-113.33506,33.63863],[-113.33331,34.00004],[-113.33363,34.12225],[-113.33323,34.12502],[-113.33342,34.24911],[-113.33374,34.25002],[-113.33342,34.31791],[-113.34087,34.31903],[-113.34148,34.31233],[-113.35186,34.29948],[-113.35905,34.295],[-113.37051,34.29197],[-113.38654,34.29488],[-113.39496,34.29943],[-113.40145,34.29968],[-113.41246,34.29447],[-113.41964,34.29872],[-113.43314,34.30151],[-113.44211,34.29965],[-113.45232,34.3],[-113.4658,34.30391],[-113.47047,34.30193],[-113.47603,34.30544],[-113.48113,34.30317],[-113.48981,34.3052],[-113.49447,34.30289],[-113.51055,34.30444],[-113.51674,34.31036],[-113.53097,34.31015],[-113.53939,34.30645],[-113.54686,34.29737],[-113.55368,34.2857],[-113.5686,34.2747],[-113.57338,34.2675],[-113.5833,34.25786],[-113.58673,34.24339],[-113.59721,34.23719],[-113.59938,34.23334],[-113.61763,34.22742],[-113.62631,34.22917],[-113.63424,34.22402],[-113.64343,34.22362],[-113.65918,34.2173],[-113.66397,34.21206],[-113.67606,34.21262],[-113.67929,34.20987],[-113.68968,34.21075],[-113.70438,34.20994],[-113.70736,34.21522],[-113.71418,34.21768],[-113.71494,34.22146],[-113.72292,34.22325],[-113.73074,34.24025],[-113.74385,34.24012],[-113.75784,34.23669],[-113.77417,34.22905],[-113.78117,34.22922],[-113.79461,34.23674],[-113.81319,34.23257],[-113.82522,34.22544],[-113.83808,34.22387],[-113.8443,34.23656],[-113.84966,34.24254],[-113.85171,34.25126],[-113.87105,34.25504],[-113.89571,34.24882],[-113.90547,34.24835],[-113.93125,34.25002],[-113.93957,34.25486],[-113.94956,34.25708],[-113.96335,34.25814],[-113.97881,34.25742],[-113.99012,34.25447],[-114.00579,34.25374],[-114.01238,34.25696],[-114.01904,34.26612],[-114.0253,34.26799],[-114.03139,34.25969],[-114.04688,34.26997],[-114.04737,34.27356],[-114.05667,34.27879],[-114.06925,34.29048],[-114.07972,34.29211],[-114.08744,34.29856],[-114.09824,34.30064],[-114.10591,34.29664],[-114.11443,34.2954],[-114.12839,34.3041],[-114.13828,34.30323]]]},"properties":{"STATEFP":"04","COUNTYFP":"012","COUNTYNS":"00043540","GEOIDFQ":"0500000US04012","GEOID":"04012","NAME":"La Paz","NAMELSAD":"La Paz County","STUSPS":"AZ","STATE_NAME":"Arizona","LSAD":"06","ALAND":11646086556,"AWATER":36514346}},
{"type":"Feature","geometry":{"type":"Polygon","coordinates":[[[-110.451,32.42755],[-110.45096,32.25375],[-110.44767,32.25376],[-110.44837,32.13761],[-110.44992,32.07972],[-110.45154,32.07968],[-110.45149,31.98737],[-110.45082,31.90512],[-110.45111,31.81809],[-110.45229,31.81811],[-110.4523,31.73122],[-110.45225,31.61394],[-110.46075,31.61388],[-110.46092,31.46985],[-110.45992,31.46985],[-110.45975,31.33283],[-110.2742,31.33349],[-110.14051,31.33397],[-110.00061,31.33315],[-109.82969,31.33407],[-109.64717,31.33403],[-109.48704,31.334],[-109.27849,31.33396],[-109.05004,31.3325],[-109.05017,31.48],[-109.04981,31.49953],[-109.04911,31.6366],[-109.04919,31.79655],[-109.04876,31.81078],[-109.04911,31.84372],[-109.04859,31.87079],[-109.0486,32.01365],[-109.04829,32.08911],[-109.04761,32.42638],[-109.11418,32.42635],[-109.22774,32.42635],[-109.22775,32.42475],[-109.33012,32.42581],[-109.43207,32.42757],[-109.66316,32.42668],[-109.74204,32.42709],[-109.84017,32.42711],[-110.12867,32.42676],[-110.34897,32.42639],[-110.34899,32.42765],[-110.451,32.42755]]]},"properties":{"STATEFP":"04","COUNTYFP":"003","COUNTYNS":"00025442","GEOIDFQ":"0500000US04003","GEOID":"04003","NAME":"Cochise","NAMELSAD":"Cochise County","STUSPS":"AZ","STATE_NAME":"Arizona","LSAD":"06","ALAND":16083471946,"AWATER":17648749}},
{"type":"Feature","geometry":{"type":"Polygon","coordinates":[[[-113.33389,32.50519],[-113.33386,32.41865],[-113.33381,32.03878],[-113.21731,32.00211],[-113.12596,31.97278],[-112.86707,31.89549],[-112.60776,31.81579],[-112.39942,31.75176],[-112.2461,31.7042],[-111.97942,31.62068],[-111.77019,31.55453],[-111.56019,31.48814],[-111.36637,31.42607],[-111.36616,31.47043],[-111.36692,31.52136],[-111.18369,31.52082],[-111.16372,31.52172],[-111.16285,31.54385],[-111.16428,31.55041],[-111.1644,31.63817],[-111.16418,31.72589],[-111.08341,31.72597],[-110.95749,31.72673],[-110.85577,31.72671],[-110.85576,31.7317],[-110.65964,31.73143],[-110.4523,31.73122],[-110.45229,31.81811],[-110.45111,31.81809],[-110.45082,31.90512],[-110.45149,31.98737],[-110.45154,32.07968],[-110.44992,32.07972],[-110.44837,32.13761],[-110.44767,32.25376],[-110.45096,32.25375],[-110.451,32.42755],[-110.45152,32.514],[-110.65294,32.5138],[-110.8451,32.51387],[-110.84508,32.51112],[-110.89918,32.51172],[-110.92837,32.51124],[-111.04722,32.51135],[-111.15749,32.51126],[-111.15757,32.50162],[-111.23269,32.50165],[-111.36977,32.50135],[-111.56925,32.50139],[-111.56926,32.50677],[-111.79254,32.50664],[-111.95513,32.50666],[-112.20362,32.50672],[-112.52071,32.50676],[-112.57475,32.50606],[-112.72544,32.50537],[-112.91585,32.50536],[-113.02806,32.50507],[-113.33389,32.50519]]]},"properties":{"STATEFP":"04","COUNTYFP":"019","COUNTYNS":"00025446","GEOIDFQ":"0500000US04019","GEOID":"04019","NAME":"Pima","NAMELSAD":"Pima County","STUSPS":"AZ","STATE_NAME":"Arizona","LSAD":"06","ALAND":23798578890,"AWATER":5112015}},
{"type":"Feature","geometry":{"type":"Polygon","coordinates":[[[-110.00065,33.57693],[-109.99509,33.58257],[-109.98386,33.57905],[-109.98108,33.57627],[-109.96852,33.5764],[-109.96364,33.57974],[-109.95766,33.57213],[-109.9501,33.57323],[-109.94275,33.56878],[-109.93796,33.57053],[-109.92255,33.568],[-109.91603,33.57487],[-109.9004,33.5754],[-109.89754,33.56924],[-109.89168,33.56787],[-109.89177,33.77778],[-109.85927,33.77768],[-109.85928,33.87255],[-109.85929,33.98036],[-109.85916,34.12577],[-109.84941,34.12592],[-109.84898,34.22762],[-109.84829,34.32474],[-109.84843,34.38826],[-109.84823,34.47339],[-109.8468,34.47346],[-109.85345,34.50245],[-109.86523,34.55969],[-109.8505,34.64744],[-109.85064,34.69645],[-109.85193,34.82249],[-109.84462,34.82256],[-109.84489,34.90953],[-109.84338,34.95231],[-109.84504,35.00004],[-109.84294,35.17024],[-109.84374,35.1704],[-109.84392,35.23865],[-109.84379,35.37477],[-109.84439,35.37501],[-109.84381,35.4707],[-109.84376,35.51773],[-109.82696,35.51782],[-109.82672,35.60545],[-109.82696,35.66263],[-110.00067,35.66266],[-110.00067,35.76296],[-110.00067,35.88051],[-110.00067,36.07386],[-110.00067,36.25682],[-110.00067,36.36128],[-110.00067,36.50648],[-110.00067,36.65645],[-110.00067,36.77884],[-110.00068,36.89051],[-110.00068,36.99798],[-110.02178,36.9986],[-110.13436,36.99845],[-110.27598,36.99826],[-110.47019,36.998],[-110.49091,37.00357],[-110.50069,37.00426],[-110.59951,37.00345],[-110.62569,37.00372],[-110.75069,37.0032],[-110.75069,36.85255],[-110.7507,36.60536],[-110.7507,36.40995],[-110.7507,36.29843],[-110.7507,36.16594],[-110.7507,36.0864],[-110.75069,35.95895],[-110.75069,35.79483],[-110.75069,35.63981],[-110.75069,35.52365],[-110.75069,35.39488],[-110.75069,35.30769],[-110.75069,35.17017],[-110.75069,35.05347],[-110.75069,34.95694],[-110.75069,34.72075],[-110.75068,34.63665],[-110.75068,34.26331],[-110.75067,34.00005],[-110.53662,34.00005],[-110.39152,34.00005],[-110.25249,34.00005],[-110.07096,34.00005],[-110.00066,34.00005],[-110.00066,33.8796],[-110.00065,33.727],[-110.00065,33.57693]]]},"properties":{"STATEFP":"04","COUNTYFP":"017","COUNTYNS":"00042808","GEOIDFQ":"0500000US04017","GEOID":"04017","NAME":"Navajo","NAMELSAD":"Navajo County","STUSPS":"AZ","STATE_NAME":"Arizona","LSAD":"06","ALAND":25769074415,"AWATER":24121089}},
{"type":"Feature","geometry":{"type":"Polygon","coordinates":[[[-109.49544,33.6527],[-109.49555,33.64],[-109.4957,33.18048],[-109.49574,33.07841],[-109.42543,32.97684],[-109.33342,32.84327],[-109.31815,32.84278],[-109.25237,32.75024],[-109.24817,32.75022],[-109.24515,32.74206],[-109.21383,32.68066],[-109.21296,32.65363],[-109.20625,32.6358],[-109.21948,32.60169],[-109.21126,32.58429],[-109.22595,32.54303],[-109.22607,32.5291],[-109.17615,32.48423],[-109.16509,32.47264],[-109.11418,32.42635],[-109.04761,32.42638],[-109.04765,32.64705],[-109.04764,32.69344],[-109.04712,32.77757],[-109.04737,32.97644],[-109.04748,33.06842],[-109.04701,33.09292],[-109.04724,33.20897],[-109.04747,33.25006],[-109.04683,33.36527],[-109.0473,33.40978],[-109.04666,33.62506],[-109.04714,33.74001],[-109.04695,33.77741],[-109.22099,33.7778],[-109.34858,33.77812],[-109.35454,33.77065],[-109.3544,33.76577],[-109.36276,33.75214],[-109.36204,33.74564],[-109.36446,33.73845],[-109.35753,33.73474],[-109.35257,33.72803],[-109.36156,33.72789],[-109.36887,33.7224],[-109.37847,33.72464],[-109.39347,33.71676],[-109.39729,33.71295],[-109.41157,33.71385],[-109.41247,33.70844],[-109.42107,33.71177],[-109.42974,33.71115],[-109.44178,33.71305],[-109.46174,33.69641],[-109.46211,33.69267],[-109.47461,33.69548],[-109.47519,33.69037],[-109.48106,33.6902],[-109.48401,33.67273],[-109.47981,33.66365],[-109.48633,33.65648],[-109.49544,33.6527]]]},"properties":{"STATEFP":"04","COUNTYFP":"011","COUNTYNS":"00042807","GEOIDFQ":"0500000US04011","GEOID":"04011","NAME":"Greenlee","NAMELSAD":"Greenlee County","STUSPS":"AZ","STATE_NAME":"Arizona","LSAD":"06","ALAND":4772927116,"AWATER":11947401}},
{"type":"Feature","geometry":{"type":"Polygon","coordinates":[[[-110.4523,31.73122],[-110.65964,31.73143],[-110.85576,31.7317],[-110.85577,31.72671],[-110.95749,31.72673],[-111.08341,31.72597],[-111.16418,31.72589],[-111.1644,31.63817],[-111.16428,31.55041],[-111.16285,31.54385],[-111.16372,31.52172],[-111.18369,31.52082],[-111.36692,31.52136],[-111.36616,31.47043],[-111.36637,31.42607],[-111.12565,31.34898],[-111.07482,31.33224],[-111.00064,31.33218],[-110.79547,31.33363],[-110.62221,31.33322],[-110.45975,31.33283],[-110.45992,31.46985],[-110.46092,31.46985],[-110.46075,31.61388],[-110.45225,31.61394],[-110.4523,31.73122]]]},"properties":{"STATEFP":"04","COUNTYFP":"023","COUNTYNS":"00040472","GEOIDFQ":"0500000US04023","GEOID":"04023","NAME":"Santa Cruz","NAMELSAD":"Santa Cruz County","STUSPS":"AZ","STATE_NAME":"Arizona","LSAD":"06","ALAND":3201899628,"AWATER":3068237}}
]}