{"type":"FeatureCollection", "features": [
{"type":"Feature","geometry":{"type":"Polygon","coordinates":[[[-75.7226,38.82986],[-75.71288,38.70564],[-75.70018,38.54272],[-75.69878,38.522],[-75.69367,38.46008],[-75.66284,38.45876],[-75.63046,38.4579],[-75.55993,38.45558],[-75.50014,38.45414],[-75.42873,38.45267],[-75.38421,38.45212],[-75.25272,38.4514],[-75.18555,38.45121],[-75.04894,38.45126],[-75.04975,38.48639],[-75.06003,38.60771],[-75.06192,38.60887],[-75.06522,38.63239],[-75.06551,38.66103],[-75.07922,38.73824],[-75.08215,38.77216],[-75.08947,38.7972],[-75.09201,38.8039],[-75.09914,38.80353],[-75.09329,38.79762],[-75.0971,38.7887],[-75.11333,38.783],[-75.13402,38.78224],[-75.15902,38.79019],[-75.19055,38.80686],[-75.20533,38.82339],[-75.23203,38.84425],[-75.26311,38.87735],[-75.27336,38.88387],[-75.28027,38.89235],[-75.30408,38.91316],[-75.31228,38.92459],[-75.3171,38.93344],[-75.31591,38.93973],[-75.31192,38.94592],[-75.31353,38.95043],[-75.32127,38.95346],[-75.32463,38.94971],[-75.33244,38.95071],[-75.335,38.94732],[-75.34352,38.94744],[-75.34597,38.95344],[-75.35277,38.94793],[-75.36102,38.95753],[-75.38065,38.96187],[-75.38252,38.95591],[-75.39361,38.95285],[-75.40072,38.94772],[-75.39853,38.94074],[-75.40287,38.93747],[-75.39861,38.93352],[-75.39911,38.92691],[-75.40892,38.9197],[-75.41668,38.91803],[-75.41832,38.91426],[-75.4301,38.91335],[-75.43405,38.91082],[-75.44039,38.91313],[-75.46058,38.90938],[-75.46515,38.91131],[-75.47722,38.90584],[-75.48583,38.90355],[-75.48816,38.89898],[-75.48803,38.89278],[-75.49438,38.88788],[-75.49778,38.88213],[-75.50334,38.88162],[-75.50917,38.87577],[-75.52044,38.85574],[-75.53623,38.84989],[-75.53958,38.84363],[-75.54873,38.84108],[-75.55501,38.83565],[-75.7226,38.82986]]]},"properties":{"STATEFP":"10","COUNTYFP":"005","COUNTYNS":"00217269","GEOIDFQ":"0500000US10005","GEOID":"10005","NAME":"Sussex","NAMELSAD":"Sussex County","STUSPS":"DE","STATE_NAME":"Delaware","LSAD":"06","ALAND":2424590442,"AWATER":674129051}},
{"type":"Feature","geometry":{"type":"MultiPolygon","coordinates":[[[[-75.5708,39.62677],[-75.57105,39.62132],[-75.56764,39.6138],[-75.562,39.60575],[-75.55617,39.60639],[-75.5587,39.61793],[-75.55945,39.62981],[-75.5708,39.62677]]],[[[-75.57971,39.59789],[-75.57543,39.58812],[-75.56769,39.58573],[-75.56582,39.59061],[-75.57822,39.59847],[-75.57971,39.59789]]],[[[-75.51237,39.36566],[-75.5158,39.37835],[-75.52126,39.38165],[-75.52358,39.39158],[-75.53598,39.40938],[-75.53851,39.4165],[-75.55589,39.43035],[-75.57183,39.4389],[-75.57308,39.44537],[-75.58018,39.45079],[-75.58944,39.46081],[-75.59233,39.46758],[-75.59307,39.47919],[-75.58781,39.49033],[-75.58773,39.49635],[-75.57644,39.5092],[-75.57236,39.5171],[-75.57036,39.52722],[-75.56936,39.54059],[-75.56564,39.55851],[-75.56303,39.56224],[-75.58661,39.57888],[-75.59875,39.58912],[-75.60358,39.58896],[-75.61187,39.59741],[-75.61379,39.60619],[-75.61134,39.61018],[-75.61493,39.61595],[-75.61197,39.62197],[-75.58715,39.65101],[-75.56904,39.65649],[-75.56225,39.65671],[-75.50911,39.72009],[-75.49024,39.75479],[-75.4685,39.78647],[-75.42342,39.80662],[-75.42804,39.80921],[-75.45374,39.82031],[-75.48124,39.82911],[-75.49884,39.83331],[-75.51844,39.83631],[-75.53935,39.83821],[-75.57046,39.83901],[-75.59367,39.83746],[-75.61725,39.834],[-75.64152,39.82836],[-75.66282,39.82115],[-75.68599,39.81105],[-75.70121,39.80261],[-75.71697,39.792],[-75.72705,39.78413],[-75.74439,39.76785],[-75.75307,39.75763],[-75.76606,39.73781],[-75.77379,39.7222],[-75.7886,39.7222],[-75.78839,39.70003],[-75.78866,39.65821],[-75.78745,39.63746],[-75.78079,39.55026],[-75.77225,39.44564],[-75.7601,39.29682],[-75.7149,39.29937],[-75.68519,39.29709],[-75.6752,39.2905],[-75.65446,39.29118],[-75.64096,39.30132],[-75.63266,39.30125],[-75.62613,39.30413],[-75.61963,39.31006],[-75.6066,39.30809],[-75.59206,39.31125],[-75.58434,39.30872],[-75.57462,39.31343],[-75.56872,39.32352],[-75.56901,39.32874],[-75.55884,39.33333],[-75.55572,39.33707],[-75.56052,39.34507],[-75.55738,39.3491],[-75.54522,39.35076],[-75.54159,39.35437],[-75.53585,39.35062],[-75.52845,39.35831],[-75.52142,39.35861],[-75.51237,39.36566]]]]},"properties":{"STATEFP":"10","COUNTYFP":"003","COUNTYNS":"00217270","GEOIDFQ":"0500000US10003","GEOID":"10003","NAME":"New Castle","NAMELSAD":"New Castle County","STUSPS":"DE","STATE_NAME":"Delaware","LSAD":"06","ALAND":1104210701,"AWATER":175313040}},
{"type":"Feature","geometry":{"type":"Polygon","coordinates":[[[-75.31192,38.94592],[-75.31255,38.95107],[-75.31161,38.96764],[-75.31495,38.98078],[-75.31835,38.98819],[-75.34089,39.01996],[-75.34576,39.02486],[-75.36012,39.03284],[-75.37156,39.04296],[-75.37987,39.04879],[-75.38791,39.05117],[-75.39628,39.05788],[-75.40203,39.06689],[-75.40314,39.07861],[-75.39981,39.09909],[-75.40813,39.12251],[-75.40753,39.1341],[-75.41241,39.14758],[-75.41336,39.1533],[-75.41062,39.15625],[-75.41027,39.16915],[-75.40827,39.17463],[-75.40014,39.18646],[-75.39777,39.19398],[-75.39708,39.20453],[-75.39926,39.20896],[-75.39926,39.21582],[-75.40594,39.22215],[-75.40703,39.22574],[-75.40504,39.24032],[-75.40874,39.24304],[-75.40936,39.2511],[-75.40618,39.25811],[-75.409,39.26413],[-75.41609,39.26951],[-75.41776,39.27322],[-75.43477,39.29059],[-75.43759,39.29839],[-75.43694,39.30938],[-75.43903,39.31338],[-75.44806,39.31549],[-75.45281,39.31843],[-75.45537,39.32473],[-75.46042,39.32824],[-75.46932,39.33082],[-75.47996,39.33658],[-75.47943,39.33902],[-75.49038,39.34282],[-75.49412,39.34658],[-75.4918,39.35184],[-75.49416,39.35461],[-75.50528,39.35917],[-75.51237,39.36566],[-75.52142,39.35861],[-75.52845,39.35831],[-75.53585,39.35062],[-75.54159,39.35437],[-75.54522,39.35076],[-75.55738,39.3491],[-75.56052,39.34507],[-75.55572,39.33707],[-75.55884,39.33333],[-75.56901,39.32874],[-75.56872,39.32352],[-75.57462,39.31343],[-75.58434,39.30872],[-75.59206,39.31125],[-75.6066,39.30809],[-75.61963,39.31006],[-75.62613,39.30413],[-75.63266,39.30125],[-75.64096,39.30132],[-75.65446,39.29118],[-75.6752,39.2905],[-75.68519,39.29709],[-75.7149,39.29937],[-75.7601,39.29682],[-75.75595,39.24596],[-75.75103,39.17776],[-75.74936,39.16481],[-75.74579,39.11494],[-75.74381,39.09467],[-75.73286,38.95737],[-75.7226,38.82986],[-75.55501,38.83565],[-75.54873,38.84108],[-75.53958,38.84363],[-75.53623,38.84989],[-75.52044,38.85574],[-75.50917,38.87577],[-75.50334,38.88162],[-75.49778,38.88213],[-75.49438,38.88788],[-75.48803,38.89278],[-75.48816,38.89898],[-75.48583,38.90355],[-75.47722,38.90584],[-75.46515,38.91131],[-75.46058,38.90938],[-75.44039,38.91313],[-75.43405,38.91082],[-75.4301,38.91335],[-75.41832,38.91426],[-75.41668,38.91803],[-75.40892,38.9197],[-75.39911,38.92691],[-75.39861,38.93352],[-75.40287,38.93747],[-75.39853,38.94074],[-75.40072,38.94772],[-75.39361,38.95285],[-75.38252,38.95591],[-75.38065,38.96187],[-75.36102,38.95753],[-75.35277,38.94793],[-75.34597,38.95344],[-75.34352,38.94744],[-75.335,38.94732],[-75.33244,38.95071],[-75.32463,38.94971],[-75.32127,38.95346],[-75.31353,38.95043],[-75.31192,38.94592]]]},"properties":{"STATEFP":"10","COUNTYFP":"001","COUNTYNS":"00217271","GEOIDFQ":"0500000US10001","GEOID":"10001","NAME":"Kent","NAMELSAD":"Kent County","STUSPS":"DE","STATE_NAME":"Delaware","LSAD":"06","ALAND":1517891096,"AWATER":549776917}}
]}