{"type":"FeatureCollection", "features": [
{"type":"Feature","geometry":{"type":"Polygon","coordinates":[[[-77.11976,38.93434],[-77.1179,38.93241],[-77.1166,38.92891],[-77.1134,38.92521],[-77.1063,38.91911],[-77.1034,38.91291],[-77.1012,38.91111],[-77.0937,38.90591],[-77.0902,38.90421],[-77.0822,38.90191],[-77.0701,38.90071],[-77.0682,38.89981],[-77.0673,38.89921],[-77.0635,38.88861],[-77.05825,38.88007],[-77.0552,38.88001],[-77.0541,38.87911],[-77.0511,38.87521],[-77.0513,38.87321],[-77.0491,38.87071],[-77.0463,38.87131],[-77.0456,38.87301],[-77.0466,38.87491],[-77.0454,38.87521],[-77.0433,38.87401],[-77.0406,38.87121],[-77.0391,38.86811],[-77.0389,38.86581],[-77.0393,38.86431],[-77.034,38.85714],[-77.0317,38.85051],[-77.03454,38.84047],[-77.03855,38.83926],[-77.0417,38.84021],[-77.0442,38.84021],[-77.045,38.83851],[-77.0449,38.83471],[-77.0435,38.83321],[-77.0426,38.83381],[-77.0412,38.83371],[-77.0392,38.83221],[-77.0381,38.82861],[-77.0391,38.82141],[-77.0381,38.81561],[-77.03736,38.81419],[-77.0389,38.80081],[-77.03901,38.79165],[-77.0014,38.82151],[-77,38.82191],[-76.9927,38.82821],[-76.9795,38.83781],[-76.9537,38.85851],[-76.9497,38.86131],[-76.9202,38.88441],[-76.90939,38.89281],[-76.9351,38.91331],[-76.95605,38.92951],[-76.97843,38.94681],[-77.0025,38.96541],[-77.0083,38.97011],[-77.0138,38.97441],[-77.0156,38.97591],[-77.0363,38.99171],[-77.041,38.99511],[-77.0543,38.98511],[-77.0915,38.95651],[-77.1007,38.94891],[-77.1045,38.94641],[-77.11976,38.93434]]]},"properties":{"STATEFP":"11","COUNTYFP":"001","COUNTYNS":"01702382","GEOIDFQ":"0500000US11001","GEOID":"11001","NAME":"District of Columbia","NAMELSAD":"District of Columbia","STUSPS":"DC","STATE_NAME":"District of Columbia","LSAD":"00","ALAND":158316181,"AWATER":18709785}}
]}