{"type":"FeatureCollection", "features": [
{"type":"Feature","geometry":{"type":"Polygon","coordinates":[[[-94.47078,40.8995],[-94.47162,40.86652],[-94.47168,40.8062],[-94.47127,40.67918],[-94.47141,40.63955],[-94.47121,40.57083],[-94.33671,40.57145],[-94.28735,40.57152],[-94.08022,40.5729],[-94.01549,40.57391],[-94.0152,40.62502],[-94.01542,40.72465],[-94.0153,40.81058],[-94.0148,40.89703],[-94.10007,40.89731],[-94.24239,40.89793],[-94.30001,40.89876],[-94.3573,40.89919],[-94.43789,40.89927],[-94.47078,40.8995]]]},"properties":{"STATEFP":"19","COUNTYFP":"159","COUNTYNS":"00465268","GEOIDFQ":"0500000US19159","GEOID":"19159","NAME":"Ringgold","NAMELSAD":"Ringgold County","STUSPS":"IA","STATE_NAME":"Iowa","LSAD":"06","ALAND":1386922818,"AWATER":8732661}},
{"type":"Feature","geometry":{"type":"Polygon","coordinates":[[[-90.89837,41.77139],[-90.89909,41.68418],[-90.89985,41.59713],[-90.88922,41.59689],[-90.78381,41.59653],[-90.78472,41.53102],[-90.78628,41.45289],[-90.77758,41.45126],[-90.75014,41.44963],[-90.73754,41.45013],[-90.70116,41.45474],[-90.69095,41.45664],[-90.67644,41.46083],[-90.66624,41.46063],[-90.65584,41.46213],[-90.65024,41.46503],[-90.63254,41.47873],[-90.61854,41.48503],[-90.60594,41.49423],[-90.60214,41.50603],[-90.59524,41.51103],[-90.58204,41.51513],[-90.56724,41.51753],[-90.55623,41.52423],[-90.54093,41.52613],[-90.53303,41.52493],[-90.51313,41.51953],[-90.50063,41.51803],[-90.47433,41.51973],[-90.46143,41.52353],[-90.44523,41.53613],[-90.43273,41.54953],[-90.42223,41.55423],[-90.41283,41.56533],[-90.39793,41.57223],[-90.38133,41.57663],[-90.36413,41.57963],[-90.34323,41.58783],[-90.33953,41.59863],[-90.34333,41.64086],[-90.34345,41.64696],[-90.33673,41.66453],[-90.33452,41.67956],[-90.33022,41.68395],[-90.31992,41.68972],[-90.31469,41.69483],[-90.31277,41.70243],[-90.31332,41.70949],[-90.31742,41.71833],[-90.31636,41.72888],[-90.32365,41.73348],[-90.3289,41.73442],[-90.33387,41.7394],[-90.34257,41.73936],[-90.34489,41.73346],[-90.35237,41.7319],[-90.35707,41.72799],[-90.365,41.72794],[-90.37451,41.73427],[-90.38964,41.73695],[-90.38959,41.73057],[-90.39905,41.73165],[-90.40903,41.72962],[-90.41211,41.74096],[-90.4231,41.74057],[-90.42707,41.74569],[-90.42603,41.75266],[-90.44017,41.75858],[-90.44658,41.76384],[-90.4517,41.76408],[-90.45929,41.75803],[-90.46518,41.75904],[-90.46833,41.76279],[-90.46726,41.76887],[-90.47053,41.7731],[-90.47905,41.77179],[-90.48614,41.76637],[-90.49579,41.76589],[-90.50665,41.76948],[-90.51111,41.76605],[-90.51523,41.7693],[-90.53814,41.77579],[-90.54282,41.76592],[-90.54871,41.76924],[-90.55326,41.76462],[-90.55964,41.76363],[-90.56476,41.76583],[-90.57913,41.75913],[-90.58903,41.76441],[-90.59242,41.77064],[-90.60295,41.76251],[-90.61126,41.76397],[-90.61284,41.7582],[-90.61761,41.75729],[-90.62033,41.76154],[-90.63068,41.76535],[-90.63636,41.76097],[-90.64238,41.76154],[-90.64513,41.75754],[-90.65188,41.75548],[-90.65612,41.75784],[-90.65744,41.76408],[-90.66116,41.76539],[-90.67521,41.76192],[-90.68175,41.75455],[-90.69434,41.74893],[-90.69164,41.74313],[-90.69754,41.74303],[-90.70214,41.73773],[-90.70704,41.74025],[-90.71996,41.73684],[-90.72619,41.74231],[-90.73159,41.73741],[-90.73615,41.74057],[-90.74364,41.74153],[-90.74933,41.74444],[-90.75297,41.75298],[-90.76188,41.76282],[-90.77709,41.76728],[-90.78369,41.76822],[-90.78621,41.77137],[-90.83254,41.77155],[-90.89837,41.77139]]]},"properties":{"STATEFP":"19","COUNTYFP":"163","COUNTYNS":"00465270","GEOIDFQ":"0500000US19163","GEOID":"19163","NAME":"Scott","NAMELSAD":"Scott County","STUSPS":"IA","STATE_NAME":"Iowa","LSAD":"06","ALAND":1186475531,"AWATER":26184354}},
{"type":"Feature","geometry":{"type":"Polygon","coordinates":[[[-94.0148,40.89703],[-94.01489,40.99799],[-94.01465,40.99999],[-94.01419,41.15676],[-94.14707,41.1568],[-94.166,41.15705],[-94.24164,41.15713],[-94.35706,41.15745],[-94.4706,41.15757],[-94.47053,41.0714],[-94.47104,41.0446],[-94.47051,40.98558],[-94.47053,40.91034],[-94.47078,40.8995],[-94.43789,40.89927],[-94.3573,40.89919],[-94.30001,40.89876],[-94.24239,40.89793],[-94.10007,40.89731],[-94.0148,40.89703]]]},"properties":{"STATEFP":"19","COUNTYFP":"175","COUNTYNS":"00465276","GEOIDFQ":"0500000US19175","GEOID":"19175","NAME":"Union","NAMELSAD":"Union County","STUSPS":"IA","STATE_NAME":"Iowa","LSAD":"06","ALAND":1097235795,"AWATER":5575854}},
{"type":"Feature","geometry":{"type":"Polygon","coordinates":[[[-91.71879,40.81354],[-91.71847,40.726],[-91.71804,40.61405],[-91.71677,40.59853],[-91.71202,40.59505],[-91.69636,40.58815],[-91.68882,40.58341],[-91.68572,40.57679],[-91.69156,40.56487],[-91.6908,40.55989],[-91.68171,40.55304],[-91.67099,40.55094],[-91.65434,40.54919],[-91.62516,40.5435],[-91.619,40.53908],[-91.61879,40.52629],[-91.6222,40.51704],[-91.62135,40.51007],[-91.61695,40.50479],[-91.60835,40.50004],[-91.59464,40.495],[-91.58688,40.48723],[-91.58035,40.47102],[-91.57475,40.46566],[-91.56384,40.46099],[-91.54378,40.45815],[-91.5286,40.459],[-91.52386,40.45633],[-91.52405,40.44844],[-91.53355,40.4408],[-91.52913,40.43427],[-91.51993,40.43367],[-91.51901,40.4313],[-91.52655,40.41987],[-91.52461,40.41077],[-91.50906,40.40678],[-91.50527,40.40351],[-91.49809,40.40193],[-91.48783,40.40387],[-91.49098,40.39348],[-91.48451,40.3839],[-91.48025,40.38178],[-91.46301,40.38404],[-91.46589,40.37837],[-91.46389,40.37566],[-91.45163,40.37602],[-91.44537,40.37939],[-91.44124,40.38626],[-91.42566,40.38249],[-91.41942,40.37826],[-91.41301,40.38228],[-91.397,40.38313],[-91.38836,40.38493],[-91.37575,40.39188],[-91.37255,40.4012],[-91.37372,40.41789],[-91.38096,40.4354],[-91.38177,40.44256],[-91.37814,40.45639],[-91.36807,40.47464],[-91.36491,40.48417],[-91.36421,40.50004],[-91.36906,40.51253],[-91.38186,40.52825],[-91.38807,40.53307],[-91.40072,40.53679],[-91.4062,40.5427],[-91.40524,40.55464],[-91.40148,40.55946],[-91.37975,40.57445],[-91.35987,40.60181],[-91.34873,40.6097],[-91.30652,40.62623],[-91.27617,40.63224],[-91.26495,40.63389],[-91.25825,40.63667],[-91.24785,40.63839],[-91.21844,40.63844],[-91.19791,40.63611],[-91.18698,40.6373],[-91.15429,40.6536],[-91.13805,40.66089],[-91.12393,40.66915],[-91.11963,40.67589],[-91.11541,40.69183],[-91.11243,40.69628],[-91.12169,40.7],[-91.13054,40.69815],[-91.13882,40.70071],[-91.14649,40.70647],[-91.15064,40.7062],[-91.16114,40.71705],[-91.17397,40.72179],[-91.17702,40.72038],[-91.18255,40.7081],[-91.19441,40.71805],[-91.20697,40.72056],[-91.21712,40.73229],[-91.22709,40.73435],[-91.23345,40.73754],[-91.24442,40.7484],[-91.26392,40.7542],[-91.27716,40.75288],[-91.28304,40.75449],[-91.28675,40.76657],[-91.29339,40.77258],[-91.30958,40.77173],[-91.31368,40.77327],[-91.31885,40.77992],[-91.3259,40.78078],[-91.33476,40.78466],[-91.34683,40.78647],[-91.35268,40.79373],[-91.36387,40.79066],[-91.374,40.79798],[-91.38404,40.8014],[-91.39353,40.80862],[-91.40637,40.80871],[-91.40945,40.81291],[-91.49648,40.81328],[-91.60294,40.81389],[-91.71879,40.81354]]]},"properties":{"STATEFP":"19","COUNTYFP":"111","COUNTYNS":"00465244","GEOIDFQ":"0500000US19111","GEOID":"19111","NAME":"Lee","NAMELSAD":"Lee County","STUSPS":"IA","STATE_NAME":"Iowa","LSAD":"06","ALAND":1340448555,"AWATER":55266763}},
{"type":"Feature","geometry":{"type":"Polygon","coordinates":[[[-94.91457,43.50087],[-94.91482,43.49938],[-94.91416,43.39971],[-94.91372,43.25505],[-94.81623,43.25546],[-94.60856,43.25514],[-94.56029,43.25523],[-94.44314,43.25501],[-94.44235,43.3997],[-94.44285,43.50038],[-94.56652,43.50035],[-94.61335,43.50074],[-94.8079,43.50099],[-94.91457,43.50087]]]},"properties":{"STATEFP":"19","COUNTYFP":"063","COUNTYNS":"00465220","GEOIDFQ":"0500000US19063","GEOID":"19063","NAME":"Emmet","NAMELSAD":"Emmet County","STUSPS":"IA","STATE_NAME":"Iowa","LSAD":"06","ALAND":1025349324,"AWATER":17175565}},
{"type":"Feature","geometry":{"type":"Polygon","coordinates":[[[-93.97076,43.49988],[-93.97054,43.44415],[-93.97069,43.34225],[-93.97026,43.29862],[-93.97041,43.25536],[-93.85217,43.25533],[-93.74542,43.25535],[-93.62262,43.25563],[-93.49763,43.25547],[-93.49748,43.34301],[-93.49782,43.4083],[-93.49735,43.49959],[-93.69629,43.49968],[-93.80851,43.4997],[-93.97076,43.49988]]]},"properties":{"STATEFP":"19","COUNTYFP":"189","COUNTYNS":"00465283","GEOIDFQ":"0500000US19189","GEOID":"19189","NAME":"Winnebago","NAMELSAD":"Winnebago County","STUSPS":"IA","STATE_NAME":"Iowa","LSAD":"06","ALAND":1037261954,"AWATER":3182049}},
{"type":"Feature","geometry":{"type":"Polygon","coordinates":[[[-91.60706,42.64397],[-91.60905,42.55645],[-91.60851,42.46928],[-91.5974,42.46924],[-91.59784,42.38399],[-91.59698,42.29641],[-91.5192,42.29622],[-91.45113,42.29621],[-91.36326,42.29645],[-91.31062,42.29643],[-91.23723,42.296],[-91.13008,42.29576],[-91.13062,42.4029],[-91.13089,42.47126],[-91.13419,42.47127],[-91.13444,42.55866],[-91.13277,42.64584],[-91.2508,42.64558],[-91.36718,42.64495],[-91.41101,42.64438],[-91.48799,42.64402],[-91.54222,42.64441],[-91.60706,42.64397]]]},"properties":{"STATEFP":"19","COUNTYFP":"055","COUNTYNS":"00465216","GEOIDFQ":"0500000US19055","GEOID":"19055","NAME":"Delaware","NAMELSAD":"Delaware County","STUSPS":"IA","STATE_NAME":"Iowa","LSAD":"06","ALAND":1496193387,"AWATER":3185375}},
{"type":"Feature","geometry":{"type":"Polygon","coordinates":[[[-95.55728,41.86345],[-95.55737,41.75421],[-95.55774,41.72164],[-95.55795,41.61687],[-95.55814,41.60238],[-95.49779,41.60233],[-95.498,41.50607],[-95.43953,41.5059],[-95.28868,41.50567],[-95.15472,41.50521],[-95.04077,41.50469],[-95.04075,41.60215],[-95.09252,41.60206],[-95.09265,41.65973],[-95.09316,41.68835],[-95.0933,41.77695],[-95.09286,41.86337],[-95.20902,41.86371],[-95.32374,41.86421],[-95.40895,41.86331],[-95.45966,41.86316],[-95.55728,41.86345]]]},"properties":{"STATEFP":"19","COUNTYFP":"165","COUNTYNS":"00465271","GEOIDFQ":"0500000US19165","GEOID":"19165","NAME":"Shelby","NAMELSAD":"Shelby County","STUSPS":"IA","STATE_NAME":"Iowa","LSAD":"06","ALAND":1530103545,"AWATER":1486125}},
{"type":"Feature","geometry":{"type":"Polygon","coordinates":[[[-96.53735,42.90879],[-96.54285,42.90374],[-96.52889,42.89795],[-96.52774,42.89059],[-96.54012,42.88968],[-96.53785,42.87848],[-96.54639,42.87446],[-96.54966,42.87028],[-96.55044,42.86317],[-96.54656,42.85727],[-96.5455,42.84996],[-96.55377,42.8475],[-96.54998,42.84071],[-96.55128,42.83661],[-96.56057,42.83937],[-96.5656,42.83043],[-96.57135,42.83716],[-96.57977,42.83809],[-96.58238,42.83366],[-96.57794,42.82765],[-96.58449,42.81898],[-96.59104,42.81537],[-96.59249,42.80112],[-96.59873,42.79782],[-96.59704,42.79189],[-96.60344,42.79235],[-96.60456,42.78303],[-96.61949,42.78403],[-96.62642,42.77246],[-96.63493,42.77074],[-96.63252,42.76734],[-96.63514,42.76323],[-96.62786,42.75641],[-96.62254,42.75845],[-96.62055,42.75353],[-96.63048,42.75038],[-96.63104,42.7445],[-96.63515,42.74024],[-96.63043,42.72992],[-96.63352,42.72419],[-96.6247,42.7255],[-96.62453,42.71562],[-96.62654,42.71033],[-96.61881,42.69968],[-96.61495,42.69904],[-96.6056,42.70202],[-96.59535,42.694],[-96.5949,42.68944],[-96.58676,42.69013],[-96.58544,42.68309],[-96.57529,42.68282],[-96.57722,42.67751],[-96.56668,42.67594],[-96.56461,42.6716],[-96.5563,42.66484],[-96.5599,42.66282],[-96.55833,42.6576],[-96.54683,42.66149],[-96.54175,42.66038],[-96.53788,42.65543],[-96.53788,42.64645],[-96.52641,42.64121],[-96.52399,42.63456],[-96.51634,42.63044],[-96.5166,42.62236],[-96.52121,42.61867],[-96.52818,42.61845],[-96.5316,42.61515],[-96.52567,42.60931],[-96.51704,42.61596],[-96.50947,42.61273],[-96.50465,42.605],[-96.49909,42.58843],[-96.49234,42.58781],[-96.495,42.57885],[-96.48661,42.57606],[-96.48594,42.57352],[-96.49878,42.56104],[-96.43894,42.56209],[-96.40103,42.56211],[-96.23363,42.56142],[-96.21408,42.56192],[-96.17434,42.56143],[-96.02699,42.56104],[-95.97819,42.56109],[-95.85995,42.56062],[-95.85954,42.58599],[-95.86026,42.69905],[-95.86081,42.72078],[-95.85857,42.82251],[-95.85938,42.9091],[-95.97737,42.90977],[-95.99706,42.91015],[-96.09584,42.91],[-96.19494,42.90934],[-96.38146,42.90929],[-96.45038,42.90939],[-96.53735,42.90879]]]},"properties":{"STATEFP":"19","COUNTYFP":"149","COUNTYNS":"00465263","GEOIDFQ":"0500000US19149","GEOID":"19149","NAME":"Plymouth","NAMELSAD":"Plymouth County","STUSPS":"IA","STATE_NAME":"Iowa","LSAD":"06","ALAND":2234715261,"AWATER":2176851}},
{"type":"Feature","geometry":{"type":"Polygon","coordinates":[[[-92.41199,41.50955],[-92.41201,41.48479],[-92.41133,41.36869],[-92.41089,41.27875],[-92.41049,41.24989],[-92.41059,41.20539],[-92.41023,41.16194],[-92.33424,41.16216],[-92.17997,41.16266],[-92.06334,41.16319],[-91.96475,41.16376],[-91.94557,41.16358],[-91.94464,41.22203],[-91.94509,41.25139],[-91.94693,41.33758],[-91.94614,41.46106],[-91.94604,41.51075],[-92.08192,41.51034],[-92.2246,41.5099],[-92.29749,41.50979],[-92.41199,41.50955]]]},"properties":{"STATEFP":"19","COUNTYFP":"107","COUNTYNS":"00465242","GEOIDFQ":"0500000US19107","GEOID":"19107","NAME":"Keokuk","NAMELSAD":"Keokuk County","STUSPS":"IA","STATE_NAME":"Iowa","LSAD":"06","ALAND":1500056810,"AWATER":1944064}},
{"type":"Feature","geometry":{"type":"Polygon","coordinates":[[[-92.55421,42.90711],[-92.5544,42.81827],[-92.55444,42.74463],[-92.5548,42.70269],[-92.55441,42.68588],[-92.55449,42.64231],[-92.49449,42.64224],[-92.36689,42.6423],[-92.25855,42.6422],[-92.08166,42.64206],[-92.08177,42.74781],[-92.08157,42.81842],[-92.08188,42.83138],[-92.08141,42.86206],[-92.08157,42.90701],[-92.12518,42.90673],[-92.25869,42.90694],[-92.43611,42.90704],[-92.53189,42.90725],[-92.55421,42.90711]]]},"properties":{"STATEFP":"19","COUNTYFP":"017","COUNTYNS":"00465198","GEOIDFQ":"0500000US19017","GEOID":"19017","NAME":"Bremer","NAMELSAD":"Bremer County","STUSPS":"IA","STATE_NAME":"Iowa","LSAD":"06","ALAND":1127886260,"AWATER":10165785}},
{"type":"Feature","geometry":{"type":"Polygon","coordinates":[[[-93.97041,43.25536],[-93.9702,43.24142],[-93.97034,43.11154],[-93.97103,42.99416],[-93.97129,42.97916],[-93.97124,42.90776],[-93.85234,42.90855],[-93.75382,42.90859],[-93.73412,42.90802],[-93.72465,42.90858],[-93.68546,42.90846],[-93.52832,42.90861],[-93.49862,42.90851],[-93.49778,43.00973],[-93.49765,43.11905],[-93.49763,43.25547],[-93.62262,43.25563],[-93.74542,43.25535],[-93.85217,43.25533],[-93.97041,43.25536]]]},"properties":{"STATEFP":"19","COUNTYFP":"081","COUNTYNS":"00465229","GEOIDFQ":"0500000US19081","GEOID":"19081","NAME":"Hancock","NAMELSAD":"Hancock County","STUSPS":"IA","STATE_NAME":"Iowa","LSAD":"06","ALAND":1478895050,"AWATER":5265568}},
{"type":"Feature","geometry":{"type":"Polygon","coordinates":[[[-93.49763,43.25547],[-93.4455,43.25526],[-93.37877,43.25537],[-93.36505,43.25571],[-93.31993,43.2552],[-93.20243,43.25506],[-93.14156,43.25511],[-93.02414,43.25554],[-93.02409,43.34234],[-93.02447,43.42936],[-93.02435,43.49968],[-93.18911,43.49956],[-93.26098,43.49937],[-93.40862,43.49953],[-93.49735,43.49959],[-93.49782,43.4083],[-93.49748,43.34301],[-93.49763,43.25547]]]},"properties":{"STATEFP":"19","COUNTYFP":"195","COUNTYNS":"00465286","GEOIDFQ":"0500000US19195","GEOID":"19195","NAME":"Worth","NAMELSAD":"Worth County","STUSPS":"IA","STATE_NAME":"Iowa","LSAD":"06","ALAND":1036314934,"AWATER":4709127}},
{"type":"Feature","geometry":{"type":"Polygon","coordinates":[[[-93.32861,41.50782],[-93.32841,41.49079],[-93.32813,41.38238],[-93.32836,41.32777],[-93.32834,41.24798],[-93.32789,41.16066],[-93.21314,41.16076],[-93.09922,41.16087],[-92.98442,41.1608],[-92.87898,41.16085],[-92.86977,41.16107],[-92.8704,41.24837],[-92.87089,41.27021],[-92.87061,41.34057],[-92.87142,41.50852],[-92.96755,41.50822],[-93.02498,41.50841],[-93.18793,41.50803],[-93.29166,41.50805],[-93.32861,41.50782]]]},"properties":{"STATEFP":"19","COUNTYFP":"125","COUNTYNS":"00465251","GEOIDFQ":"0500000US19125","GEOID":"19125","NAME":"Marion","NAMELSAD":"Marion County","STUSPS":"IA","STATE_NAME":"Iowa","LSAD":"06","ALAND":1436123089,"AWATER":41484609}},
{"type":"Feature","geometry":{"type":"Polygon","coordinates":[[[-94.91372,43.25505],[-94.91346,43.16875],[-94.91357,43.08308],[-94.91386,42.99579],[-94.91389,42.9097],[-94.79688,42.90913],[-94.67874,42.90887],[-94.6196,42.9091],[-94.5605,42.90893],[-94.52145,42.90849],[-94.44295,42.90807],[-94.44305,42.9515],[-94.44262,43.03108],[-94.44269,43.15509],[-94.44314,43.25501],[-94.56029,43.25523],[-94.60856,43.25514],[-94.81623,43.25546],[-94.91372,43.25505]]]},"properties":{"STATEFP":"19","COUNTYFP":"147","COUNTYNS":"00465262","GEOIDFQ":"0500000US19147","GEOID":"19147","NAME":"Palo Alto","NAMELSAD":"Palo Alto County","STUSPS":"IA","STATE_NAME":"Iowa","LSAD":"06","ALAND":1460400552,"AWATER":14428727}},
{"type":"Feature","geometry":{"type":"Polygon","coordinates":[[[-95.38801,42.56174],[-95.38744,42.47482],[-95.32236,42.47474],[-95.32283,42.35545],[-95.32332,42.21164],[-95.3235,42.21093],[-95.26526,42.21076],[-95.20704,42.21089],[-95.09085,42.21041],[-94.95562,42.20984],[-94.85841,42.20969],[-94.85823,42.29627],[-94.85712,42.38496],[-94.85669,42.474],[-94.91449,42.47419],[-94.91467,42.55706],[-94.91448,42.56031],[-95.03271,42.56102],[-95.19025,42.56106],[-95.30888,42.5608],[-95.38801,42.56174]]]},"properties":{"STATEFP":"19","COUNTYFP":"161","COUNTYNS":"00465269","GEOIDFQ":"0500000US19161","GEOID":"19161","NAME":"Sac","NAMELSAD":"Sac County","STUSPS":"IA","STATE_NAME":"Iowa","LSAD":"06","ALAND":1489300198,"AWATER":8569434}},
{"type":"Feature","geometry":{"type":"Polygon","coordinates":[[[-92.17997,41.16266],[-92.1796,41.04602],[-92.17922,40.98504],[-92.17907,40.89972],[-92.09286,40.89974],[-92.03958,40.89993],[-91.94836,40.90085],[-91.86808,40.90126],[-91.73723,40.90073],[-91.71818,40.90109],[-91.71789,40.92607],[-91.71812,41.00296],[-91.71683,41.08748],[-91.71604,41.16281],[-91.82118,41.16156],[-91.86023,41.1617],[-91.94557,41.16358],[-91.96475,41.16376],[-92.06334,41.16319],[-92.17997,41.16266]]]},"properties":{"STATEFP":"19","COUNTYFP":"101","COUNTYNS":"00465239","GEOIDFQ":"0500000US19101","GEOID":"19101","NAME":"Jefferson","NAMELSAD":"Jefferson County","STUSPS":"IA","STATE_NAME":"Iowa","LSAD":"06","ALAND":1128002441,"AWATER":3522238}},
{"type":"Feature","geometry":{"type":"Polygon","coordinates":[[[-93.49862,42.90851],[-93.49869,42.77121],[-93.49916,42.66654],[-93.49954,42.60851],[-93.49948,42.5577],[-93.39078,42.55763],[-93.26215,42.55711],[-93.14458,42.55674],[-93.027,42.55681],[-93.02647,42.64327],[-93.0258,42.76683],[-93.02514,42.90755],[-93.1252,42.90761],[-93.26191,42.90773],[-93.35076,42.9079],[-93.49862,42.90851]]]},"properties":{"STATEFP":"19","COUNTYFP":"069","COUNTYNS":"00465223","GEOIDFQ":"0500000US19069","GEOID":"19069","NAME":"Franklin","NAMELSAD":"Franklin County","STUSPS":"IA","STATE_NAME":"Iowa","LSAD":"06","ALAND":1507300416,"AWATER":1438346}},
{"type":"Feature","geometry":{"type":"Polygon","coordinates":[[[-93.49948,42.5577],[-93.4991,42.47098],[-93.46263,42.4708],[-93.46291,42.42707],[-93.46288,42.296],[-93.46304,42.2093],[-93.34661,42.20923],[-93.23172,42.20889],[-93.12275,42.2087],[-93.03338,42.20926],[-93.00167,42.20927],[-93.00227,42.3538],[-93.0029,42.47064],[-93.02711,42.47078],[-93.02679,42.52879],[-93.027,42.55681],[-93.14458,42.55674],[-93.26215,42.55711],[-93.39078,42.55763],[-93.49948,42.5577]]]},"properties":{"STATEFP":"19","COUNTYFP":"083","COUNTYNS":"00465230","GEOIDFQ":"0500000US19083","GEOID":"19083","NAME":"Hardin","NAMELSAD":"Hardin County","STUSPS":"IA","STATE_NAME":"Iowa","LSAD":"06","ALAND":1474498037,"AWATER":1783759}},
{"type":"Feature","geometry":{"type":"Polygon","coordinates":[[[-92.55313,43.50021],[-92.55413,43.38556],[-92.55455,43.2603],[-92.55438,43.21281],[-92.50508,43.21273],[-92.4168,43.21305],[-92.29841,43.21282],[-92.27805,43.21371],[-92.1991,43.21298],[-92.08098,43.21295],[-92.08095,43.25562],[-92.08028,43.3567],[-92.0798,43.50073],[-92.1719,43.50078],[-92.23455,43.50059],[-92.37518,43.50062],[-92.46174,43.50036],[-92.55313,43.50021]]]},"properties":{"STATEFP":"19","COUNTYFP":"089","COUNTYNS":"00465233","GEOIDFQ":"0500000US19089","GEOID":"19089","NAME":"Howard","NAMELSAD":"Howard County","STUSPS":"IA","STATE_NAME":"Iowa","LSAD":"06","ALAND":1225702820,"AWATER":931480}},
{"type":"Feature","geometry":{"type":"Polygon","coordinates":[[[-90.31636,41.72888],[-90.31522,41.73426],[-90.31071,41.74221],[-90.30278,41.75003],[-90.27863,41.76736],[-90.26329,41.77211],[-90.22226,41.79313],[-90.21689,41.79534],[-90.18797,41.80316],[-90.18197,41.80707],[-90.18064,41.81198],[-90.18397,41.83307],[-90.1814,41.84465],[-90.17301,41.8574],[-90.17276,41.86615],[-90.17004,41.87644],[-90.15702,41.89802],[-90.15358,41.90661],[-90.1516,41.931],[-90.16385,41.94493],[-90.16494,41.94886],[-90.16214,41.96129],[-90.15383,41.97412],[-90.14622,41.98133],[-90.14603,41.98814],[-90.14061,41.996],[-90.14006,42.00325],[-90.14378,42.01488],[-90.1481,42.02001],[-90.15158,42.03063],[-90.15422,42.03307],[-90.21859,42.0332],[-90.31574,42.03357],[-90.40626,42.03334],[-90.44219,42.0335],[-90.54866,42.03284],[-90.62653,42.03276],[-90.74323,42.03293],[-90.77227,42.03272],[-90.83064,42.03335],[-90.89837,42.03355],[-90.89848,41.94625],[-90.89828,41.85872],[-90.89859,41.837],[-90.89837,41.77139],[-90.83254,41.77155],[-90.78621,41.77137],[-90.78369,41.76822],[-90.77709,41.76728],[-90.76188,41.76282],[-90.75297,41.75298],[-90.74933,41.74444],[-90.74364,41.74153],[-90.73615,41.74057],[-90.73159,41.73741],[-90.72619,41.74231],[-90.71996,41.73684],[-90.70704,41.74025],[-90.70214,41.73773],[-90.69754,41.74303],[-90.69164,41.74313],[-90.69434,41.74893],[-90.68175,41.75455],[-90.67521,41.76192],[-90.66116,41.76539],[-90.65744,41.76408],[-90.65612,41.75784],[-90.65188,41.75548],[-90.64513,41.75754],[-90.64238,41.76154],[-90.63636,41.76097],[-90.63068,41.76535],[-90.62033,41.76154],[-90.61761,41.75729],[-90.61284,41.7582],[-90.61126,41.76397],[-90.60295,41.76251],[-90.59242,41.77064],[-90.58903,41.76441],[-90.57913,41.75913],[-90.56476,41.76583],[-90.55964,41.76363],[-90.55326,41.76462],[-90.54871,41.76924],[-90.54282,41.76592],[-90.53814,41.77579],[-90.51523,41.7693],[-90.51111,41.76605],[-90.50665,41.76948],[-90.49579,41.76589],[-90.48614,41.76637],[-90.47905,41.77179],[-90.47053,41.7731],[-90.46726,41.76887],[-90.46833,41.76279],[-90.46518,41.75904],[-90.45929,41.75803],[-90.4517,41.76408],[-90.44658,41.76384],[-90.44017,41.75858],[-90.42603,41.75266],[-90.42707,41.74569],[-90.4231,41.74057],[-90.41211,41.74096],[-90.40903,41.72962],[-90.39905,41.73165],[-90.38959,41.73057],[-90.38964,41.73695],[-90.37451,41.73427],[-90.365,41.72794],[-90.35707,41.72799],[-90.35237,41.7319],[-90.34489,41.73346],[-90.34257,41.73936],[-90.33387,41.7394],[-90.3289,41.73442],[-90.32365,41.73348],[-90.31636,41.72888]]]},"properties":{"STATEFP":"19","COUNTYFP":"045","COUNTYNS":"00465211","GEOIDFQ":"0500000US19045","GEOID":"19045","NAME":"Clinton","NAMELSAD":"Clinton County","STUSPS":"IA","STATE_NAME":"Iowa","LSAD":"06","ALAND":1799934701,"AWATER":39410955}},
{"type":"Feature","geometry":{"type":"Polygon","coordinates":[[[-94.91448,42.56031],[-94.91556,42.64713],[-94.91393,42.73444],[-94.91384,42.85537],[-94.91389,42.9097],[-95.05335,42.90968],[-95.11101,42.90989],[-95.20352,42.90982],[-95.2691,42.90997],[-95.38818,42.9099],[-95.38815,42.86538],[-95.38778,42.82188],[-95.3875,42.7343],[-95.38818,42.6478],[-95.38801,42.56174],[-95.30888,42.5608],[-95.19025,42.56106],[-95.03271,42.56102],[-94.91448,42.56031]]]},"properties":{"STATEFP":"19","COUNTYFP":"021","COUNTYNS":"00465200","GEOIDFQ":"0500000US19021","GEOID":"19021","NAME":"Buena Vista","NAMELSAD":"Buena Vista County","STUSPS":"IA","STATE_NAME":"Iowa","LSAD":"06","ALAND":1488981877,"AWATER":13798140}},
{"type":"Feature","geometry":{"type":"Polygon","coordinates":[[[-95.86095,43.50005],[-95.86058,43.4107],[-95.86047,43.3455],[-95.86191,43.25757],[-95.74338,43.25814],[-95.62435,43.25842],[-95.50577,43.25575],[-95.38808,43.25522],[-95.38759,43.34224],[-95.38752,43.45954],[-95.38779,43.50023],[-95.4338,43.50011],[-95.46048,43.50047],[-95.48903,43.50005],[-95.625,43.49989],[-95.7497,43.49993],[-95.86095,43.50005]]]},"properties":{"STATEFP":"19","COUNTYFP":"143","COUNTYNS":"00465260","GEOIDFQ":"0500000US19143","GEOID":"19143","NAME":"Osceola","NAMELSAD":"Osceola County","STUSPS":"IA","STATE_NAME":"Iowa","LSAD":"06","ALAND":1032593808,"AWATER":1835263}},
{"type":"Feature","geometry":{"type":"Polygon","coordinates":[[[-90.89985,41.59713],[-91.09433,41.59747],[-91.15372,41.5976],[-91.36645,41.59837],[-91.36768,41.51033],[-91.36852,41.42318],[-91.36933,41.33606],[-91.25381,41.33555],[-91.22994,41.33517],[-91.13856,41.33443],[-91.07194,41.33359],[-91.07155,41.33965],[-91.06652,41.36525],[-91.06506,41.3691],[-91.05158,41.38528],[-91.05033,41.40005],[-91.04782,41.4109],[-91.04399,41.4159],[-91.02779,41.4236],[-91.00585,41.42614],[-90.9849,41.43387],[-90.97517,41.43399],[-90.96666,41.43005],[-90.94979,41.42416],[-90.93002,41.4214],[-90.91935,41.42559],[-90.90047,41.43115],[-90.87978,41.44107],[-90.85755,41.45275],[-90.84656,41.45514],[-90.83741,41.45562],[-90.82474,41.45447],[-90.80728,41.45447],[-90.78628,41.45289],[-90.78472,41.53102],[-90.78381,41.59653],[-90.88922,41.59689],[-90.89985,41.59713]]]},"properties":{"STATEFP":"19","COUNTYFP":"139","COUNTYNS":"00465258","GEOIDFQ":"0500000US19139","GEOID":"19139","NAME":"Muscatine","NAMELSAD":"Muscatine County","STUSPS":"IA","STATE_NAME":"Iowa","LSAD":"06","ALAND":1132964467,"AWATER":30262337}},
{"type":"Feature","geometry":{"type":"Polygon","coordinates":[[[-95.38496,40.90155],[-95.38464,40.87256],[-95.38481,40.78556],[-95.38525,40.72838],[-95.37062,40.72824],[-95.37388,40.65537],[-95.37392,40.5805],[-95.3578,40.5801],[-95.22152,40.57883],[-95.12083,40.57741],[-95.06892,40.57688],[-94.99166,40.57569],[-94.96649,40.57584],[-94.9149,40.57507],[-94.91471,40.66602],[-94.91312,40.72729],[-94.92853,40.7274],[-94.92894,40.75074],[-94.92861,40.82092],[-94.92893,40.82387],[-94.92876,40.88985],[-94.92846,40.90065],[-95.04227,40.90071],[-95.22258,40.90119],[-95.29895,40.90152],[-95.32754,40.90132],[-95.38496,40.90155]]]},"properties":{"STATEFP":"19","COUNTYFP":"145","COUNTYNS":"00465261","GEOIDFQ":"0500000US19145","GEOID":"19145","NAME":"Page","NAMELSAD":"Page County","STUSPS":"IA","STATE_NAME":"Iowa","LSAD":"06","ALAND":1385497642,"AWATER":1359014}},
{"type":"Feature","geometry":{"type":"Polygon","coordinates":[[[-95.55728,41.86345],[-95.67277,41.86315],[-95.78134,41.86325],[-95.88641,41.86349],[-95.9831,41.86349],[-96.02131,41.86376],[-96.13901,41.8663],[-96.13062,41.86081],[-96.1162,41.85487],[-96.11025,41.84885],[-96.10791,41.84034],[-96.11091,41.83082],[-96.10759,41.82068],[-96.10375,41.81715],[-96.09383,41.81279],[-96.08103,41.81014],[-96.06966,41.80351],[-96.06488,41.79623],[-96.06641,41.78891],[-96.07754,41.77782],[-96.07894,41.77135],[-96.0783,41.7616],[-96.08467,41.75331],[-96.09751,41.74908],[-96.10462,41.74421],[-96.10642,41.73789],[-96.10261,41.72802],[-96.0876,41.72218],[-96.07968,41.71796],[-96.07249,41.70879],[-96.07595,41.70166],[-96.08243,41.69816],[-96.09058,41.69743],[-96.10512,41.69992],[-96.11775,41.69422],[-96.1214,41.68852],[-96.12098,41.67786],[-96.11498,41.67122],[-96.09984,41.66103],[-96.09541,41.65274],[-96.09505,41.64737],[-96.1007,41.63551],[-96.11415,41.62398],[-96.11795,41.61736],[-96.11756,41.61],[-96.10939,41.59687],[-96.1015,41.59158],[-96.08868,41.58752],[-96.08342,41.58334],[-96.08118,41.57427],[-96.08479,41.56783],[-96.09361,41.55827],[-96.09659,41.5454],[-96.09201,41.53391],[-96.08265,41.52597],[-96.07416,41.52395],[-96.06863,41.51911],[-96.05369,41.50886],[-96.0407,41.50708],[-96.0366,41.50905],[-96.02931,41.52798],[-96.02666,41.54037],[-96.01915,41.54514],[-96.00511,41.54325],[-95.99997,41.53948],[-95.99389,41.52341],[-95.99283,41.512],[-95.99617,41.50696],[-95.95593,41.50653],[-95.84071,41.50658],[-95.70858,41.50632],[-95.65439,41.50601],[-95.56997,41.50621],[-95.498,41.50607],[-95.49779,41.60233],[-95.55814,41.60238],[-95.55795,41.61687],[-95.55774,41.72164],[-95.55737,41.75421],[-95.55728,41.86345]]]},"properties":{"STATEFP":"19","COUNTYFP":"085","COUNTYNS":"00465231","GEOIDFQ":"0500000US19085","GEOID":"19085","NAME":"Harrison","NAMELSAD":"Harrison County","STUSPS":"IA","STATE_NAME":"Iowa","LSAD":"06","ALAND":1804896268,"AWATER":12325505}},
{"type":"Feature","geometry":{"type":"Polygon","coordinates":[[[-91.71879,40.81354],[-91.71818,40.90109],[-91.73723,40.90073],[-91.86808,40.90126],[-91.94836,40.90085],[-92.03958,40.89993],[-92.09286,40.89974],[-92.17907,40.89972],[-92.1783,40.82973],[-92.17852,40.74835],[-92.17818,40.68282],[-92.17978,40.60053],[-92.09639,40.60183],[-92.02965,40.60371],[-91.94771,40.60547],[-91.93929,40.60615],[-91.8684,40.60806],[-91.82483,40.61019],[-91.79537,40.6111],[-91.72911,40.61364],[-91.71677,40.59853],[-91.71804,40.61405],[-91.71847,40.726],[-91.71879,40.81354]]]},"properties":{"STATEFP":"19","COUNTYFP":"177","COUNTYNS":"00465277","GEOIDFQ":"0500000US19177","GEOID":"19177","NAME":"Van Buren","NAMELSAD":"Van Buren County","STUSPS":"IA","STATE_NAME":"Iowa","LSAD":"06","ALAND":1255605675,"AWATER":14880499}},
{"type":"Feature","geometry":{"type":"Polygon","coordinates":[[[-95.86095,43.50005],[-95.97829,43.50007],[-96.12389,43.50015],[-96.2292,43.50026],[-96.33206,43.50042],[-96.40022,43.50032],[-96.59893,43.50046],[-96.59918,43.49601],[-96.58627,43.4911],[-96.58655,43.4785],[-96.58247,43.46705],[-96.59333,43.46283],[-96.594,43.45883],[-96.60004,43.45708],[-96.60261,43.44965],[-96.59425,43.43415],[-96.58788,43.43169],[-96.57518,43.43176],[-96.57022,43.4286],[-96.57358,43.41923],[-96.56273,43.41278],[-96.55759,43.40679],[-96.53712,43.39506],[-96.52404,43.39476],[-96.52157,43.38564],[-96.52132,43.37461],[-96.52734,43.36811],[-96.52663,43.35183],[-96.52429,43.34721],[-96.53491,43.33647],[-96.52882,43.31656],[-96.52556,43.31247],[-96.53039,43.30003],[-96.54104,43.29556],[-96.55309,43.29286],[-96.55525,43.2948],[-96.56911,43.29554],[-96.57356,43.29917],[-96.58849,43.29634],[-96.58701,43.29181],[-96.58071,43.28902],[-96.57782,43.27994],[-96.5809,43.2748],[-96.58632,43.27432],[-96.58522,43.26888],[-96.5768,43.26831],[-96.56416,43.26024],[-96.55496,43.26],[-96.45048,43.2588],[-96.33412,43.2577],[-96.26578,43.25744],[-96.13817,43.25728],[-96.09806,43.2574],[-96.03916,43.25889],[-95.97107,43.25775],[-95.88915,43.25785],[-95.86191,43.25757],[-95.86047,43.3455],[-95.86058,43.4107],[-95.86095,43.50005]]]},"properties":{"STATEFP":"19","COUNTYFP":"119","COUNTYNS":"00465248","GEOIDFQ":"0500000US19119","GEOID":"19119","NAME":"Lyon","NAMELSAD":"Lyon County","STUSPS":"IA","STATE_NAME":"Iowa","LSAD":"06","ALAND":1521901260,"AWATER":440273}},
{"type":"Feature","geometry":{"type":"Polygon","coordinates":[[[-91.60706,42.64397],[-91.72606,42.64309],[-91.81258,42.64362],[-91.84505,42.64363],[-91.89326,42.64283],[-91.9233,42.64183],[-91.96373,42.64218],[-92.08166,42.64206],[-92.08242,42.52631],[-92.08208,42.52287],[-92.08145,42.46819],[-92.06419,42.46822],[-92.06469,42.38462],[-92.06477,42.29726],[-91.99153,42.29765],[-91.96507,42.29728],[-91.90913,42.29793],[-91.83109,42.29906],[-91.71444,42.29654],[-91.59698,42.29641],[-91.59784,42.38399],[-91.5974,42.46924],[-91.60851,42.46928],[-91.60905,42.55645],[-91.60706,42.64397]]]},"properties":{"STATEFP":"19","COUNTYFP":"019","COUNTYNS":"00465199","GEOIDFQ":"0500000US19019","GEOID":"19019","NAME":"Buchanan","NAMELSAD":"Buchanan County","STUSPS":"IA","STATE_NAME":"Iowa","LSAD":"06","ALAND":1479101373,"AWATER":5208356}},
{"type":"Feature","geometry":{"type":"Polygon","coordinates":[[[-94.62881,42.2094],[-94.62903,42.15907],[-94.6291,42.04903],[-94.62935,41.95033],[-94.62872,41.86276],[-94.51296,41.86325],[-94.3576,41.86304],[-94.28034,41.863],[-94.20263,41.86333],[-94.16443,41.86324],[-94.1645,41.97912],[-94.16468,42.06356],[-94.16491,42.15161],[-94.1647,42.20992],[-94.30101,42.20961],[-94.37869,42.20907],[-94.39753,42.20916],[-94.5131,42.20932],[-94.62859,42.20957],[-94.62881,42.2094]]]},"properties":{"STATEFP":"19","COUNTYFP":"073","COUNTYNS":"00465225","GEOIDFQ":"0500000US19073","GEOID":"19073","NAME":"Greene","NAMELSAD":"Greene County","STUSPS":"IA","STATE_NAME":"Iowa","LSAD":"06","ALAND":1475148025,"AWATER":4404193}},
{"type":"Feature","geometry":{"type":"Polygon","coordinates":[[[-94.62872,41.86276],[-94.74488,41.86239],[-94.74423,41.80546],[-94.74404,41.74659],[-94.74434,41.70318],[-94.74408,41.66728],[-94.7442,41.60219],[-94.70074,41.60218],[-94.70063,41.50415],[-94.5859,41.50394],[-94.52857,41.50362],[-94.51411,41.50385],[-94.3306,41.50361],[-94.24159,41.50368],[-94.24136,41.60097],[-94.28006,41.60131],[-94.27992,41.64569],[-94.2805,41.68833],[-94.28072,41.77657],[-94.28034,41.863],[-94.3576,41.86304],[-94.51296,41.86325],[-94.62872,41.86276]]]},"properties":{"STATEFP":"19","COUNTYFP":"077","COUNTYNS":"00465227","GEOIDFQ":"0500000US19077","GEOID":"19077","NAME":"Guthrie","NAMELSAD":"Guthrie County","STUSPS":"IA","STATE_NAME":"Iowa","LSAD":"06","ALAND":1529683429,"AWATER":6328832}},
{"type":"Feature","geometry":{"type":"Polygon","coordinates":[[[-95.15472,41.50521],[-95.15529,41.50003],[-95.15461,41.38846],[-95.15566,41.35697],[-95.15516,41.33902],[-95.15534,41.3022],[-95.15532,41.21734],[-95.15585,41.15924],[-95.0294,41.15864],[-94.92759,41.15851],[-94.81495,41.15839],[-94.70498,41.1579],[-94.70059,41.15809],[-94.70044,41.24489],[-94.7001,41.33104],[-94.7007,41.41758],[-94.70063,41.50415],[-94.89777,41.50449],[-95.04077,41.50469],[-95.15472,41.50521]]]},"properties":{"STATEFP":"19","COUNTYFP":"029","COUNTYNS":"00465204","GEOIDFQ":"0500000US19029","GEOID":"19029","NAME":"Cass","NAMELSAD":"Cass County","STUSPS":"IA","STATE_NAME":"Iowa","LSAD":"06","ALAND":1461422459,"AWATER":1787165}},
{"type":"Feature","geometry":{"type":"Polygon","coordinates":[[[-95.09286,41.86337],[-95.09308,41.8825],[-95.09213,41.99403],[-95.09169,42.08647],[-95.09085,42.21041],[-95.20704,42.21089],[-95.26526,42.21076],[-95.3235,42.21093],[-95.43939,42.2107],[-95.58923,42.21101],[-95.67082,42.21141],[-95.67072,42.17511],[-95.67132,42.11002],[-95.67215,41.95032],[-95.67277,41.86315],[-95.55728,41.86345],[-95.45966,41.86316],[-95.40895,41.86331],[-95.32374,41.86421],[-95.20902,41.86371],[-95.09286,41.86337]]]},"properties":{"STATEFP":"19","COUNTYFP":"047","COUNTYNS":"00465212","GEOIDFQ":"0500000US19047","GEOID":"19047","NAME":"Crawford","NAMELSAD":"Crawford County","STUSPS":"IA","STATE_NAME":"Iowa","LSAD":"06","ALAND":1849765408,"AWATER":2171717}},
{"type":"Feature","geometry":{"type":"Polygon","coordinates":[[[-93.32789,41.16066],[-93.44176,41.16054],[-93.55756,41.16127],[-93.55725,41.15386],[-93.55707,41.0737],[-93.55659,40.99685],[-93.55691,40.95651],[-93.55654,40.89829],[-93.44213,40.89758],[-93.39386,40.89766],[-93.3663,40.89805],[-93.32742,40.89788],[-93.21221,40.89805],[-93.09759,40.89845],[-93.09779,40.90122],[-93.09836,40.98636],[-93.09846,41.07427],[-93.09922,41.16087],[-93.21314,41.16076],[-93.32789,41.16066]]]},"properties":{"STATEFP":"19","COUNTYFP":"117","COUNTYNS":"00465247","GEOIDFQ":"0500000US19117","GEOID":"19117","NAME":"Lucas","NAMELSAD":"Lucas County","STUSPS":"IA","STATE_NAME":"Iowa","LSAD":"06","ALAND":1115458270,"AWATER":9852845}},
{"type":"Feature","geometry":{"type":"Polygon","coordinates":[[[-94.44295,42.90807],[-94.44278,42.8626],[-94.44315,42.73633],[-94.44308,42.64516],[-94.38351,42.645],[-94.32479,42.64509],[-94.19246,42.64434],[-94.18751,42.64472],[-93.97171,42.64471],[-93.97175,42.69904],[-93.97133,42.72794],[-93.97149,42.78972],[-93.97141,42.89177],[-93.97124,42.90776],[-94.10464,42.90825],[-94.32493,42.90801],[-94.44295,42.90807]]]},"properties":{"STATEFP":"19","COUNTYFP":"091","COUNTYNS":"00465234","GEOIDFQ":"0500000US19091","GEOID":"19091","NAME":"Humboldt","NAMELSAD":"Humboldt County","STUSPS":"IA","STATE_NAME":"Iowa","LSAD":"06","ALAND":1125017996,"AWATER":3373409}},
{"type":"Feature","geometry":{"type":"Polygon","coordinates":[[[-92.87142,41.50852],[-92.75651,41.50879],[-92.75707,41.60141],[-92.76676,41.60136],[-92.76639,41.7172],[-92.76603,41.79052],[-92.766,41.86237],[-92.88322,41.86238],[-92.99978,41.86248],[-93.1162,41.86265],[-93.23186,41.86271],[-93.34793,41.8631],[-93.34832,41.74647],[-93.34868,41.601],[-93.32868,41.60115],[-93.3289,41.53431],[-93.32861,41.50782],[-93.29166,41.50805],[-93.18793,41.50803],[-93.02498,41.50841],[-92.96755,41.50822],[-92.87142,41.50852]]]},"properties":{"STATEFP":"19","COUNTYFP":"099","COUNTYNS":"00465238","GEOIDFQ":"0500000US19099","GEOID":"19099","NAME":"Jasper","NAMELSAD":"Jasper County","STUSPS":"IA","STATE_NAME":"Iowa","LSAD":"06","ALAND":1891800885,"AWATER":6538381}},
{"type":"Feature","geometry":{"type":"Polygon","coordinates":[[[-95.04077,41.50469],[-94.89777,41.50449],[-94.70063,41.50415],[-94.70074,41.60218],[-94.7442,41.60219],[-94.74408,41.66728],[-94.74434,41.70318],[-94.74404,41.74659],[-94.74423,41.80546],[-94.74488,41.86239],[-94.78348,41.86291],[-94.85976,41.86282],[-94.90807,41.86301],[-94.97625,41.86293],[-95.09286,41.86337],[-95.0933,41.77695],[-95.09316,41.68835],[-95.09265,41.65973],[-95.09252,41.60206],[-95.04075,41.60215],[-95.04077,41.50469]]]},"properties":{"STATEFP":"19","COUNTYFP":"009","COUNTYNS":"00465194","GEOIDFQ":"0500000US19009","GEOID":"19009","NAME":"Audubon","NAMELSAD":"Audubon County","STUSPS":"IA","STATE_NAME":"Iowa","LSAD":"06","ALAND":1147262317,"AWATER":1152260}},
{"type":"Feature","geometry":{"type":"Polygon","coordinates":[[[-94.4706,41.15757],[-94.66189,41.15795],[-94.70059,41.15809],[-94.70498,41.1579],[-94.81495,41.15839],[-94.92759,41.15851],[-94.92758,41.10147],[-94.92786,41.00849],[-94.9286,40.90177],[-94.92846,40.90065],[-94.84275,40.90079],[-94.70414,40.89988],[-94.54673,40.89936],[-94.47078,40.8995],[-94.47053,40.91034],[-94.47051,40.98558],[-94.47104,41.0446],[-94.47053,41.0714],[-94.4706,41.15757]]]},"properties":{"STATEFP":"19","COUNTYFP":"003","COUNTYNS":"00465191","GEOIDFQ":"0500000US19003","GEOID":"19003","NAME":"Adams","NAMELSAD":"Adams County","STUSPS":"IA","STATE_NAME":"Iowa","LSAD":"06","ALAND":1096686253,"AWATER":5367876}},
{"type":"Feature","geometry":{"type":"Polygon","coordinates":[[[-95.38801,42.56174],[-95.50612,42.56188],[-95.59449,42.56178],[-95.68205,42.56136],[-95.74161,42.56129],[-95.74136,42.52356],[-95.74182,42.47487],[-95.66926,42.47465],[-95.6696,42.375],[-95.6702,42.36981],[-95.67092,42.32508],[-95.66992,42.26279],[-95.67015,42.23117],[-95.67082,42.21141],[-95.58923,42.21101],[-95.43939,42.2107],[-95.3235,42.21093],[-95.32332,42.21164],[-95.32283,42.35545],[-95.32236,42.47474],[-95.38744,42.47482],[-95.38801,42.56174]]]},"properties":{"STATEFP":"19","COUNTYFP":"093","COUNTYNS":"00465235","GEOIDFQ":"0500000US19093","GEOID":"19093","NAME":"Ida","NAMELSAD":"Ida County","STUSPS":"IA","STATE_NAME":"Iowa","LSAD":"06","ALAND":1117614341,"AWATER":1391966}},
{"type":"Feature","geometry":{"type":"Polygon","coordinates":[[[-90.89837,41.77139],[-90.89859,41.837],[-90.89828,41.85872],[-90.89848,41.94625],[-90.9765,41.94669],[-91.01498,41.9466],[-91.13217,41.94678],[-91.24911,41.94721],[-91.32775,41.94718],[-91.36588,41.94741],[-91.36622,41.86007],[-91.36599,41.77292],[-91.36607,41.68558],[-91.36639,41.65646],[-91.36645,41.59837],[-91.15372,41.5976],[-91.09433,41.59747],[-90.89985,41.59713],[-90.89909,41.68418],[-90.89837,41.77139]]]},"properties":{"STATEFP":"19","COUNTYFP":"031","COUNTYNS":"00465205","GEOIDFQ":"0500000US19031","GEOID":"19031","NAME":"Cedar","NAMELSAD":"Cedar County","STUSPS":"IA","STATE_NAME":"Iowa","LSAD":"06","ALAND":1500798725,"AWATER":6385833}},
{"type":"Feature","geometry":{"type":"Polygon","coordinates":[[[-94.28034,41.863],[-94.28072,41.77657],[-94.2805,41.68833],[-94.27992,41.64569],[-94.28006,41.60131],[-94.24136,41.60097],[-94.24159,41.50368],[-94.12523,41.50309],[-93.94035,41.50326],[-93.89712,41.5031],[-93.79061,41.51192],[-93.79063,41.60043],[-93.81428,41.60046],[-93.81441,41.68843],[-93.81535,41.84569],[-93.81572,41.86342],[-93.99423,41.86309],[-94.16443,41.86324],[-94.20263,41.86333],[-94.28034,41.863]]]},"properties":{"STATEFP":"19","COUNTYFP":"049","COUNTYNS":"00465213","GEOIDFQ":"0500000US19049","GEOID":"19049","NAME":"Dallas","NAMELSAD":"Dallas County","STUSPS":"IA","STATE_NAME":"Iowa","LSAD":"06","ALAND":1523509016,"AWATER":8742498}},
{"type":"Feature","geometry":{"type":"Polygon","coordinates":[[[-94.24164,41.15713],[-94.2417,41.24374],[-94.24145,41.38821],[-94.24159,41.50368],[-94.3306,41.50361],[-94.51411,41.50385],[-94.52857,41.50362],[-94.5859,41.50394],[-94.70063,41.50415],[-94.7007,41.41758],[-94.7001,41.33104],[-94.70044,41.24489],[-94.70059,41.15809],[-94.66189,41.15795],[-94.4706,41.15757],[-94.35706,41.15745],[-94.24164,41.15713]]]},"properties":{"STATEFP":"19","COUNTYFP":"001","COUNTYNS":"00465190","GEOIDFQ":"0500000US19001","GEOID":"19001","NAME":"Adair","NAMELSAD":"Adair County","STUSPS":"IA","STATE_NAME":"Iowa","LSAD":"06","ALAND":1474404192,"AWATER":2597996}},
{"type":"Feature","geometry":{"type":"Polygon","coordinates":[[[-92.08157,42.90701],[-92.0815,43.03071],[-92.08115,43.08279],[-92.08118,43.16923],[-92.08098,43.21295],[-92.1991,43.21298],[-92.27805,43.21371],[-92.29841,43.21282],[-92.4168,43.21305],[-92.50508,43.21273],[-92.55438,43.21281],[-92.55446,43.16931],[-92.55406,43.12411],[-92.5541,43.02324],[-92.55421,42.90711],[-92.53189,42.90725],[-92.43611,42.90704],[-92.25869,42.90694],[-92.12518,42.90673],[-92.08157,42.90701]]]},"properties":{"STATEFP":"19","COUNTYFP":"037","COUNTYNS":"00465208","GEOIDFQ":"0500000US19037","GEOID":"19037","NAME":"Chickasaw","NAMELSAD":"Chickasaw County","STUSPS":"IA","STATE_NAME":"Iowa","LSAD":"06","ALAND":1306192617,"AWATER":3455450}},
{"type":"Feature","geometry":{"type":"Polygon","coordinates":[[[-94.47078,40.8995],[-94.54673,40.89936],[-94.70414,40.89988],[-94.84275,40.90079],[-94.92846,40.90065],[-94.92876,40.88985],[-94.92893,40.82387],[-94.92861,40.82092],[-94.92894,40.75074],[-94.92853,40.7274],[-94.91312,40.72729],[-94.91471,40.66602],[-94.9149,40.57507],[-94.82376,40.57394],[-94.81119,40.57353],[-94.71666,40.5722],[-94.63203,40.57119],[-94.53388,40.57074],[-94.47121,40.57083],[-94.47141,40.63955],[-94.47127,40.67918],[-94.47168,40.8062],[-94.47162,40.86652],[-94.47078,40.8995]]]},"properties":{"STATEFP":"19","COUNTYFP":"173","COUNTYNS":"00465275","GEOIDFQ":"0500000US19173","GEOID":"19173","NAME":"Taylor","NAMELSAD":"Taylor County","STUSPS":"IA","STATE_NAME":"Iowa","LSAD":"06","ALAND":1377618878,"AWATER":7133363}},
{"type":"Feature","geometry":{"type":"Polygon","coordinates":[[[-94.44314,43.25501],[-94.44269,43.15509],[-94.44262,43.03108],[-94.44305,42.9515],[-94.44295,42.90807],[-94.32493,42.90801],[-94.10464,42.90825],[-93.97124,42.90776],[-93.97129,42.97916],[-93.97103,42.99416],[-93.97034,43.11154],[-93.9702,43.24142],[-93.97041,43.25536],[-93.97026,43.29862],[-93.97069,43.34225],[-93.97054,43.44415],[-93.97076,43.49988],[-94.1834,43.50008],[-94.32498,43.50022],[-94.44285,43.50038],[-94.44235,43.3997],[-94.44314,43.25501]]]},"properties":{"STATEFP":"19","COUNTYFP":"109","COUNTYNS":"00465243","GEOIDFQ":"0500000US19109","GEOID":"19109","NAME":"Kossuth","NAMELSAD":"Kossuth County","STUSPS":"IA","STATE_NAME":"Iowa","LSAD":"06","ALAND":2519371247,"AWATER":4116153}},
{"type":"Feature","geometry":{"type":"Polygon","coordinates":[[[-95.67277,41.86315],[-95.67215,41.95032],[-95.67132,42.11002],[-95.67072,42.17511],[-95.67082,42.21141],[-95.79547,42.21153],[-95.90412,42.21146],[-96.01988,42.21169],[-96.15463,42.21388],[-96.25144,42.21464],[-96.35666,42.21514],[-96.35909,42.2078],[-96.35151,42.20049],[-96.34807,42.19475],[-96.34724,42.18672],[-96.35032,42.17744],[-96.34775,42.16681],[-96.33798,42.1572],[-96.32587,42.15149],[-96.31953,42.14665],[-96.31382,42.13634],[-96.31008,42.13252],[-96.30102,42.12804],[-96.28567,42.12562],[-96.2792,42.12348],[-96.2723,42.1184],[-96.26732,42.11027],[-96.26764,42.09618],[-96.27676,42.08142],[-96.27908,42.07403],[-96.27844,42.0604],[-96.27143,42.04499],[-96.26389,42.03986],[-96.25609,42.03808],[-96.24683,42.04162],[-96.23839,42.04109],[-96.22566,42.03522],[-96.2219,42.02956],[-96.22361,42.02265],[-96.22787,42.01865],[-96.23886,42.01232],[-96.24193,42.00697],[-96.24071,41.99935],[-96.22974,41.99441],[-96.22181,41.99738],[-96.21522,42.0067],[-96.20608,42.00927],[-96.19456,42.00866],[-96.18807,42.00632],[-96.18357,41.99999],[-96.18478,41.99546],[-96.19214,41.98446],[-96.1906,41.98072],[-96.18424,41.9767],[-96.1772,41.97633],[-96.16807,41.979],[-96.15654,41.98014],[-96.14123,41.97806],[-96.1295,41.97167],[-96.12919,41.96514],[-96.13539,41.95222],[-96.1426,41.94591],[-96.14349,41.93739],[-96.13661,41.92717],[-96.13674,41.92083],[-96.14226,41.91538],[-96.1591,41.91006],[-96.16176,41.90182],[-96.15218,41.89209],[-96.14735,41.88481],[-96.14448,41.87185],[-96.13901,41.8663],[-96.02131,41.86376],[-95.9831,41.86349],[-95.88641,41.86349],[-95.78134,41.86325],[-95.67277,41.86315]]]},"properties":{"STATEFP":"19","COUNTYFP":"133","COUNTYNS":"00465255","GEOIDFQ":"0500000US19133","GEOID":"19133","NAME":"Monona","NAMELSAD":"Monona County","STUSPS":"IA","STATE_NAME":"Iowa","LSAD":"06","ALAND":1797639078,"AWATER":12591063}},
{"type":"Feature","geometry":{"type":"Polygon","coordinates":[[[-92.17907,40.89972],[-92.30096,40.89929],[-92.44801,40.89903],[-92.52476,40.89912],[-92.63909,40.89889],[-92.63894,40.87077],[-92.63889,40.76894],[-92.63788,40.67482],[-92.63825,40.63134],[-92.6379,40.59085],[-92.58028,40.59215],[-92.48459,40.59492],[-92.37969,40.59651],[-92.29875,40.59847],[-92.17978,40.60053],[-92.17818,40.68282],[-92.17852,40.74835],[-92.1783,40.82973],[-92.17907,40.89972]]]},"properties":{"STATEFP":"19","COUNTYFP":"051","COUNTYNS":"00465214","GEOIDFQ":"0500000US19051","GEOID":"19051","NAME":"Davis","NAMELSAD":"Davis County","STUSPS":"IA","STATE_NAME":"Iowa","LSAD":"06","ALAND":1300661921,"AWATER":6904087}},
{"type":"Feature","geometry":{"type":"Polygon","coordinates":[[[-92.08166,42.64206],[-91.96373,42.64218],[-91.9233,42.64183],[-91.89326,42.64283],[-91.84505,42.64363],[-91.81258,42.64362],[-91.72606,42.64309],[-91.60706,42.64397],[-91.60643,42.72406],[-91.60783,42.81124],[-91.60713,42.83675],[-91.60661,42.92781],[-91.60609,42.9706],[-91.60531,43.08165],[-91.72523,43.08177],[-91.85442,43.08192],[-91.92443,43.0825],[-92.00017,43.08256],[-92.08115,43.08279],[-92.0815,43.03071],[-92.08157,42.90701],[-92.08141,42.86206],[-92.08188,42.83138],[-92.08157,42.81842],[-92.08177,42.74781],[-92.08166,42.64206]]]},"properties":{"STATEFP":"19","COUNTYFP":"065","COUNTYNS":"00465221","GEOIDFQ":"0500000US19065","GEOID":"19065","NAME":"Fayette","NAMELSAD":"Fayette County","STUSPS":"IA","STATE_NAME":"Iowa","LSAD":"06","ALAND":1892806759,"AWATER":1354955}},
{"type":"Feature","geometry":{"type":"Polygon","coordinates":[[[-94.16443,41.86324],[-93.99423,41.86309],[-93.81572,41.86342],[-93.69803,41.86337],[-93.69813,41.96138],[-93.69874,42.02277],[-93.69858,42.16213],[-93.69839,42.20934],[-93.81573,42.2096],[-93.93158,42.20991],[-93.97978,42.20985],[-94.1647,42.20992],[-94.16491,42.15161],[-94.16468,42.06356],[-94.1645,41.97912],[-94.16443,41.86324]]]},"properties":{"STATEFP":"19","COUNTYFP":"015","COUNTYNS":"00465197","GEOIDFQ":"0500000US19015","GEOID":"19015","NAME":"Boone","NAMELSAD":"Boone County","STUSPS":"IA","STATE_NAME":"Iowa","LSAD":"06","ALAND":1477486976,"AWATER":8209423}},
{"type":"Feature","geometry":{"type":"Polygon","coordinates":[[[-91.94557,41.16358],[-91.86023,41.1617],[-91.82118,41.16156],[-91.71604,41.16281],[-91.60085,41.16356],[-91.53953,41.16274],[-91.48572,41.16241],[-91.48594,41.20603],[-91.48476,41.30779],[-91.48399,41.42385],[-91.48386,41.42729],[-91.49071,41.44043],[-91.5007,41.44668],[-91.50247,41.4509],[-91.49865,41.45344],[-91.49877,41.45921],[-91.51457,41.46694],[-91.51338,41.47596],[-91.5021,41.47745],[-91.50137,41.48773],[-91.50374,41.49336],[-91.51858,41.49727],[-91.51899,41.50258],[-91.52712,41.50689],[-91.51983,41.51101],[-91.63752,41.51072],[-91.77182,41.51171],[-91.82923,41.51146],[-91.94604,41.51075],[-91.94614,41.46106],[-91.94693,41.33758],[-91.94509,41.25139],[-91.94464,41.22203],[-91.94557,41.16358]]]},"properties":{"STATEFP":"19","COUNTYFP":"183","COUNTYNS":"00465280","GEOIDFQ":"0500000US19183","GEOID":"19183","NAME":"Washington","NAMELSAD":"Washington County","STUSPS":"IA","STATE_NAME":"Iowa","LSAD":"06","ALAND":1473258532,"AWATER":5339036}},
{"type":"Feature","geometry":{"type":"Polygon","coordinates":[[[-91.59698,42.29641],[-91.71444,42.29654],[-91.83109,42.29906],[-91.83261,42.21203],[-91.83453,42.12461],[-91.83526,42.03695],[-91.83365,41.96401],[-91.83168,41.88727],[-91.83138,41.86185],[-91.71452,41.86204],[-91.58,41.86053],[-91.48194,41.85976],[-91.42453,41.85962],[-91.36622,41.86007],[-91.36588,41.94741],[-91.36487,42.03452],[-91.36486,42.13693],[-91.36402,42.20201],[-91.36326,42.29645],[-91.45113,42.29621],[-91.5192,42.29622],[-91.59698,42.29641]]]},"properties":{"STATEFP":"19","COUNTYFP":"113","COUNTYNS":"00465245","GEOIDFQ":"0500000US19113","GEOID":"19113","NAME":"Linn","NAMELSAD":"Linn County","STUSPS":"IA","STATE_NAME":"Iowa","LSAD":"06","ALAND":1857054769,"AWATER":19828878}},
{"type":"Feature","geometry":{"type":"Polygon","coordinates":[[[-94.0148,40.89703],[-93.90967,40.8967],[-93.78703,40.89935],[-93.66208,40.89935],[-93.55654,40.89829],[-93.55691,40.95651],[-93.55659,40.99685],[-93.55707,41.0737],[-93.55725,41.15386],[-93.55756,41.16127],[-93.59639,41.16155],[-93.68024,41.16171],[-93.7892,41.16204],[-93.86381,41.15804],[-93.89881,41.15661],[-94.01419,41.15676],[-94.01465,40.99999],[-94.01489,40.99799],[-94.0148,40.89703]]]},"properties":{"STATEFP":"19","COUNTYFP":"039","COUNTYNS":"00465209","GEOIDFQ":"0500000US19039","GEOID":"19039","NAME":"Clarke","NAMELSAD":"Clarke County","STUSPS":"IA","STATE_NAME":"Iowa","LSAD":"06","ALAND":1116573608,"AWATER":1524746}},
{"type":"Feature","geometry":{"type":"Polygon","coordinates":[[[-90.15422,42.03307],[-90.16448,42.04211],[-90.16555,42.06264],[-90.16836,42.07578],[-90.1634,42.08761],[-90.16116,42.10637],[-90.16289,42.11672],[-90.17097,42.1252],[-90.18747,42.12542],[-90.19734,42.12816],[-90.2014,42.13094],[-90.20536,42.13908],[-90.20948,42.15268],[-90.21611,42.15673],[-90.23492,42.16543],[-90.25013,42.17147],[-90.26908,42.1745],[-90.28217,42.17885],[-90.29844,42.18758],[-90.31777,42.19379],[-90.32827,42.20105],[-90.33817,42.20332],[-90.35696,42.20545],[-90.36514,42.21053],[-90.37513,42.21481],[-90.39111,42.22547],[-90.40065,42.23929],[-90.41933,42.25447],[-90.4241,42.26636],[-90.43088,42.27823],[-90.43073,42.28421],[-90.42433,42.29333],[-90.42045,42.30537],[-90.42105,42.31611],[-90.41594,42.3227],[-90.41903,42.32851],[-90.43055,42.33686],[-90.44387,42.35522],[-90.45272,42.3593],[-90.46479,42.36945],[-90.47381,42.38146],[-90.50228,42.382],[-90.62513,42.38231],[-90.66503,42.38216],[-90.66555,42.2947],[-90.75013,42.2947],[-90.85005,42.29492],[-90.89802,42.29524],[-90.89835,42.17243],[-90.89865,42.13509],[-90.89823,42.12059],[-90.89837,42.03355],[-90.83064,42.03335],[-90.77227,42.03272],[-90.74323,42.03293],[-90.62653,42.03276],[-90.54866,42.03284],[-90.44219,42.0335],[-90.40626,42.03334],[-90.31574,42.03357],[-90.21859,42.0332],[-90.15422,42.03307]]]},"properties":{"STATEFP":"19","COUNTYFP":"097","COUNTYNS":"00465237","GEOIDFQ":"0500000US19097","GEOID":"19097","NAME":"Jackson","NAMELSAD":"Jackson County","STUSPS":"IA","STATE_NAME":"Iowa","LSAD":"06","ALAND":1647354221,"AWATER":35119763}},
{"type":"Feature","geometry":{"type":"Polygon","coordinates":[[[-94.91457,43.50087],[-95.07223,43.50099],[-95.12393,43.50089],[-95.15494,43.50045],[-95.16741,43.501],[-95.21128,43.50082],[-95.24484,43.5012],[-95.25097,43.50046],[-95.38779,43.50023],[-95.38752,43.45954],[-95.38759,43.34224],[-95.38808,43.25522],[-95.26926,43.25537],[-95.09226,43.25544],[-94.91372,43.25505],[-94.91416,43.39971],[-94.91482,43.49938],[-94.91457,43.50087]]]},"properties":{"STATEFP":"19","COUNTYFP":"059","COUNTYNS":"00465218","GEOIDFQ":"0500000US19059","GEOID":"19059","NAME":"Dickinson","NAMELSAD":"Dickinson County","STUSPS":"IA","STATE_NAME":"Iowa","LSAD":"06","ALAND":985574543,"AWATER":60680641}},
{"type":"Feature","geometry":{"type":"Polygon","coordinates":[[[-91.94604,41.51075],[-91.82923,41.51146],[-91.82706,41.60045],[-91.83308,41.60041],[-91.83305,41.62948],[-91.83418,41.6867],[-91.83079,41.8038],[-91.83118,41.81635],[-91.83138,41.86185],[-91.90867,41.86161],[-92.05451,41.86269],[-92.06446,41.86298],[-92.18665,41.86259],[-92.23953,41.86306],[-92.29816,41.86278],[-92.29882,41.79795],[-92.29987,41.73613],[-92.29995,41.68905],[-92.29949,41.60154],[-92.29781,41.60154],[-92.29749,41.50979],[-92.2246,41.5099],[-92.08192,41.51034],[-91.94604,41.51075]]]},"properties":{"STATEFP":"19","COUNTYFP":"095","COUNTYNS":"00465236","GEOIDFQ":"0500000US19095","GEOID":"19095","NAME":"Iowa","NAMELSAD":"Iowa County","STUSPS":"IA","STATE_NAME":"Iowa","LSAD":"06","ALAND":1518911686,"AWATER":2686847}},
{"type":"Feature","geometry":{"type":"Polygon","coordinates":[[[-93.09922,41.16087],[-93.09846,41.07427],[-93.09836,40.98636],[-93.09779,40.90122],[-93.09759,40.89845],[-93.0002,40.89827],[-92.8752,40.89871],[-92.87403,40.89822],[-92.8308,40.89855],[-92.7539,40.8986],[-92.63909,40.89889],[-92.63949,40.98712],[-92.63993,41.08225],[-92.64038,41.1614],[-92.75474,41.16136],[-92.86977,41.16107],[-92.87898,41.16085],[-92.98442,41.1608],[-93.09922,41.16087]]]},"properties":{"STATEFP":"19","COUNTYFP":"135","COUNTYNS":"00465256","GEOIDFQ":"0500000US19135","GEOID":"19135","NAME":"Monroe","NAMELSAD":"Monroe County","STUSPS":"IA","STATE_NAME":"Iowa","LSAD":"06","ALAND":1123299098,"AWATER":1522790}},
{"type":"Feature","geometry":{"type":"Polygon","coordinates":[[[-93.97124,42.90776],[-93.97141,42.89177],[-93.97149,42.78972],[-93.97133,42.72794],[-93.97175,42.69904],[-93.97171,42.64471],[-93.97158,42.55814],[-93.89353,42.55794],[-93.8536,42.5575],[-93.73496,42.55759],[-93.56804,42.55755],[-93.49948,42.5577],[-93.49954,42.60851],[-93.49916,42.66654],[-93.49869,42.77121],[-93.49862,42.90851],[-93.52832,42.90861],[-93.68546,42.90846],[-93.72465,42.90858],[-93.73412,42.90802],[-93.75382,42.90859],[-93.85234,42.90855],[-93.97124,42.90776]]]},"properties":{"STATEFP":"19","COUNTYFP":"197","COUNTYNS":"00465287","GEOIDFQ":"0500000US19197","GEOID":"19197","NAME":"Wright","NAMELSAD":"Wright County","STUSPS":"IA","STATE_NAME":"Iowa","LSAD":"06","ALAND":1503260264,"AWATER":4703964}},
{"type":"Feature","geometry":{"type":"Polygon","coordinates":[[[-95.85938,42.9091],[-95.86017,43.04024],[-95.86029,43.0837],[-95.86227,43.21486],[-95.86191,43.25757],[-95.88915,43.25785],[-95.97107,43.25775],[-96.03916,43.25889],[-96.09806,43.2574],[-96.13817,43.25728],[-96.26578,43.25744],[-96.33412,43.2577],[-96.45048,43.2588],[-96.55496,43.26],[-96.55259,43.25777],[-96.55296,43.24728],[-96.56525,43.24424],[-96.57119,43.23896],[-96.5685,43.23155],[-96.56044,43.22422],[-96.55494,43.22678],[-96.54009,43.2257],[-96.53574,43.22764],[-96.52686,43.22407],[-96.51927,43.21769],[-96.50076,43.22077],[-96.49645,43.22365],[-96.48526,43.22418],[-96.4767,43.22201],[-96.47078,43.2051],[-96.47378,43.19877],[-96.47239,43.18564],[-96.4649,43.18203],[-96.46729,43.16407],[-96.46654,43.15028],[-96.45998,43.14352],[-96.45036,43.14224],[-96.44343,43.13383],[-96.44164,43.12469],[-96.43659,43.12084],[-96.43933,43.11392],[-96.45188,43.10047],[-96.46052,43.09494],[-96.46264,43.08961],[-96.45534,43.08813],[-96.45409,43.0842],[-96.45521,43.07505],[-96.46085,43.06403],[-96.46821,43.06186],[-96.4769,43.06238],[-96.48672,43.0555],[-96.49036,43.05079],[-96.50175,43.04863],[-96.51026,43.04992],[-96.51843,43.04207],[-96.50914,43.0373],[-96.51308,43.02844],[-96.51099,43.0247],[-96.49919,43.01921],[-96.49167,43.00971],[-96.49434,43.00182],[-96.49782,42.99814],[-96.50734,42.99652],[-96.51289,42.99142],[-96.51224,42.98594],[-96.52025,42.97764],[-96.51592,42.97289],[-96.50615,42.97135],[-96.50313,42.96819],[-96.50031,42.95939],[-96.50486,42.95466],[-96.50947,42.94515],[-96.51999,42.93976],[-96.5411,42.9245],[-96.53735,42.90879],[-96.45038,42.90939],[-96.38146,42.90929],[-96.19494,42.90934],[-96.09584,42.91],[-95.99706,42.91015],[-95.97737,42.90977],[-95.85938,42.9091]]]},"properties":{"STATEFP":"19","COUNTYFP":"167","COUNTYNS":"00465272","GEOIDFQ":"0500000US19167","GEOID":"19167","NAME":"Sioux","NAMELSAD":"Sioux County","STUSPS":"IA","STATE_NAME":"Iowa","LSAD":"06","ALAND":1988881470,"AWATER":2802041}},
{"type":"Feature","geometry":{"type":"Polygon","coordinates":[[[-91.36645,41.59837],[-91.36639,41.65646],[-91.36607,41.68558],[-91.36599,41.77292],[-91.36622,41.86007],[-91.42453,41.85962],[-91.48194,41.85976],[-91.58,41.86053],[-91.71452,41.86204],[-91.83138,41.86185],[-91.83118,41.81635],[-91.83079,41.8038],[-91.83418,41.6867],[-91.83305,41.62948],[-91.83308,41.60041],[-91.82706,41.60045],[-91.82923,41.51146],[-91.77182,41.51171],[-91.63752,41.51072],[-91.51983,41.51101],[-91.52712,41.50689],[-91.51899,41.50258],[-91.51858,41.49727],[-91.50374,41.49336],[-91.50137,41.48773],[-91.5021,41.47745],[-91.51338,41.47596],[-91.51457,41.46694],[-91.49877,41.45921],[-91.49865,41.45344],[-91.50247,41.4509],[-91.5007,41.44668],[-91.49071,41.44043],[-91.48386,41.42729],[-91.48399,41.42385],[-91.46185,41.42423],[-91.44239,41.42358],[-91.39157,41.42363],[-91.36852,41.42318],[-91.36768,41.51033],[-91.36645,41.59837]]]},"properties":{"STATEFP":"19","COUNTYFP":"103","COUNTYNS":"00465240","GEOIDFQ":"0500000US19103","GEOID":"19103","NAME":"Johnson","NAMELSAD":"Johnson County","STUSPS":"IA","STATE_NAME":"Iowa","LSAD":"06","ALAND":1587655791,"AWATER":26070847}},
{"type":"Feature","geometry":{"type":"Polygon","coordinates":[[[-93.55654,40.89829],[-93.55695,40.81236],[-93.55619,40.76813],[-93.55657,40.69627],[-93.5569,40.58024],[-93.52412,40.58048],[-93.44177,40.57992],[-93.3176,40.58067],[-93.26061,40.5808],[-93.1358,40.58285],[-93.0973,40.58401],[-93.09731,40.66692],[-93.09747,40.76361],[-93.09775,40.84101],[-93.09759,40.89845],[-93.21221,40.89805],[-93.32742,40.89788],[-93.3663,40.89805],[-93.39386,40.89766],[-93.44213,40.89758],[-93.55654,40.89829]]]},"properties":{"STATEFP":"19","COUNTYFP":"185","COUNTYNS":"00465281","GEOIDFQ":"0500000US19185","GEOID":"19185","NAME":"Wayne","NAMELSAD":"Wayne County","STUSPS":"IA","STATE_NAME":"Iowa","LSAD":"06","ALAND":1360957547,"AWATER":4272457}},
{"type":"Feature","geometry":{"type":"Polygon","coordinates":[[[-93.49862,42.90851],[-93.35076,42.9079],[-93.26191,42.90773],[-93.1252,42.90761],[-93.02514,42.90755],[-93.02463,42.98022],[-93.02349,42.99457],[-93.02298,43.03277],[-93.02396,43.09566],[-93.02344,43.13362],[-93.02405,43.16928],[-93.02409,43.21281],[-93.02414,43.25554],[-93.14156,43.25511],[-93.20243,43.25506],[-93.31993,43.2552],[-93.36505,43.25571],[-93.37877,43.25537],[-93.4455,43.25526],[-93.49763,43.25547],[-93.49765,43.11905],[-93.49778,43.00973],[-93.49862,42.90851]]]},"properties":{"STATEFP":"19","COUNTYFP":"033","COUNTYNS":"00465206","GEOIDFQ":"0500000US19033","GEOID":"19033","NAME":"Cerro Gordo","NAMELSAD":"Cerro Gordo County","STUSPS":"IA","STATE_NAME":"Iowa","LSAD":"06","ALAND":1471896012,"AWATER":17653603}},
{"type":"Feature","geometry":{"type":"Polygon","coordinates":[[[-94.01549,40.57391],[-93.89833,40.57601],[-93.81872,40.57709],[-93.75022,40.57772],[-93.69033,40.57788],[-93.65621,40.57835],[-93.5569,40.58024],[-93.55657,40.69627],[-93.55619,40.76813],[-93.55695,40.81236],[-93.55654,40.89829],[-93.66208,40.89935],[-93.78703,40.89935],[-93.90967,40.8967],[-94.0148,40.89703],[-94.0153,40.81058],[-94.01542,40.72465],[-94.0152,40.62502],[-94.01549,40.57391]]]},"properties":{"STATEFP":"19","COUNTYFP":"053","COUNTYNS":"00465215","GEOIDFQ":"0500000US19053","GEOID":"19053","NAME":"Decatur","NAMELSAD":"Decatur County","STUSPS":"IA","STATE_NAME":"Iowa","LSAD":"06","ALAND":1377569409,"AWATER":4138626}},
{"type":"Feature","geometry":{"type":"Polygon","coordinates":[[[-91.11243,40.69628],[-91.11109,40.70828],[-91.11573,40.72517],[-91.11042,40.74553],[-91.1082,40.75094],[-91.10249,40.75708],[-91.09613,40.76713],[-91.0917,40.77971],[-91.09226,40.79291],[-91.09703,40.80247],[-91.09685,40.81162],[-91.09007,40.82464],[-91.07752,40.83341],[-91.06716,40.842],[-91.05643,40.84839],[-91.04465,40.86836],[-91.03679,40.87504],[-91.02749,40.87917],[-91.02156,40.88402],[-91.00954,40.90057],[-90.9985,40.90812],[-90.98546,40.91214],[-90.96899,40.91913],[-90.96292,40.92496],[-90.96046,40.93636],[-90.95223,40.95405],[-90.95197,40.95824],[-90.95814,40.97977],[-90.94963,40.99525],[-90.94595,41.0065],[-90.94532,41.01928],[-90.94225,41.0347],[-90.94555,41.06173],[-90.94938,41.07271],[-91.0354,41.07294],[-91.17162,41.07307],[-91.25553,41.07415],[-91.37071,41.07411],[-91.37149,40.97262],[-91.37182,40.89969],[-91.37169,40.87793],[-91.37209,40.81263],[-91.40945,40.81291],[-91.40637,40.80871],[-91.39353,40.80862],[-91.38404,40.8014],[-91.374,40.79798],[-91.36387,40.79066],[-91.35268,40.79373],[-91.34683,40.78647],[-91.33476,40.78466],[-91.3259,40.78078],[-91.31885,40.77992],[-91.31368,40.77327],[-91.30958,40.77173],[-91.29339,40.77258],[-91.28675,40.76657],[-91.28304,40.75449],[-91.27716,40.75288],[-91.26392,40.7542],[-91.24442,40.7484],[-91.23345,40.73754],[-91.22709,40.73435],[-91.21712,40.73229],[-91.20697,40.72056],[-91.19441,40.71805],[-91.18255,40.7081],[-91.17702,40.72038],[-91.17397,40.72179],[-91.16114,40.71705],[-91.15064,40.7062],[-91.14649,40.70647],[-91.13882,40.70071],[-91.13054,40.69815],[-91.12169,40.7],[-91.11243,40.69628]]]},"properties":{"STATEFP":"19","COUNTYFP":"057","COUNTYNS":"00465217","GEOIDFQ":"0500000US19057","GEOID":"19057","NAME":"Des Moines","NAMELSAD":"Des Moines County","STUSPS":"IA","STATE_NAME":"Iowa","LSAD":"06","ALAND":1077769228,"AWATER":35341938}},
{"type":"Feature","geometry":{"type":"Polygon","coordinates":[[[-93.02414,43.25554],[-93.02409,43.21281],[-92.95956,43.2126],[-92.90501,43.21276],[-92.81045,43.21258],[-92.75218,43.21282],[-92.69284,43.2125],[-92.55438,43.21281],[-92.55455,43.2603],[-92.55413,43.38556],[-92.55313,43.50021],[-92.72817,43.50005],[-92.92963,43.49976],[-93.02435,43.49968],[-93.02447,43.42936],[-93.02409,43.34234],[-93.02414,43.25554]]]},"properties":{"STATEFP":"19","COUNTYFP":"131","COUNTYNS":"00465254","GEOIDFQ":"0500000US19131","GEOID":"19131","NAME":"Mitchell","NAMELSAD":"Mitchell County","STUSPS":"IA","STATE_NAME":"Iowa","LSAD":"06","ALAND":1215368227,"AWATER":1118491}},
{"type":"Feature","geometry":{"type":"Polygon","coordinates":[[[-95.88094,41.16027],[-95.88349,41.1549],[-95.88209,41.144],[-95.87889,41.1381],[-95.86869,41.1247],[-95.86589,41.1179],[-95.86545,41.10127],[-95.86259,41.0884],[-95.86546,41.08037],[-95.8781,41.06959],[-95.88241,41.06041],[-95.87949,41.0533],[-95.86178,41.03943],[-95.8591,41.0316],[-95.85992,41.0254],[-95.86588,41.0174],[-95.86949,41.0094],[-95.86729,41.0016],[-95.86349,40.99734],[-95.85255,40.99174],[-95.84435,40.98952],[-95.83354,40.98266],[-95.82833,40.97238],[-95.82983,40.96386],[-95.83795,40.95062],[-95.84027,40.93994],[-95.83974,40.93278],[-95.83644,40.92164],[-95.8307,40.915],[-95.81871,40.90682],[-95.81346,40.90169],[-95.74687,40.9017],[-95.70488,40.90143],[-95.52303,40.90167],[-95.38496,40.90155],[-95.38474,40.90875],[-95.38475,40.98745],[-95.38442,41.01239],[-95.38472,41.07325],[-95.38435,41.16001],[-95.48026,41.16019],[-95.57558,41.16],[-95.72754,41.15999],[-95.80787,41.16027],[-95.88094,41.16027]]]},"properties":{"STATEFP":"19","COUNTYFP":"129","COUNTYNS":"00465253","GEOIDFQ":"0500000US19129","GEOID":"19129","NAME":"Mills","NAMELSAD":"Mills County","STUSPS":"IA","STATE_NAME":"Iowa","LSAD":"06","ALAND":1132940501,"AWATER":8319851}},
{"type":"Feature","geometry":{"type":"Polygon","coordinates":[[[-94.85841,42.20969],[-94.7449,42.20952],[-94.62881,42.2094],[-94.62859,42.20957],[-94.5131,42.20932],[-94.39753,42.20916],[-94.39764,42.27355],[-94.39718,42.38375],[-94.39767,42.4733],[-94.44303,42.47338],[-94.44302,42.55884],[-94.56011,42.55922],[-94.61885,42.56],[-94.67812,42.55921],[-94.72356,42.55925],[-94.7964,42.55962],[-94.91448,42.56031],[-94.91467,42.55706],[-94.91449,42.47419],[-94.85669,42.474],[-94.85712,42.38496],[-94.85823,42.29627],[-94.85841,42.20969]]]},"properties":{"STATEFP":"19","COUNTYFP":"025","COUNTYNS":"00465202","GEOIDFQ":"0500000US19025","GEOID":"19025","NAME":"Calhoun","NAMELSAD":"Calhoun County","STUSPS":"IA","STATE_NAME":"Iowa","LSAD":"06","ALAND":1475894595,"AWATER":5873827}},
{"type":"Feature","geometry":{"type":"Polygon","coordinates":[[[-92.06477,42.29726],[-92.18143,42.29748],[-92.29879,42.29753],[-92.29884,42.21077],[-92.29932,42.16312],[-92.29913,42.0795],[-92.29771,41.99294],[-92.29727,41.97854],[-92.29811,41.90717],[-92.29816,41.86278],[-92.23953,41.86306],[-92.18665,41.86259],[-92.06446,41.86298],[-92.05451,41.86269],[-91.90867,41.86161],[-91.83138,41.86185],[-91.83168,41.88727],[-91.83365,41.96401],[-91.83526,42.03695],[-91.83453,42.12461],[-91.83261,42.21203],[-91.83109,42.29906],[-91.90913,42.29793],[-91.96507,42.29728],[-91.99153,42.29765],[-92.06477,42.29726]]]},"properties":{"STATEFP":"19","COUNTYFP":"011","COUNTYNS":"00465195","GEOIDFQ":"0500000US19011","GEOID":"19011","NAME":"Benton","NAMELSAD":"Benton County","STUSPS":"IA","STATE_NAME":"Iowa","LSAD":"06","ALAND":1854696282,"AWATER":5857896}},
{"type":"Feature","geometry":{"type":"Polygon","coordinates":[[[-92.08098,43.21295],[-92.08118,43.16923],[-92.08115,43.08279],[-92.00017,43.08256],[-91.92443,43.0825],[-91.85442,43.08192],[-91.72523,43.08177],[-91.60531,43.08165],[-91.60535,43.1031],[-91.60442,43.16822],[-91.60435,43.21147],[-91.6048,43.2548],[-91.6045,43.31522],[-91.60399,43.34205],[-91.61105,43.34208],[-91.61091,43.43189],[-91.6106,43.44584],[-91.61084,43.50065],[-91.63218,43.50044],[-91.70072,43.5007],[-91.82802,43.50074],[-91.95438,43.50066],[-92.0798,43.50073],[-92.08028,43.3567],[-92.08095,43.25562],[-92.08098,43.21295]]]},"properties":{"STATEFP":"19","COUNTYFP":"191","COUNTYNS":"00465284","GEOIDFQ":"0500000US19191","GEOID":"19191","NAME":"Winneshiek","NAMELSAD":"Winneshiek County","STUSPS":"IA","STATE_NAME":"Iowa","LSAD":"06","ALAND":1786686738,"AWATER":745729}},
{"type":"Feature","geometry":{"type":"Polygon","coordinates":[[[-96.49878,42.56104],[-96.49554,42.55644],[-96.47695,42.55608],[-96.47771,42.5356],[-96.47991,42.5242],[-96.4908,42.52033],[-96.49297,42.51728],[-96.49009,42.51244],[-96.47938,42.51114],[-96.47334,42.50354],[-96.4779,42.49435],[-96.47541,42.48962],[-96.46351,42.49046],[-96.45575,42.49256],[-96.45073,42.49111],[-96.40941,42.4876],[-96.39611,42.4841],[-96.38601,42.4745],[-96.38131,42.46169],[-96.38071,42.44639],[-96.38761,42.43249],[-96.41181,42.41089],[-96.41551,42.40029],[-96.41498,42.39344],[-96.40915,42.38149],[-96.40844,42.37609],[-96.41792,42.3587],[-96.41779,42.35145],[-96.41389,42.34339],[-96.408,42.33741],[-96.39627,42.33086],[-96.38417,42.32587],[-96.37531,42.31834],[-96.36997,42.31088],[-96.36851,42.30362],[-96.36845,42.29185],[-96.36579,42.28588],[-96.35639,42.27648],[-96.34145,42.26912],[-96.33133,42.25943],[-96.32771,42.24999],[-96.33,42.24022],[-96.32287,42.23364],[-96.32372,42.22989],[-96.33632,42.21892],[-96.35666,42.21514],[-96.25144,42.21464],[-96.15463,42.21388],[-96.01988,42.21169],[-95.90412,42.21146],[-95.79547,42.21153],[-95.67082,42.21141],[-95.67015,42.23117],[-95.66992,42.26279],[-95.67092,42.32508],[-95.6702,42.36981],[-95.6696,42.375],[-95.66926,42.47465],[-95.74182,42.47487],[-95.74136,42.52356],[-95.74161,42.56129],[-95.85995,42.56062],[-95.97819,42.56109],[-96.02699,42.56104],[-96.17434,42.56143],[-96.21408,42.56192],[-96.23363,42.56142],[-96.40103,42.56211],[-96.43894,42.56209],[-96.49878,42.56104]]]},"properties":{"STATEFP":"19","COUNTYFP":"193","COUNTYNS":"00465285","GEOIDFQ":"0500000US19193","GEOID":"19193","NAME":"Woodbury","NAMELSAD":"Woodbury County","STUSPS":"IA","STATE_NAME":"Iowa","LSAD":"06","ALAND":2260790940,"AWATER":12793662}},
{"type":"Feature","geometry":{"type":"Polygon","coordinates":[[[-92.29749,41.50979],[-92.29781,41.60154],[-92.29949,41.60154],[-92.29995,41.68905],[-92.29987,41.73613],[-92.29882,41.79795],[-92.29816,41.86278],[-92.36606,41.86251],[-92.42554,41.86251],[-92.53309,41.8622],[-92.68852,41.86228],[-92.766,41.86237],[-92.76603,41.79052],[-92.76639,41.7172],[-92.76676,41.60136],[-92.75707,41.60141],[-92.75651,41.50879],[-92.64432,41.50915],[-92.56562,41.50912],[-92.41199,41.50955],[-92.29749,41.50979]]]},"properties":{"STATEFP":"19","COUNTYFP":"157","COUNTYNS":"00465267","GEOIDFQ":"0500000US19157","GEOID":"19157","NAME":"Poweshiek","NAMELSAD":"Poweshiek County","STUSPS":"IA","STATE_NAME":"Iowa","LSAD":"06","ALAND":1514966025,"AWATER":2939275}},
{"type":"Feature","geometry":{"type":"Polygon","coordinates":[[[-94.91389,42.9097],[-94.91384,42.85537],[-94.91393,42.73444],[-94.91556,42.64713],[-94.91448,42.56031],[-94.7964,42.55962],[-94.72356,42.55925],[-94.67812,42.55921],[-94.61885,42.56],[-94.56011,42.55922],[-94.44302,42.55884],[-94.44358,42.59515],[-94.44308,42.64516],[-94.44315,42.73633],[-94.44278,42.8626],[-94.44295,42.90807],[-94.52145,42.90849],[-94.5605,42.90893],[-94.6196,42.9091],[-94.67874,42.90887],[-94.79688,42.90913],[-94.91389,42.9097]]]},"properties":{"STATEFP":"19","COUNTYFP":"151","COUNTYNS":"00465264","GEOIDFQ":"0500000US19151","GEOID":"19151","NAME":"Pocahontas","NAMELSAD":"Pocahontas County","STUSPS":"IA","STATE_NAME":"Iowa","LSAD":"06","ALAND":1495047202,"AWATER":3666528}},
{"type":"Feature","geometry":{"type":"Polygon","coordinates":[[[-93.46304,42.2093],[-93.5813,42.20918],[-93.69839,42.20934],[-93.69858,42.16213],[-93.69874,42.02277],[-93.69813,41.96138],[-93.69803,41.86337],[-93.61997,41.86321],[-93.49818,41.86316],[-93.34793,41.8631],[-93.23186,41.86271],[-93.23172,41.94996],[-93.23169,42.03421],[-93.23154,42.12238],[-93.23172,42.20889],[-93.34661,42.20923],[-93.46304,42.2093]]]},"properties":{"STATEFP":"19","COUNTYFP":"169","COUNTYNS":"00465273","GEOIDFQ":"0500000US19169","GEOID":"19169","NAME":"Story","NAMELSAD":"Story County","STUSPS":"IA","STATE_NAME":"Iowa","LSAD":"06","ALAND":1482882548,"AWATER":2862354}},
{"type":"Feature","geometry":{"type":"Polygon","coordinates":[[[-92.55449,42.64231],[-92.55426,42.62107],[-92.55462,42.56307],[-92.5543,42.55585],[-92.55433,42.4696],[-92.53401,42.46959],[-92.53386,42.38402],[-92.53351,42.297],[-92.41695,42.29728],[-92.29879,42.29753],[-92.18143,42.29748],[-92.06477,42.29726],[-92.06469,42.38462],[-92.06419,42.46822],[-92.08145,42.46819],[-92.08208,42.52287],[-92.08242,42.52631],[-92.08166,42.64206],[-92.25855,42.6422],[-92.36689,42.6423],[-92.49449,42.64224],[-92.55449,42.64231]]]},"properties":{"STATEFP":"19","COUNTYFP":"013","COUNTYNS":"00465196","GEOIDFQ":"0500000US19013","GEOID":"19013","NAME":"Black Hawk","NAMELSAD":"Black Hawk County","STUSPS":"IA","STATE_NAME":"Iowa","LSAD":"06","ALAND":1465346456,"AWATER":17885470}},
{"type":"Feature","geometry":{"type":"Polygon","coordinates":[[[-92.41199,41.50955],[-92.56562,41.50912],[-92.64432,41.50915],[-92.75651,41.50879],[-92.87142,41.50852],[-92.87061,41.34057],[-92.87089,41.27021],[-92.8704,41.24837],[-92.86977,41.16107],[-92.75474,41.16136],[-92.64038,41.1614],[-92.52554,41.16151],[-92.41023,41.16194],[-92.41059,41.20539],[-92.41049,41.24989],[-92.41089,41.27875],[-92.41133,41.36869],[-92.41201,41.48479],[-92.41199,41.50955]]]},"properties":{"STATEFP":"19","COUNTYFP":"123","COUNTYNS":"00465250","GEOIDFQ":"0500000US19123","GEOID":"19123","NAME":"Mahaska","NAMELSAD":"Mahaska County","STUSPS":"IA","STATE_NAME":"Iowa","LSAD":"06","ALAND":1478496996,"AWATER":6594320}},
{"type":"Feature","geometry":{"type":"Polygon","coordinates":[[[-93.32841,41.49079],[-93.33506,41.4874],[-93.33933,41.48272],[-93.34686,41.48283],[-93.35253,41.49689],[-93.35907,41.49634],[-93.35992,41.4878],[-93.37203,41.48607],[-93.37481,41.49329],[-93.38783,41.49378],[-93.39238,41.48839],[-93.39717,41.48637],[-93.40467,41.48674],[-93.40357,41.49105],[-93.39663,41.4963],[-93.40013,41.50201],[-93.40445,41.50161],[-93.40978,41.49501],[-93.41426,41.49236],[-93.42062,41.49253],[-93.42123,41.49688],[-93.41539,41.50031],[-93.41384,41.50742],[-93.42488,41.50749],[-93.4367,41.50228],[-93.44129,41.50759],[-93.46219,41.50808],[-93.54824,41.51131],[-93.62564,41.51205],[-93.79061,41.51192],[-93.79051,41.36652],[-93.78958,41.25689],[-93.7892,41.16204],[-93.68024,41.16171],[-93.59639,41.16155],[-93.55756,41.16127],[-93.44176,41.16054],[-93.32789,41.16066],[-93.32834,41.24798],[-93.32836,41.32777],[-93.32813,41.38238],[-93.32841,41.49079]]]},"properties":{"STATEFP":"19","COUNTYFP":"181","COUNTYNS":"00465279","GEOIDFQ":"0500000US19181","GEOID":"19181","NAME":"Warren","NAMELSAD":"Warren County","STUSPS":"IA","STATE_NAME":"Iowa","LSAD":"06","ALAND":1475407675,"AWATER":8645791}},
{"type":"Feature","geometry":{"type":"Polygon","coordinates":[[[-91.40945,40.81291],[-91.37209,40.81263],[-91.37169,40.87793],[-91.37182,40.89969],[-91.37149,40.97262],[-91.37071,41.07411],[-91.3703,41.16125],[-91.48572,41.16241],[-91.53953,41.16274],[-91.60085,41.16356],[-91.71604,41.16281],[-91.71683,41.08748],[-91.71812,41.00296],[-91.71789,40.92607],[-91.71818,40.90109],[-91.71879,40.81354],[-91.60294,40.81389],[-91.49648,40.81328],[-91.40945,40.81291]]]},"properties":{"STATEFP":"19","COUNTYFP":"087","COUNTYNS":"00465232","GEOIDFQ":"0500000US19087","GEOID":"19087","NAME":"Henry","NAMELSAD":"Henry County","STUSPS":"IA","STATE_NAME":"Iowa","LSAD":"06","ALAND":1124800193,"AWATER":5774825}},
{"type":"Feature","geometry":{"type":"Polygon","coordinates":[[[-95.09085,42.21041],[-95.09169,42.08647],[-95.09213,41.99403],[-95.09308,41.8825],[-95.09286,41.86337],[-94.97625,41.86293],[-94.90807,41.86301],[-94.85976,41.86282],[-94.78348,41.86291],[-94.74488,41.86239],[-94.62872,41.86276],[-94.62935,41.95033],[-94.6291,42.04903],[-94.62903,42.15907],[-94.62881,42.2094],[-94.7449,42.20952],[-94.85841,42.20969],[-94.95562,42.20984],[-95.09085,42.21041]]]},"properties":{"STATEFP":"19","COUNTYFP":"027","COUNTYNS":"00465203","GEOIDFQ":"0500000US19027","GEOID":"19027","NAME":"Carroll","NAMELSAD":"Carroll County","STUSPS":"IA","STATE_NAME":"Iowa","LSAD":"06","ALAND":1474877202,"AWATER":2145349}},
{"type":"Feature","geometry":{"type":"Polygon","coordinates":[[[-94.01419,41.15676],[-93.89881,41.15661],[-93.86381,41.15804],[-93.7892,41.16204],[-93.78958,41.25689],[-93.79051,41.36652],[-93.79061,41.51192],[-93.89712,41.5031],[-93.94035,41.50326],[-94.12523,41.50309],[-94.24159,41.50368],[-94.24145,41.38821],[-94.2417,41.24374],[-94.24164,41.15713],[-94.166,41.15705],[-94.14707,41.1568],[-94.01419,41.15676]]]},"properties":{"STATEFP":"19","COUNTYFP":"121","COUNTYNS":"00465249","GEOIDFQ":"0500000US19121","GEOID":"19121","NAME":"Madison","NAMELSAD":"Madison County","STUSPS":"IA","STATE_NAME":"Iowa","LSAD":"06","ALAND":1452999049,"AWATER":2983840}},
{"type":"Feature","geometry":{"type":"Polygon","coordinates":[[[-95.85995,42.56062],[-95.74161,42.56129],[-95.68205,42.56136],[-95.59449,42.56178],[-95.50612,42.56188],[-95.38801,42.56174],[-95.38818,42.6478],[-95.3875,42.7343],[-95.38778,42.82188],[-95.38815,42.86538],[-95.38818,42.9099],[-95.56393,42.9101],[-95.62304,42.91031],[-95.70201,42.90982],[-95.78061,42.90959],[-95.85938,42.9091],[-95.85857,42.82251],[-95.86081,42.72078],[-95.86026,42.69905],[-95.85954,42.58599],[-95.85995,42.56062]]]},"properties":{"STATEFP":"19","COUNTYFP":"035","COUNTYNS":"00465207","GEOIDFQ":"0500000US19035","GEOID":"19035","NAME":"Cherokee","NAMELSAD":"Cherokee County","STUSPS":"IA","STATE_NAME":"Iowa","LSAD":"06","ALAND":1494181144,"AWATER":423160}},
{"type":"Feature","geometry":{"type":"Polygon","coordinates":[[[-95.38496,40.90155],[-95.52303,40.90167],[-95.70488,40.90143],[-95.74687,40.9017],[-95.81346,40.90169],[-95.80977,40.89545],[-95.81208,40.88424],[-95.81593,40.87985],[-95.82499,40.875],[-95.83873,40.87219],[-95.84407,40.86925],[-95.84778,40.86433],[-95.84708,40.85417],[-95.84131,40.8456],[-95.83719,40.83535],[-95.8386,40.82618],[-95.84392,40.81769],[-95.84534,40.81132],[-95.84374,40.80378],[-95.83581,40.79063],[-95.83416,40.78302],[-95.8369,40.77648],[-95.84282,40.77109],[-95.85278,40.76563],[-95.86998,40.75965],[-95.87903,40.75308],[-95.88364,40.74783],[-95.8887,40.73629],[-95.88891,40.73186],[-95.88318,40.71758],[-95.87701,40.71429],[-95.85938,40.70806],[-95.85261,40.70226],[-95.84793,40.6942],[-95.84603,40.68261],[-95.8428,40.6775],[-95.83218,40.6712],[-95.82291,40.66724],[-95.80431,40.66489],[-95.78948,40.65939],[-95.77625,40.64746],[-95.77132,40.63939],[-95.77008,40.62443],[-95.76441,40.61709],[-95.75127,40.60906],[-95.74863,40.60336],[-95.75315,40.59284],[-95.76564,40.58521],[-95.68744,40.58438],[-95.64184,40.58423],[-95.61107,40.5835],[-95.52539,40.58209],[-95.37392,40.5805],[-95.37388,40.65537],[-95.37062,40.72824],[-95.38525,40.72838],[-95.38481,40.78556],[-95.38464,40.87256],[-95.38496,40.90155]]]},"properties":{"STATEFP":"19","COUNTYFP":"071","COUNTYNS":"00465224","GEOIDFQ":"0500000US19071","GEOID":"19071","NAME":"Fremont","NAMELSAD":"Fremont County","STUSPS":"IA","STATE_NAME":"Iowa","LSAD":"06","ALAND":1323918213,"AWATER":14168938}},
{"type":"Feature","geometry":{"type":"Polygon","coordinates":[[[-95.498,41.50607],[-95.56997,41.50621],[-95.65439,41.50601],[-95.70858,41.50632],[-95.84071,41.50658],[-95.95593,41.50653],[-95.99617,41.50696],[-96.00733,41.49763],[-96.01599,41.49266],[-96.01954,41.48662],[-96.01176,41.47621],[-96.00471,41.47234],[-95.98296,41.46978],[-95.97345,41.46732],[-95.96548,41.46351],[-95.95702,41.46281],[-95.94646,41.46617],[-95.93292,41.4638],[-95.92571,41.45938],[-95.92028,41.45157],[-95.92058,41.4443],[-95.9307,41.43389],[-95.93317,41.42943],[-95.92989,41.41516],[-95.93078,41.40618],[-95.93689,41.39639],[-95.93519,41.3844],[-95.92929,41.3749],[-95.93099,41.3647],[-95.94099,41.3575],[-95.95219,41.3535],[-95.95679,41.3492],[-95.95309,41.3399],[-95.93929,41.3289],[-95.92569,41.3222],[-95.91379,41.3202],[-95.89929,41.3212],[-95.88869,41.3191],[-95.87819,41.3125],[-95.87469,41.3071],[-95.87149,41.2958],[-95.87289,41.2895],[-95.88239,41.2814],[-95.90249,41.2734],[-95.91249,41.2795],[-95.90429,41.2935],[-95.90589,41.3009],[-95.92029,41.3011],[-95.92749,41.2984],[-95.92959,41.2923],[-95.92869,41.2814],[-95.91399,41.2714],[-95.92039,41.2684],[-95.92129,41.2585],[-95.91139,41.238],[-95.91089,41.2318],[-95.91509,41.223],[-95.92489,41.2112],[-95.92749,41.2022],[-95.92599,41.1957],[-95.91829,41.1867],[-95.90969,41.1844],[-95.86479,41.1883],[-95.85019,41.1848],[-95.84409,41.1806],[-95.84129,41.175],[-95.84619,41.1667],[-95.85279,41.1654],[-95.87191,41.16812],[-95.88094,41.16027],[-95.80787,41.16027],[-95.72754,41.15999],[-95.57558,41.16],[-95.48026,41.16019],[-95.38435,41.16001],[-95.26998,41.1595],[-95.15585,41.15924],[-95.15532,41.21734],[-95.15534,41.3022],[-95.15516,41.33902],[-95.15566,41.35697],[-95.15461,41.38846],[-95.15529,41.50003],[-95.15472,41.50521],[-95.28868,41.50567],[-95.43953,41.5059],[-95.498,41.50607]]]},"properties":{"STATEFP":"19","COUNTYFP":"155","COUNTYNS":"00465266","GEOIDFQ":"0500000US19155","GEOID":"19155","NAME":"Pottawattamie","NAMELSAD":"Pottawattamie County","STUSPS":"IA","STATE_NAME":"Iowa","LSAD":"06","ALAND":2463787905,"AWATER":20381963}},
{"type":"Feature","geometry":{"type":"Polygon","coordinates":[[[-91.13277,42.64584],[-91.01494,42.64634],[-90.89741,42.64571],[-90.8969,42.67526],[-90.9134,42.68295],[-90.92115,42.68541],[-90.93704,42.6834],[-90.95241,42.68678],[-90.96505,42.69323],[-90.97424,42.69525],[-90.98058,42.69893],[-90.98878,42.70872],[-90.99554,42.7137],[-91.00958,42.72012],[-91.01724,42.71957],[-91.02969,42.72677],[-91.03201,42.73448],[-91.03542,42.73734],[-91.04414,42.73861],[-91.05127,42.737],[-91.05481,42.74469],[-91.06017,42.75048],[-91.06468,42.75091],[-91.06549,42.75708],[-91.06026,42.76185],[-91.06955,42.76963],[-91.07114,42.783],[-91.07548,42.79547],[-91.0781,42.80653],[-91.07931,42.82031],[-91.07866,42.82768],[-91.08277,42.82998],[-91.09014,42.82924],[-91.09511,42.83497],[-91.0914,42.84986],[-91.09766,42.85987],[-91.09882,42.86442],[-91.09824,42.8758],[-91.10056,42.88308],[-91.11741,42.89584],[-91.138,42.90377],[-91.14337,42.90467],[-91.14618,42.90985],[-91.14388,42.92065],[-91.14431,42.92659],[-91.14978,42.94024],[-91.14909,42.94655],[-91.14554,42.95651],[-91.14655,42.96335],[-91.15656,42.97823],[-91.15749,42.99148],[-91.16828,43.01943],[-91.17469,43.03871],[-91.17946,43.06743],[-91.17726,43.07298],[-91.17722,43.08025],[-91.23113,43.0804],[-91.28568,43.08102],[-91.41977,43.08134],[-91.55341,43.08169],[-91.60531,43.08165],[-91.60609,42.9706],[-91.60661,42.92781],[-91.60713,42.83675],[-91.60783,42.81124],[-91.60643,42.72406],[-91.60706,42.64397],[-91.54222,42.64441],[-91.48799,42.64402],[-91.41101,42.64438],[-91.36718,42.64495],[-91.2508,42.64558],[-91.13277,42.64584]]]},"properties":{"STATEFP":"19","COUNTYFP":"043","COUNTYNS":"00465210","GEOIDFQ":"0500000US19043","GEOID":"19043","NAME":"Clayton","NAMELSAD":"Clayton County","STUSPS":"IA","STATE_NAME":"Iowa","LSAD":"06","ALAND":2016211326,"AWATER":36692127}},
{"type":"Feature","geometry":{"type":"Polygon","coordinates":[[[-92.29879,42.29753],[-92.41695,42.29728],[-92.53351,42.297],[-92.5723,42.29688],[-92.76809,42.29668],[-92.76746,42.21014],[-92.76705,42.16681],[-92.7667,42.09288],[-92.76589,41.99247],[-92.7657,41.91733],[-92.766,41.86237],[-92.68852,41.86228],[-92.53309,41.8622],[-92.42554,41.86251],[-92.36606,41.86251],[-92.29816,41.86278],[-92.29811,41.90717],[-92.29727,41.97854],[-92.29771,41.99294],[-92.29913,42.0795],[-92.29932,42.16312],[-92.29884,42.21077],[-92.29879,42.29753]]]},"properties":{"STATEFP":"19","COUNTYFP":"171","COUNTYNS":"00465274","GEOIDFQ":"0500000US19171","GEOID":"19171","NAME":"Tama","NAMELSAD":"Tama County","STUSPS":"IA","STATE_NAME":"Iowa","LSAD":"06","ALAND":1867410504,"AWATER":2769418}},
{"type":"Feature","geometry":{"type":"Polygon","coordinates":[[[-92.55421,42.90711],[-92.65339,42.9071],[-92.81912,42.90717],[-93.02514,42.90755],[-93.0258,42.76683],[-93.02647,42.64327],[-93.027,42.55681],[-92.94727,42.55657],[-92.90795,42.5562],[-92.79065,42.55585],[-92.62519,42.55579],[-92.5543,42.55585],[-92.55462,42.56307],[-92.55426,42.62107],[-92.55449,42.64231],[-92.55441,42.68588],[-92.5548,42.70269],[-92.55444,42.74463],[-92.5544,42.81827],[-92.55421,42.90711]]]},"properties":{"STATEFP":"19","COUNTYFP":"023","COUNTYNS":"00465201","GEOIDFQ":"0500000US19023","GEOID":"19023","NAME":"Butler","NAMELSAD":"Butler County","STUSPS":"IA","STATE_NAME":"Iowa","LSAD":"06","ALAND":1502550827,"AWATER":4194983}},
{"type":"Feature","geometry":{"type":"Polygon","coordinates":[[[-92.55438,43.21281],[-92.69284,43.2125],[-92.75218,43.21282],[-92.81045,43.21258],[-92.90501,43.21276],[-92.95956,43.2126],[-93.02409,43.21281],[-93.02405,43.16928],[-93.02344,43.13362],[-93.02396,43.09566],[-93.02298,43.03277],[-93.02349,42.99457],[-93.02463,42.98022],[-93.02514,42.90755],[-92.81912,42.90717],[-92.65339,42.9071],[-92.55421,42.90711],[-92.5541,43.02324],[-92.55406,43.12411],[-92.55446,43.16931],[-92.55438,43.21281]]]},"properties":{"STATEFP":"19","COUNTYFP":"067","COUNTYNS":"00465222","GEOIDFQ":"0500000US19067","GEOID":"19067","NAME":"Floyd","NAMELSAD":"Floyd County","STUSPS":"IA","STATE_NAME":"Iowa","LSAD":"06","ALAND":1296471925,"AWATER":2023929}},
{"type":"Feature","geometry":{"type":"Polygon","coordinates":[[[-91.36326,42.29645],[-91.36402,42.20201],[-91.36486,42.13693],[-91.36487,42.03452],[-91.36588,41.94741],[-91.32775,41.94718],[-91.24911,41.94721],[-91.13217,41.94678],[-91.01498,41.9466],[-90.9765,41.94669],[-90.89848,41.94625],[-90.89837,42.03355],[-90.89823,42.12059],[-90.89865,42.13509],[-90.89835,42.17243],[-90.89802,42.29524],[-90.93443,42.29513],[-91.00782,42.29577],[-91.13008,42.29576],[-91.23723,42.296],[-91.31062,42.29643],[-91.36326,42.29645]]]},"properties":{"STATEFP":"19","COUNTYFP":"105","COUNTYNS":"00465241","GEOIDFQ":"0500000US19105","GEOID":"19105","NAME":"Jones","NAMELSAD":"Jones County","STUSPS":"IA","STATE_NAME":"Iowa","LSAD":"06","ALAND":1490844763,"AWATER":3782491}},
{"type":"Feature","geometry":{"type":"Polygon","coordinates":[[[-91.60531,43.08165],[-91.55341,43.08169],[-91.41977,43.08134],[-91.28568,43.08102],[-91.23113,43.0804],[-91.17722,43.08025],[-91.17519,43.10377],[-91.17773,43.11873],[-91.17793,43.12888],[-91.17525,43.13467],[-91.1562,43.14295],[-91.14328,43.15641],[-91.13865,43.16999],[-91.13417,43.17441],[-91.12443,43.18789],[-91.1239,43.19354],[-91.11911,43.20037],[-91.10793,43.20658],[-91.07928,43.22826],[-91.06256,43.24317],[-91.05791,43.25397],[-91.0618,43.25995],[-91.07265,43.26213],[-91.07172,43.27139],[-91.08565,43.29187],[-91.10724,43.31365],[-91.12912,43.32635],[-91.13734,43.32976],[-91.15481,43.33483],[-91.17105,43.34097],[-91.18111,43.34593],[-91.20185,43.3491],[-91.20662,43.35252],[-91.21477,43.36587],[-91.21336,43.3701],[-91.20607,43.37498],[-91.19895,43.38984],[-91.19767,43.39533],[-91.20314,43.41981],[-91.20714,43.42503],[-91.22875,43.44554],[-91.23337,43.45517],[-91.23224,43.46002],[-91.22459,43.46553],[-91.2204,43.47131],[-91.21528,43.4848],[-91.21761,43.49101],[-91.21771,43.50055],[-91.25748,43.50098],[-91.43662,43.5007],[-91.571,43.50054],[-91.61084,43.50065],[-91.6106,43.44584],[-91.61091,43.43189],[-91.61105,43.34208],[-91.60399,43.34205],[-91.6045,43.31522],[-91.6048,43.2548],[-91.60435,43.21147],[-91.60442,43.16822],[-91.60535,43.1031],[-91.60531,43.08165]]]},"properties":{"STATEFP":"19","COUNTYFP":"005","COUNTYNS":"00465192","GEOIDFQ":"0500000US19005","GEOID":"19005","NAME":"Allamakee","NAMELSAD":"Allamakee County","STUSPS":"IA","STATE_NAME":"Iowa","LSAD":"06","ALAND":1655186565,"AWATER":51091699}},
{"type":"Feature","geometry":{"type":"Polygon","coordinates":[[[-93.00167,42.20927],[-92.86933,42.21007],[-92.76746,42.21014],[-92.76809,42.29668],[-92.5723,42.29688],[-92.53351,42.297],[-92.53386,42.38402],[-92.53401,42.46959],[-92.55433,42.4696],[-92.5543,42.55585],[-92.62519,42.55579],[-92.79065,42.55585],[-92.90795,42.5562],[-92.94727,42.55657],[-93.027,42.55681],[-93.02679,42.52879],[-93.02711,42.47078],[-93.0029,42.47064],[-93.00227,42.3538],[-93.00167,42.20927]]]},"properties":{"STATEFP":"19","COUNTYFP":"075","COUNTYNS":"00465226","GEOIDFQ":"0500000US19075","GEOID":"19075","NAME":"Grundy","NAMELSAD":"Grundy County","STUSPS":"IA","STATE_NAME":"Iowa","LSAD":"06","ALAND":1299799697,"AWATER":92512}},
{"type":"Feature","geometry":{"type":"Polygon","coordinates":[[[-95.86191,43.25757],[-95.86227,43.21486],[-95.86029,43.0837],[-95.86017,43.04024],[-95.85938,42.9091],[-95.78061,42.90959],[-95.70201,42.90982],[-95.62304,42.91031],[-95.56393,42.9101],[-95.38818,42.9099],[-95.38876,42.99616],[-95.38776,43.14207],[-95.38817,43.19858],[-95.38808,43.25522],[-95.50577,43.25575],[-95.62435,43.25842],[-95.74338,43.25814],[-95.86191,43.25757]]]},"properties":{"STATEFP":"19","COUNTYFP":"141","COUNTYNS":"00465259","GEOIDFQ":"0500000US19141","GEOID":"19141","NAME":"O'Brien","NAMELSAD":"O'Brien County","STUSPS":"IA","STATE_NAME":"Iowa","LSAD":"06","ALAND":1484153947,"AWATER":447448}},
{"type":"Feature","geometry":{"type":"Polygon","coordinates":[[[-92.63909,40.89889],[-92.7539,40.8986],[-92.8308,40.89855],[-92.87403,40.89822],[-92.8752,40.89871],[-93.0002,40.89827],[-93.09759,40.89845],[-93.09775,40.84101],[-93.09747,40.76361],[-93.09731,40.66692],[-93.0973,40.58401],[-93.08552,40.5844],[-92.94159,40.58774],[-92.90354,40.58786],[-92.87918,40.58834],[-92.75741,40.58891],[-92.68985,40.58988],[-92.6379,40.59085],[-92.63825,40.63134],[-92.63788,40.67482],[-92.63889,40.76894],[-92.63894,40.87077],[-92.63909,40.89889]]]},"properties":{"STATEFP":"19","COUNTYFP":"007","COUNTYNS":"00465193","GEOIDFQ":"0500000US19007","GEOID":"19007","NAME":"Appanoose","NAMELSAD":"Appanoose County","STUSPS":"IA","STATE_NAME":"Iowa","LSAD":"06","ALAND":1287997907,"AWATER":49093607}},
{"type":"Feature","geometry":{"type":"Polygon","coordinates":[[[-94.92846,40.90065],[-94.9286,40.90177],[-94.92786,41.00849],[-94.92758,41.10147],[-94.92759,41.15851],[-95.0294,41.15864],[-95.15585,41.15924],[-95.26998,41.1595],[-95.38435,41.16001],[-95.38472,41.07325],[-95.38442,41.01239],[-95.38475,40.98745],[-95.38474,40.90875],[-95.38496,40.90155],[-95.32754,40.90132],[-95.29895,40.90152],[-95.22258,40.90119],[-95.04227,40.90071],[-94.92846,40.90065]]]},"properties":{"STATEFP":"19","COUNTYFP":"137","COUNTYNS":"00465257","GEOIDFQ":"0500000US19137","GEOID":"19137","NAME":"Montgomery","NAMELSAD":"Montgomery County","STUSPS":"IA","STATE_NAME":"Iowa","LSAD":"06","ALAND":1098405766,"AWATER":2410446}},
{"type":"Feature","geometry":{"type":"Polygon","coordinates":[[[-91.36852,41.42318],[-91.39157,41.42363],[-91.44239,41.42358],[-91.46185,41.42423],[-91.48399,41.42385],[-91.48476,41.30779],[-91.48594,41.20603],[-91.48572,41.16241],[-91.3703,41.16125],[-91.37071,41.07411],[-91.25553,41.07415],[-91.17162,41.07307],[-91.0354,41.07294],[-90.94938,41.07271],[-90.94663,41.09663],[-90.95725,41.11109],[-90.9659,41.11956],[-90.97085,41.13011],[-90.98131,41.14266],[-90.98966,41.15572],[-90.99791,41.16256],[-91.00759,41.16618],[-91.02721,41.16337],[-91.04154,41.16614],[-91.05507,41.18577],[-91.0659,41.19952],[-91.08144,41.21443],[-91.09302,41.22263],[-91.10083,41.23053],[-91.10956,41.23657],[-91.11365,41.2414],[-91.11419,41.25003],[-91.10114,41.26717],[-91.09203,41.28691],[-91.08688,41.29437],[-91.0775,41.30183],[-91.07323,41.31344],[-91.07194,41.33359],[-91.13856,41.33443],[-91.22994,41.33517],[-91.25381,41.33555],[-91.36933,41.33606],[-91.36852,41.42318]]]},"properties":{"STATEFP":"19","COUNTYFP":"115","COUNTYNS":"00465246","GEOIDFQ":"0500000US19115","GEOID":"19115","NAME":"Louisa","NAMELSAD":"Louisa County","STUSPS":"IA","STATE_NAME":"Iowa","LSAD":"06","ALAND":1040596812,"AWATER":40784321}},
{"type":"Feature","geometry":{"type":"Polygon","coordinates":[[[-93.23172,42.20889],[-93.23154,42.12238],[-93.23169,42.03421],[-93.23172,41.94996],[-93.23186,41.86271],[-93.1162,41.86265],[-92.99978,41.86248],[-92.88322,41.86238],[-92.766,41.86237],[-92.7657,41.91733],[-92.76589,41.99247],[-92.7667,42.09288],[-92.76705,42.16681],[-92.76746,42.21014],[-92.86933,42.21007],[-93.00167,42.20927],[-93.03338,42.20926],[-93.12275,42.2087],[-93.23172,42.20889]]]},"properties":{"STATEFP":"19","COUNTYFP":"127","COUNTYNS":"00465252","GEOIDFQ":"0500000US19127","GEOID":"19127","NAME":"Marshall","NAMELSAD":"Marshall County","STUSPS":"IA","STATE_NAME":"Iowa","LSAD":"06","ALAND":1482776070,"AWATER":1803080}},
{"type":"Feature","geometry":{"type":"Polygon","coordinates":[[[-93.32861,41.50782],[-93.3289,41.53431],[-93.32868,41.60115],[-93.34868,41.601],[-93.34832,41.74647],[-93.34793,41.8631],[-93.49818,41.86316],[-93.61997,41.86321],[-93.69803,41.86337],[-93.81572,41.86342],[-93.81535,41.84569],[-93.81441,41.68843],[-93.81428,41.60046],[-93.79063,41.60043],[-93.79061,41.51192],[-93.62564,41.51205],[-93.54824,41.51131],[-93.46219,41.50808],[-93.44129,41.50759],[-93.4367,41.50228],[-93.42488,41.50749],[-93.41384,41.50742],[-93.41539,41.50031],[-93.42123,41.49688],[-93.42062,41.49253],[-93.41426,41.49236],[-93.40978,41.49501],[-93.40445,41.50161],[-93.40013,41.50201],[-93.39663,41.4963],[-93.40357,41.49105],[-93.40467,41.48674],[-93.39717,41.48637],[-93.39238,41.48839],[-93.38783,41.49378],[-93.37481,41.49329],[-93.37203,41.48607],[-93.35992,41.4878],[-93.35907,41.49634],[-93.35253,41.49689],[-93.34686,41.48283],[-93.33933,41.48272],[-93.33506,41.4874],[-93.32841,41.49079],[-93.32861,41.50782]]]},"properties":{"STATEFP":"19","COUNTYFP":"153","COUNTYNS":"00465265","GEOIDFQ":"0500000US19153","GEOID":"19153","NAME":"Polk","NAMELSAD":"Polk County","STUSPS":"IA","STATE_NAME":"Iowa","LSAD":"06","ALAND":1483337993,"AWATER":49645909}},
{"type":"Feature","geometry":{"type":"Polygon","coordinates":[[[-93.49948,42.5577],[-93.56804,42.55755],[-93.73496,42.55759],[-93.8536,42.5575],[-93.89353,42.55794],[-93.97158,42.55814],[-93.9716,42.47208],[-93.93168,42.47201],[-93.93191,42.38371],[-93.93164,42.3135],[-93.93185,42.28948],[-93.93158,42.20991],[-93.81573,42.2096],[-93.69839,42.20934],[-93.5813,42.20918],[-93.46304,42.2093],[-93.46288,42.296],[-93.46291,42.42707],[-93.46263,42.4708],[-93.4991,42.47098],[-93.49948,42.5577]]]},"properties":{"STATEFP":"19","COUNTYFP":"079","COUNTYNS":"00465228","GEOIDFQ":"0500000US19079","GEOID":"19079","NAME":"Hamilton","NAMELSAD":"Hamilton County","STUSPS":"IA","STATE_NAME":"Iowa","LSAD":"06","ALAND":1493725532,"AWATER":1956182}},
{"type":"Feature","geometry":{"type":"Polygon","coordinates":[[[-92.41023,41.16194],[-92.52554,41.16151],[-92.64038,41.1614],[-92.63993,41.08225],[-92.63949,40.98712],[-92.63909,40.89889],[-92.52476,40.89912],[-92.44801,40.89903],[-92.30096,40.89929],[-92.17907,40.89972],[-92.17922,40.98504],[-92.1796,41.04602],[-92.17997,41.16266],[-92.33424,41.16216],[-92.41023,41.16194]]]},"properties":{"STATEFP":"19","COUNTYFP":"179","COUNTYNS":"00465278","GEOIDFQ":"0500000US19179","GEOID":"19179","NAME":"Wapello","NAMELSAD":"Wapello County","STUSPS":"IA","STATE_NAME":"Iowa","LSAD":"06","ALAND":1118466903,"AWATER":10822776}},
{"type":"Feature","geometry":{"type":"Polygon","coordinates":[[[-94.1647,42.20992],[-93.97978,42.20985],[-93.93158,42.20991],[-93.93185,42.28948],[-93.93164,42.3135],[-93.93191,42.38371],[-93.93168,42.47201],[-93.9716,42.47208],[-93.97158,42.55814],[-93.97171,42.64471],[-94.18751,42.64472],[-94.19246,42.64434],[-94.32479,42.64509],[-94.38351,42.645],[-94.44308,42.64516],[-94.44358,42.59515],[-94.44302,42.55884],[-94.44303,42.47338],[-94.39767,42.4733],[-94.39718,42.38375],[-94.39764,42.27355],[-94.39753,42.20916],[-94.37869,42.20907],[-94.30101,42.20961],[-94.1647,42.20992]]]},"properties":{"STATEFP":"19","COUNTYFP":"187","COUNTYNS":"00465282","GEOIDFQ":"0500000US19187","GEOID":"19187","NAME":"Webster","NAMELSAD":"Webster County","STUSPS":"IA","STATE_NAME":"Iowa","LSAD":"06","ALAND":1853665901,"AWATER":7269394}},
{"type":"Feature","geometry":{"type":"Polygon","coordinates":[[[-91.13008,42.29576],[-91.00782,42.29577],[-90.93443,42.29513],[-90.89802,42.29524],[-90.85005,42.29492],[-90.75013,42.2947],[-90.66555,42.2947],[-90.66503,42.38216],[-90.62513,42.38231],[-90.50228,42.382],[-90.47381,42.38146],[-90.48015,42.38462],[-90.48715,42.38514],[-90.50013,42.39554],[-90.51752,42.40302],[-90.54807,42.41312],[-90.55502,42.41614],[-90.55817,42.42098],[-90.56044,42.4329],[-90.56525,42.43874],[-90.57074,42.4417],[-90.60633,42.45151],[-90.62433,42.4589],[-90.64673,42.4719],[-90.65403,42.4785],[-90.65633,42.4836],[-90.65593,42.4917],[-90.64284,42.50848],[-90.63599,42.51541],[-90.63598,42.51871],[-90.64167,42.52962],[-90.64403,42.53986],[-90.65413,42.5499],[-90.65913,42.5579],[-90.66153,42.568],[-90.67937,42.5815],[-90.68697,42.59177],[-90.688,42.5992],[-90.694,42.61451],[-90.70009,42.62246],[-90.70267,42.63076],[-90.7092,42.63608],[-90.72021,42.64076],[-90.76949,42.65144],[-90.8525,42.66482],[-90.86712,42.66873],[-90.88743,42.67247],[-90.8969,42.67526],[-90.89741,42.64571],[-91.01494,42.64634],[-91.13277,42.64584],[-91.13444,42.55866],[-91.13419,42.47127],[-91.13089,42.47126],[-91.13062,42.4029],[-91.13008,42.29576]]]},"properties":{"STATEFP":"19","COUNTYFP":"061","COUNTYNS":"00465219","GEOIDFQ":"0500000US19061","GEOID":"19061","NAME":"Dubuque","NAMELSAD":"Dubuque County","STUSPS":"IA","STATE_NAME":"Iowa","LSAD":"06","ALAND":1575486018,"AWATER":21140740}},
{"type":"Feature","geometry":{"type":"Polygon","coordinates":[[[-94.91372,43.25505],[-95.09226,43.25544],[-95.26926,43.25537],[-95.38808,43.25522],[-95.38817,43.19858],[-95.38776,43.14207],[-95.38876,42.99616],[-95.38818,42.9099],[-95.2691,42.90997],[-95.20352,42.90982],[-95.11101,42.90989],[-95.05335,42.90968],[-94.91389,42.9097],[-94.91386,42.99579],[-94.91357,43.08308],[-94.91346,43.16875],[-94.91372,43.25505]]]},"properties":{"STATEFP":"19","COUNTYFP":"041","COUNTYNS":"00465625","GEOIDFQ":"0500000US19041","GEOID":"19041","NAME":"Clay","NAMELSAD":"Clay County","STUSPS":"IA","STATE_NAME":"Iowa","LSAD":"06","ALAND":1469139451,"AWATER":13866670}}
]}