{"type":"FeatureCollection", "features": [
{"type":"Feature","geometry":{"type":"MultiPolygon","coordinates":[[[[-70.61725,42.99202],[-70.61852,42.98566],[-70.60783,42.97776],[-70.60135,42.98108],[-70.61725,42.99202]]],[[[-70.98904,43.79215],[-70.9849,43.75298],[-70.98208,43.71504],[-70.98195,43.70096],[-70.97571,43.62508],[-70.97272,43.57026],[-70.95586,43.55979],[-70.95084,43.55103],[-70.95343,43.54438],[-70.96334,43.53525],[-70.95822,43.53159],[-70.95404,43.5188],[-70.95919,43.49935],[-70.96957,43.4862],[-70.96045,43.46659],[-70.9669,43.45046],[-70.96115,43.43832],[-70.96878,43.43489],[-70.96836,43.42928],[-70.98681,43.41426],[-70.98668,43.40354],[-70.98282,43.39931],[-70.98739,43.39346],[-70.98433,43.37613],[-70.97641,43.36727],[-70.97486,43.35797],[-70.96723,43.34378],[-70.96044,43.34105],[-70.95653,43.33469],[-70.93711,43.33737],[-70.93078,43.32957],[-70.91642,43.32028],[-70.912,43.31982],[-70.91162,43.30995],[-70.90139,43.29876],[-70.8963,43.28528],[-70.8865,43.28278],[-70.8817,43.27248],[-70.8743,43.27187],[-70.87029,43.26631],[-70.86323,43.26511],[-70.85961,43.25734],[-70.8433,43.25432],[-70.83868,43.24293],[-70.81786,43.23791],[-70.81545,43.22902],[-70.80967,43.22456],[-70.8169,43.2146],[-70.82076,43.19978],[-70.8207,43.19166],[-70.8283,43.18669],[-70.8235,43.17459],[-70.8283,43.16899],[-70.8291,43.15789],[-70.8338,43.14689],[-70.8268,43.12709],[-70.80871,43.11707],[-70.78388,43.10087],[-70.7791,43.09589],[-70.768,43.09359],[-70.7564,43.07999],[-70.7419,43.07739],[-70.73808,43.07382],[-70.7065,43.07533],[-70.70382,43.05983],[-70.67311,43.07031],[-70.66596,43.07623],[-70.66297,43.08835],[-70.65622,43.09316],[-70.65129,43.10139],[-70.63835,43.11418],[-70.63445,43.12028],[-70.63207,43.13316],[-70.62251,43.13457],[-70.62233,43.14231],[-70.62595,43.14738],[-70.61897,43.16363],[-70.6111,43.16843],[-70.59619,43.16347],[-70.59533,43.17141],[-70.60878,43.1756],[-70.59381,43.18912],[-70.58781,43.19986],[-70.58804,43.20866],[-70.57669,43.21765],[-70.57579,43.22186],[-70.58787,43.23658],[-70.58858,43.24385],[-70.59391,43.2493],[-70.58518,43.27011],[-70.57687,43.2819],[-70.57099,43.28418],[-70.57097,43.29037],[-70.56278,43.31061],[-70.55385,43.32189],[-70.53524,43.33677],[-70.51769,43.34404],[-70.50304,43.34452],[-70.50049,43.34216],[-70.48376,43.3473],[-70.47432,43.34712],[-70.47249,43.34271],[-70.45119,43.3467],[-70.44568,43.35381],[-70.42853,43.35482],[-70.41631,43.36106],[-70.41846,43.37254],[-70.42442,43.37966],[-70.42767,43.38925],[-70.42128,43.39578],[-70.40756,43.40092],[-70.39996,43.40084],[-70.38095,43.41145],[-70.38703,43.41467],[-70.37704,43.42072],[-70.37664,43.42764],[-70.36201,43.43908],[-70.33878,43.4435],[-70.33478,43.45149],[-70.33726,43.45724],[-70.35755,43.45783],[-70.3635,43.45213],[-70.37223,43.45508],[-70.38293,43.46967],[-70.38561,43.48703],[-70.38488,43.49604],[-70.37912,43.5072],[-70.36121,43.52919],[-70.35339,43.53541],[-70.41297,43.56511],[-70.45346,43.58587],[-70.45179,43.58751],[-70.49201,43.60677],[-70.45774,43.64237],[-70.4737,43.65548],[-70.54996,43.7158],[-70.5774,43.68719],[-70.59534,43.6972],[-70.60564,43.6877],[-70.61449,43.69833],[-70.63087,43.70445],[-70.64257,43.70299],[-70.64974,43.69914],[-70.65737,43.70154],[-70.65962,43.7109],[-70.65342,43.73143],[-70.64556,43.74173],[-70.64397,43.75559],[-70.65108,43.75845],[-70.65588,43.76605],[-70.64984,43.76837],[-70.6557,43.78026],[-70.65299,43.78754],[-70.66281,43.79125],[-70.67547,43.7894],[-70.68434,43.7968],[-70.68959,43.79585],[-70.69895,43.80401],[-70.70148,43.79793],[-70.71264,43.79961],[-70.73323,43.78955],[-70.74532,43.78803],[-70.76607,43.79242],[-70.78033,43.80352],[-70.78298,43.81415],[-70.79167,43.81287],[-70.79927,43.80778],[-70.81601,43.81135],[-70.82133,43.80744],[-70.84121,43.80989],[-70.84333,43.80761],[-70.86128,43.80469],[-70.88066,43.81086],[-70.89923,43.80231],[-70.91268,43.80091],[-70.92707,43.7903],[-70.94086,43.79229],[-70.95755,43.78512],[-70.96421,43.7881],[-70.97437,43.78635],[-70.98278,43.79367],[-70.98904,43.79215]]]]},"properties":{"STATEFP":"23","COUNTYFP":"031","COUNTYNS":"00581301","GEOIDFQ":"0500000US23031","GEOID":"23031","NAME":"York","NAMELSAD":"York County","STUSPS":"ME","STATE_NAME":"Maine","LSAD":"06","ALAND":2567181935,"AWATER":721357012}},
{"type":"Feature","geometry":{"type":"MultiPolygon","coordinates":[[[[-67.3226,44.6116],[-67.31379,44.60405],[-67.31415,44.59747],[-67.29234,44.59913],[-67.28045,44.60979],[-67.2738,44.60996],[-67.26363,44.60361],[-67.26099,44.60866],[-67.27903,44.61588],[-67.28972,44.61672],[-67.29971,44.62112],[-67.31111,44.61671],[-67.30969,44.61216],[-67.3226,44.6116]]],[[[-67.36935,44.66915],[-67.36673,44.66441],[-67.35604,44.66357],[-67.35461,44.66898],[-67.36935,44.66915]]],[[[-67.54161,44.58934],[-67.54161,44.57804],[-67.53328,44.56435],[-67.51841,44.55424],[-67.51053,44.55307],[-67.49175,44.55612],[-67.48999,44.56097],[-67.51148,44.56611],[-67.52003,44.57966],[-67.51243,44.58457],[-67.4908,44.57526],[-67.48153,44.58041],[-67.49034,44.58659],[-67.50268,44.58829],[-67.51424,44.59767],[-67.51841,44.59588],[-67.51599,44.58728],[-67.53334,44.58338],[-67.53437,44.58925],[-67.54161,44.58934]]],[[[-67.56377,44.51055],[-67.56362,44.50725],[-67.54523,44.49563],[-67.54737,44.49054],[-67.54309,44.47376],[-67.53155,44.47411],[-67.52675,44.48364],[-67.51063,44.49641],[-67.51603,44.50665],[-67.52954,44.51309],[-67.55256,44.51566],[-67.56377,44.51055]]],[[[-67.62129,44.50784],[-67.61511,44.50224],[-67.6072,44.50358],[-67.60316,44.48502],[-67.59371,44.46748],[-67.59529,44.4622],[-67.58576,44.4481],[-67.57421,44.45173],[-67.56971,44.4573],[-67.57042,44.47189],[-67.56265,44.4721],[-67.57874,44.48512],[-67.58017,44.49071],[-67.59063,44.49415],[-67.58926,44.50084],[-67.58326,44.50817],[-67.57731,44.52173],[-67.58587,44.52207],[-67.58774,44.5162],[-67.60275,44.50902],[-67.60489,44.51546],[-67.59918,44.52258],[-67.61796,44.52156],[-67.62129,44.50784]]],[[[-67.64767,44.51445],[-67.64505,44.50461],[-67.62818,44.51495],[-67.64767,44.51445]]],[[[-67.79216,44.48081],[-67.78902,44.47236],[-67.7798,44.47708],[-67.79216,44.48081]]],[[[-67.81949,44.51065],[-67.8145,44.49658],[-67.80618,44.4859],[-67.79667,44.48285],[-67.7942,44.49421],[-67.80263,44.49775],[-67.80472,44.50814],[-67.81046,44.51268],[-67.81949,44.51065]]],[[[-67.83589,44.53658],[-67.8328,44.51997],[-67.82329,44.51912],[-67.82876,44.53607],[-67.83589,44.53658]]],[[[-67.84207,44.46232],[-67.83847,44.45095],[-67.83063,44.45666],[-67.84207,44.46232]]],[[[-67.87558,44.4457],[-67.87606,44.44044],[-67.86608,44.42296],[-67.85063,44.42397],[-67.85395,44.43414],[-67.85776,44.43501],[-67.8589,44.44516],[-67.86394,44.4479],[-67.86299,44.45452],[-67.8694,44.45673],[-67.87558,44.4457]]],[[[-68.05498,45.25258],[-68.03416,45.18087],[-67.98185,44.95589],[-68.10502,44.93909],[-68.08876,44.87232],[-68.05728,44.76146],[-68.03464,44.67414],[-68.01606,44.67668],[-67.99355,44.59216],[-68.01722,44.58909],[-67.99181,44.50448],[-67.9772,44.49795],[-67.97297,44.48863],[-67.97426,44.47911],[-67.98201,44.47336],[-67.97042,44.47081],[-67.95877,44.45401],[-67.95972,44.44722],[-67.9546,44.42852],[-67.94751,44.4172],[-67.93771,44.41045],[-67.93187,44.41215],[-67.93281,44.42295],[-67.9287,44.43517],[-67.93589,44.4489],[-67.92531,44.44923],[-67.92431,44.46351],[-67.91694,44.46131],[-67.90957,44.45215],[-67.91409,44.43297],[-67.91171,44.42941],[-67.91242,44.41735],[-67.90957,44.416],[-67.90059,44.39555],[-67.89553,44.4041],[-67.888,44.42395],[-67.88842,44.44213],[-67.88224,44.45248],[-67.88176,44.45859],[-67.88581,44.47182],[-67.89151,44.48098],[-67.88176,44.48437],[-67.87392,44.47097],[-67.86132,44.47352],[-67.85165,44.4849],[-67.84968,44.49573],[-67.85205,44.50709],[-67.85847,44.51929],[-67.86513,44.52302],[-67.8511,44.52878],[-67.85134,44.5359],[-67.84207,44.54403],[-67.84778,44.563],[-67.8397,44.56283],[-67.82924,44.55911],[-67.829,44.55453],[-67.8202,44.54962],[-67.81807,44.54149],[-67.80452,44.54268],[-67.80254,44.52393],[-67.79358,44.51912],[-67.7798,44.52268],[-67.78051,44.53692],[-67.774,44.54744],[-67.75888,44.54894],[-67.74438,44.53116],[-67.74201,44.51677],[-67.74335,44.49742],[-67.73399,44.49625],[-67.72288,44.49852],[-67.71308,44.49355],[-67.69804,44.50946],[-67.69851,44.52472],[-67.70265,44.52792],[-67.69635,44.5338],[-67.67308,44.53946],[-67.65644,44.53708],[-67.65312,44.52582],[-67.61558,44.52732],[-67.59443,44.53224],[-67.57827,44.52987],[-67.56472,44.53207],[-67.55997,44.53986],[-67.56548,44.55142],[-67.57506,44.56066],[-67.57018,44.56764],[-67.56893,44.5766],[-67.56448,44.58051],[-67.56234,44.58965],[-67.55616,44.59929],[-67.56139,44.60928],[-67.55283,44.61148],[-67.55239,44.61963],[-67.54337,44.62655],[-67.53078,44.62194],[-67.52406,44.62655],[-67.5228,44.63306],[-67.5058,44.63684],[-67.49363,44.62886],[-67.49237,44.61795],[-67.49698,44.61486],[-67.49104,44.60725],[-67.48092,44.61106],[-67.467,44.60334],[-67.44851,44.60032],[-67.4454,44.60589],[-67.43257,44.60691],[-67.42972,44.61334],[-67.43756,44.6196],[-67.4378,44.62603],[-67.44635,44.62738],[-67.44897,44.6355],[-67.43803,44.64159],[-67.42734,44.64108],[-67.41997,44.63229],[-67.429,44.62907],[-67.42069,44.61842],[-67.41892,44.60347],[-67.40549,44.59424],[-67.39668,44.60454],[-67.39584,44.61291],[-67.38907,44.61452],[-67.38955,44.62315],[-67.37755,44.61976],[-67.36827,44.62467],[-67.36316,44.63183],[-67.36198,44.64024],[-67.3684,44.65579],[-67.37401,44.66297],[-67.38717,44.66543],[-67.38907,44.6727],[-67.38054,44.67368],[-67.3798,44.67878],[-67.39026,44.68013],[-67.39644,44.69331],[-67.38907,44.69585],[-67.38337,44.68892],[-67.36511,44.69355],[-67.35913,44.69956],[-67.3413,44.69906],[-67.32942,44.70296],[-67.30854,44.70745],[-67.29918,44.70571],[-67.30014,44.69675],[-67.30791,44.6913],[-67.3047,44.67929],[-67.30884,44.67388],[-67.30802,44.66137],[-67.29246,44.64846],[-67.29495,44.63702],[-67.28735,44.624],[-67.27514,44.62343],[-67.26524,44.63076],[-67.25431,44.63059],[-67.26168,44.63922],[-67.26952,44.64007],[-67.26786,44.65055],[-67.27285,44.66408],[-67.26477,44.66678],[-67.2467,44.66915],[-67.24076,44.66577],[-67.24646,44.6514],[-67.24514,44.64094],[-67.23427,44.6372],[-67.21302,44.63922],[-67.18943,44.64553],[-67.19207,44.65552],[-67.18661,44.66265],[-67.16986,44.66211],[-67.15512,44.66944],[-67.14806,44.68411],[-67.13921,44.69385],[-67.12879,44.69542],[-67.11875,44.70222],[-67.11764,44.7119],[-67.10939,44.71144],[-67.10435,44.71685],[-67.09863,44.73368],[-67.10409,44.73993],[-67.09254,44.74269],[-67.08348,44.7399],[-67.07344,44.74196],[-67.07034,44.75141],[-67.06438,44.75193],[-67.06203,44.76542],[-67.05656,44.77166],[-67.04335,44.76507],[-67.02615,44.7682],[-67.02447,44.77368],[-67.01212,44.77828],[-67.0095,44.78735],[-66.99755,44.78866],[-66.98935,44.79878],[-66.97626,44.80832],[-66.97003,44.80571],[-66.96107,44.80727],[-66.95057,44.81454],[-66.95211,44.82007],[-66.96647,44.81906],[-66.9824,44.81147],[-66.98882,44.82495],[-66.98858,44.83726],[-66.99652,44.84465],[-66.99296,44.84918],[-66.98003,44.85597],[-66.98335,44.8627],[-66.98739,44.88039],[-66.99476,44.89184],[-66.98407,44.89824],[-66.98447,44.91256],[-66.99094,44.91784],[-67.00379,44.9208],[-67.01449,44.92584],[-67.01092,44.93308],[-67.01425,44.93712],[-67.03347,44.93992],[-67.0383,44.94543],[-67.03945,44.95865],[-67.04372,44.96386],[-67.05894,44.96874],[-67.04968,44.97429],[-67.05461,44.98676],[-67.06827,45.00101],[-67.07275,45.00833],[-67.07491,45.01925],[-67.08207,45.02961],[-67.09601,45.03932],[-67.09975,45.04501],[-67.11769,45.05673],[-67.10861,45.05947],[-67.1059,45.06579],[-67.09079,45.06872],[-67.11241,45.11232],[-67.12893,45.13217],[-67.14565,45.14667],[-67.15792,45.161],[-67.16787,45.1646],[-67.19117,45.16588],[-67.20393,45.17141],[-67.22732,45.16365],[-67.24229,45.17224],[-67.2467,45.18077],[-67.27108,45.19108],[-67.28362,45.19202],[-67.28979,45.18866],[-67.29374,45.17797],[-67.29142,45.17145],[-67.29924,45.16894],[-67.30173,45.15712],[-67.29436,45.15351],[-67.29821,45.14667],[-67.31992,45.14242],[-67.31756,45.13811],[-67.32156,45.13135],[-67.32983,45.13165],[-67.33987,45.12559],[-67.35419,45.12978],[-67.37168,45.14304],[-67.38019,45.15179],[-67.39058,45.15411],[-67.40463,45.15993],[-67.40466,45.16694],[-67.39913,45.16886],[-67.40034,45.17738],[-67.41026,45.18154],[-67.41816,45.18995],[-67.42889,45.19321],[-67.42785,45.20174],[-67.43998,45.22705],[-67.45347,45.24113],[-67.46357,45.2441],[-67.47295,45.25874],[-67.47659,45.27493],[-67.48933,45.28128],[-67.48231,45.29141],[-67.47815,45.28838],[-67.46648,45.29382],[-67.46055,45.30038],[-67.45227,45.31963],[-67.45347,45.32825],[-67.44542,45.33022],[-67.42887,45.34423],[-67.43096,45.35056],[-67.42596,45.35768],[-67.43428,45.36544],[-67.42724,45.37369],[-67.4215,45.37408],[-67.42696,45.39019],[-67.44811,45.40782],[-67.45294,45.40997],[-67.4613,45.42224],[-67.47256,45.42332],[-67.48033,45.44086],[-67.47796,45.44643],[-67.48376,45.44957],[-67.48235,45.46083],[-67.48691,45.46802],[-67.49977,45.47805],[-67.50309,45.48969],[-67.48964,45.48911],[-67.47073,45.50007],[-67.47042,45.50531],[-67.46288,45.50869],[-67.44938,45.4996],[-67.44159,45.50504],[-67.42424,45.50591],[-67.42054,45.51111],[-67.43221,45.52],[-67.43504,45.52878],[-67.43224,45.54102],[-67.4254,45.5408],[-67.42098,45.55003],[-67.4266,45.5606],[-67.42836,45.56891],[-67.42365,45.57215],[-67.42972,45.58377],[-67.4475,45.59702],[-67.45541,45.60467],[-67.47242,45.60058],[-67.4767,45.60416],[-67.48526,45.60162],[-67.49092,45.59149],[-67.49944,45.58701],[-67.51858,45.58793],[-67.53446,45.59462],[-67.54601,45.59736],[-67.56136,45.59491],[-67.58334,45.60249],[-67.58977,45.60677],[-67.6085,45.6062],[-67.63889,45.62508],[-67.64421,45.62322],[-67.64024,45.61618],[-67.64581,45.6136],[-67.66315,45.62541],[-67.67542,45.63096],[-67.67954,45.6381],[-67.69262,45.65037],[-67.70139,45.6691],[-67.71304,45.68121],[-67.71784,45.67945],[-67.72765,45.68847],[-67.7346,45.68899],[-67.73084,45.67822],[-67.71806,45.66799],[-67.7204,45.66252],[-67.73389,45.66449],[-67.74438,45.67299],[-67.75424,45.66779],[-67.76865,45.67758],[-67.80331,45.67789],[-67.80548,45.68024],[-67.87358,45.6693],[-67.87821,45.67222],[-67.88933,45.67184],[-67.89696,45.6653],[-68.04801,45.6399],[-68.02035,45.55329],[-67.99324,45.46702],[-67.95793,45.35325],[-67.96688,45.35188],[-67.93976,45.26785],[-67.99946,45.25968],[-68.03364,45.25608],[-68.05498,45.25258]]]]},"properties":{"STATEFP":"23","COUNTYFP":"029","COUNTYNS":"00581300","GEOIDFQ":"0500000US23029","GEOID":"23029","NAME":"Washington","NAMELSAD":"Washington County","STUSPS":"ME","STATE_NAME":"Maine","LSAD":"06","ALAND":6637427361,"AWATER":1799648495}},
{"type":"Feature","geometry":{"type":"Polygon","coordinates":[[[-67.80548,45.68024],[-67.81789,45.69371],[-67.80315,45.69613],[-67.80983,45.72927],[-67.78189,45.73119],[-67.79308,45.75056],[-67.80631,45.75541],[-67.80908,45.7675],[-67.80546,45.76976],[-67.80363,45.78162],[-67.8066,45.79472],[-67.80199,45.80355],[-67.78044,45.81621],[-67.76684,45.81853],[-67.75507,45.82367],[-67.76281,45.82852],[-67.77206,45.84135],[-67.78968,45.85175],[-67.80235,45.86763],[-67.80391,45.8829],[-67.78534,45.89565],[-67.76783,45.89857],[-67.76372,45.91043],[-67.75966,45.90993],[-67.75042,45.9179],[-67.77763,45.93421],[-67.78109,45.94303],[-67.7811,46.00448],[-67.78177,46.18617],[-67.78211,46.27938],[-67.78451,46.43758],[-67.78841,46.6018],[-67.78928,46.75822],[-67.7898,46.79487],[-67.78923,46.88099],[-67.78977,47.00004],[-67.79051,47.06792],[-67.81072,47.07609],[-67.8233,47.08432],[-67.83689,47.08704],[-67.84901,47.09346],[-67.86457,47.09921],[-67.87716,47.10181],[-67.88891,47.11006],[-67.89003,47.12468],[-67.89327,47.12994],[-67.9046,47.13756],[-67.91037,47.14814],[-67.92742,47.15496],[-67.93917,47.17144],[-67.95151,47.18355],[-67.95227,47.19614],[-67.97383,47.20691],[-67.98985,47.21005],[-68.0161,47.23445],[-68.03733,47.24568],[-68.06184,47.25645],[-68.07406,47.25976],[-68.0829,47.27192],[-68.11968,47.28729],[-68.12823,47.29419],[-68.13706,47.29607],[-68.1523,47.30988],[-68.15246,47.32153],[-68.16133,47.32775],[-68.17606,47.32924],[-68.20235,47.33941],[-68.21122,47.33911],[-68.22289,47.34453],[-68.22465,47.35079],[-68.2346,47.35504],[-68.24799,47.35251],[-68.26514,47.35254],[-68.2841,47.36039],[-68.30072,47.3561],[-68.30993,47.35623],[-68.32988,47.36023],[-68.35517,47.35707],[-68.37026,47.35105],[-68.37862,47.34314],[-68.38462,47.3223],[-68.38131,47.30916],[-68.38411,47.30151],[-68.37695,47.29563],[-68.37683,47.28852],[-68.38351,47.28618],[-68.41661,47.28743],[-68.42871,47.28152],[-68.45825,47.28463],[-68.46628,47.29487],[-68.47485,47.29753],[-68.49039,47.29382],[-68.50401,47.29634],[-68.51798,47.29609],[-68.52907,47.29264],[-68.53959,47.28517],[-68.5539,47.28225],[-68.57855,47.28755],[-68.5906,47.28005],[-68.59873,47.26988],[-68.5933,47.25946],[-68.61241,47.2448],[-68.63509,47.24231],[-68.66407,47.23676],[-68.67591,47.24263],[-68.69343,47.24307],[-68.70184,47.23854],[-68.71787,47.24092],[-68.73477,47.23541],[-68.76435,47.22204],[-68.78138,47.22105],[-68.8037,47.21551],[-68.81216,47.21546],[-68.83191,47.20374],[-68.8485,47.19756],[-68.86316,47.18862],[-68.87449,47.18841],[-68.88241,47.18336],[-68.89568,47.18288],[-68.90008,47.17772],[-68.90747,47.18491],[-68.91975,47.18986],[-68.92025,47.19505],[-68.93391,47.19999],[-68.94248,47.20639],[-68.96113,47.20558],[-68.96643,47.21271],[-68.98043,47.22013],[-69.02851,47.2396],[-69.04152,47.24564],[-69.05025,47.25588],[-69.04665,47.2711],[-69.05098,47.28063],[-69.04939,47.28469],[-69.05261,47.29829],[-69.04912,47.30647],[-69.05493,47.3153],[-69.05397,47.32806],[-69.0545,47.37797],[-69.04645,47.38393],[-69.04237,47.40114],[-69.03572,47.41444],[-69.04395,47.42763],[-69.04889,47.42508],[-69.05546,47.43227],[-69.06417,47.43297],[-69.06935,47.42723],[-69.08066,47.42407],[-69.09676,47.42701],[-69.10726,47.43116],[-69.12247,47.44241],[-69.14644,47.44886],[-69.16436,47.45104],[-69.17841,47.45662],[-69.18982,47.45362],[-69.20614,47.45409],[-69.22442,47.45969],[-69.32819,47.35849],[-69.4392,47.25003],[-69.56638,47.12503],[-69.81855,46.87503],[-69.87451,46.81862],[-69.94312,46.75003],[-69.95,46.74252],[-69.99709,46.69523],[-70.01975,46.59217],[-70.02336,46.57352],[-69.72111,46.57405],[-69.62292,46.57399],[-69.38086,46.57287],[-68.82141,46.57251],[-68.82176,46.3958],[-68.8194,46.39578],[-68.69492,46.39551],[-68.69488,46.38261],[-68.56787,46.38254],[-68.43644,46.38212],[-68.43741,46.20753],[-68.43637,46.1833],[-68.43693,46.16808],[-68.43628,46.12474],[-68.4369,46.04289],[-68.43227,46.03557],[-68.43229,45.99],[-68.43168,45.95244],[-68.4276,45.94459],[-68.42662,45.85338],[-68.42755,45.75987],[-68.43071,45.75992],[-68.43246,45.66783],[-68.43303,45.57848],[-68.41439,45.57285],[-68.30081,45.59053],[-68.2575,45.59795],[-68.26014,45.60448],[-68.16682,45.62038],[-68.04801,45.6399],[-67.89696,45.6653],[-67.88933,45.67184],[-67.87821,45.67222],[-67.87358,45.6693],[-67.80548,45.68024]]]},"properties":{"STATEFP":"23","COUNTYFP":"003","COUNTYNS":"00581287","GEOIDFQ":"0500000US23003","GEOID":"23003","NAME":"Aroostook","NAMELSAD":"Aroostook County","STUSPS":"ME","STATE_NAME":"Maine","LSAD":"06","ALAND":17278254267,"AWATER":404986869}},
{"type":"Feature","geometry":{"type":"MultiPolygon","coordinates":[[[[-69.32357,43.75899],[-69.31432,43.75671],[-69.30082,43.7686],[-69.30299,43.77459],[-69.31363,43.77276],[-69.32114,43.76576],[-69.32357,43.75899]]],[[[-69.44189,43.91633],[-69.43807,43.90954],[-69.42415,43.93411],[-69.423,43.94188],[-69.42918,43.94461],[-69.4394,43.93914],[-69.43826,43.9311],[-69.44189,43.91633]]],[[[-69.75821,44.13933],[-69.76132,44.12548],[-69.77417,44.09935],[-69.78585,44.08718],[-69.78727,44.07474],[-69.78287,44.07047],[-69.78647,44.0645],[-69.78603,44.05635],[-69.79031,44.04247],[-69.79631,44.0374],[-69.81297,44.02893],[-69.81355,44.02601],[-69.74946,44.01517],[-69.74949,44.0143],[-69.70015,44.00659],[-69.71963,43.97129],[-69.72202,43.95859],[-69.72295,43.93971],[-69.72122,43.9315],[-69.70742,43.92725],[-69.71841,43.91449],[-69.73141,43.90729],[-69.74353,43.89354],[-69.72946,43.87663],[-69.73048,43.86871],[-69.7229,43.85307],[-69.71438,43.8506],[-69.70284,43.85466],[-69.70489,43.8691],[-69.69888,43.87595],[-69.69585,43.89497],[-69.69276,43.9001],[-69.69158,43.91723],[-69.68468,43.9239],[-69.67708,43.92698],[-69.67137,43.92356],[-69.6785,43.91277],[-69.68511,43.89702],[-69.6873,43.88537],[-69.68468,43.87612],[-69.68748,43.8677],[-69.68541,43.85987],[-69.6802,43.85645],[-69.68234,43.8399],[-69.69039,43.82539],[-69.68558,43.82055],[-69.68587,43.81012],[-69.66867,43.8014],[-69.6683,43.79519],[-69.66138,43.78339],[-69.65225,43.78431],[-69.65334,43.79103],[-69.65022,43.81098],[-69.65315,43.81719],[-69.6457,43.81938],[-69.6498,43.83629],[-69.64143,43.8391],[-69.63881,43.84785],[-69.62717,43.84887],[-69.63097,43.84013],[-69.62907,43.8331],[-69.62336,43.82727],[-69.61671,43.82899],[-69.61307,43.83745],[-69.61766,43.84527],[-69.60696,43.84767],[-69.60462,43.858],[-69.59471,43.85888],[-69.59128,43.85196],[-69.59436,43.83585],[-69.59237,43.8309],[-69.59849,43.8255],[-69.60462,43.82579],[-69.60593,43.81486],[-69.59292,43.81138],[-69.5796,43.82157],[-69.57547,43.84197],[-69.56832,43.84445],[-69.55812,43.84066],[-69.5517,43.83463],[-69.54503,43.86124],[-69.55062,43.87258],[-69.54945,43.88001],[-69.54391,43.88162],[-69.53637,43.87732],[-69.52544,43.87715],[-69.51926,43.87115],[-69.52163,43.8607],[-69.51762,43.85704],[-69.51327,43.84479],[-69.51621,43.83722],[-69.50329,43.83767],[-69.48624,43.86912],[-69.48219,43.87861],[-69.46245,43.89805],[-69.45964,43.90332],[-69.45556,43.92476],[-69.45033,43.93623],[-69.43773,43.97575],[-69.4268,43.97832],[-69.43169,43.96455],[-69.42324,43.96155],[-69.41617,43.97727],[-69.40612,43.98584],[-69.39947,43.98242],[-69.39832,43.97069],[-69.38402,43.97421],[-69.37903,43.99542],[-69.36829,43.99514],[-69.364,44.01287],[-69.35723,44.01095],[-69.3458,44.01876],[-69.338,44.01141],[-69.33466,44.00468],[-69.32646,44.00745],[-69.32683,44.0176],[-69.31906,44.02658],[-69.32038,44.03341],[-69.30966,44.045],[-69.29822,44.04735],[-69.29803,44.05899],[-69.28227,44.05258],[-69.28203,44.06452],[-69.30384,44.09649],[-69.3115,44.09549],[-69.30366,44.13268],[-69.33767,44.20937],[-69.37217,44.20541],[-69.40602,44.21067],[-69.40363,44.21915],[-69.43284,44.22674],[-69.44948,44.26227],[-69.44066,44.28443],[-69.45125,44.31395],[-69.43699,44.32449],[-69.41643,44.3213],[-69.40963,44.328],[-69.50638,44.34287],[-69.52142,44.28056],[-69.53441,44.27221],[-69.53484,44.26736],[-69.5474,44.26099],[-69.63409,44.27705],[-69.65017,44.27963],[-69.66544,44.22758],[-69.65674,44.12239],[-69.75821,44.13933]]]]},"properties":{"STATEFP":"23","COUNTYFP":"015","COUNTYNS":"00581293","GEOIDFQ":"0500000US23015","GEOID":"23015","NAME":"Lincoln","NAMELSAD":"Lincoln County","STUSPS":"ME","STATE_NAME":"Maine","LSAD":"06","ALAND":1180688993,"AWATER":631299424}},
{"type":"Feature","geometry":{"type":"MultiPolygon","coordinates":[[[[-69.40963,44.328],[-69.40908,44.3364],[-69.40227,44.34306],[-69.39436,44.34293],[-69.34662,44.30834],[-69.26888,44.36465],[-69.24423,44.34691],[-69.18758,44.30457],[-69.12162,44.25564],[-69.0431,44.25955],[-69.02837,44.24901],[-69.01705,44.25709],[-69.00507,44.27407],[-69.00718,44.28249],[-68.99506,44.29757],[-68.9827,44.29814],[-68.98019,44.29483],[-68.96344,44.30832],[-68.95446,44.32405],[-68.94988,44.33999],[-68.94816,44.35588],[-68.95564,44.36853],[-68.9673,44.38111],[-68.9827,44.38602],[-68.98769,44.3935],[-68.98151,44.39876],[-68.99447,44.42222],[-68.98697,44.42559],[-68.97224,44.42559],[-68.95013,44.43051],[-68.94373,44.42837],[-68.93193,44.43869],[-68.92684,44.45121],[-68.92161,44.45664],[-68.90772,44.45103],[-68.8971,44.45064],[-68.89207,44.44508],[-68.89083,44.438],[-68.8843,44.42813],[-68.87515,44.4299],[-68.85899,44.44492],[-68.83129,44.458],[-68.82915,44.46224],[-68.81109,44.46614],[-68.81299,44.47055],[-68.82535,44.46818],[-68.8351,44.4814],[-68.82773,44.49056],[-68.81442,44.49666],[-68.8099,44.49599],[-68.80539,44.50514],[-68.80872,44.50904],[-68.80586,44.52429],[-68.80234,44.52492],[-68.8033,44.54336],[-68.80609,44.55363],[-68.79827,44.5681],[-68.80779,44.5712],[-68.81504,44.57785],[-68.82362,44.59602],[-68.83005,44.60364],[-68.84476,44.61349],[-68.84695,44.62531],[-68.83433,44.64251],[-68.83163,44.65161],[-68.82242,44.66401],[-68.81183,44.67135],[-68.81579,44.68375],[-68.81925,44.68751],[-68.83561,44.69132],[-68.83753,44.70213],[-68.86598,44.69696],[-68.86536,44.69422],[-68.89588,44.68925],[-68.89673,44.69172],[-69.08863,44.65931],[-69.18373,44.64402],[-69.19805,44.6996],[-69.2052,44.72959],[-69.26678,44.72193],[-69.32741,44.71444],[-69.34355,44.74982],[-69.3621,44.75137],[-69.37163,44.75459],[-69.38237,44.75422],[-69.38815,44.74755],[-69.39764,44.74679],[-69.39495,44.73219],[-69.40466,44.72781],[-69.41455,44.7187],[-69.41684,44.70098],[-69.47171,44.6929],[-69.47732,44.69206],[-69.4756,44.67668],[-69.44294,44.67238],[-69.44629,44.66422],[-69.45463,44.66282],[-69.46056,44.65561],[-69.46061,44.64705],[-69.39312,44.64038],[-69.41684,44.55108],[-69.37242,44.54459],[-69.38481,44.49628],[-69.39599,44.45708],[-69.4455,44.46384],[-69.50638,44.34287],[-69.40963,44.328]]],[[[-68.94229,44.28436],[-68.93991,44.2796],[-68.92827,44.28385],[-68.92161,44.27228],[-68.92732,44.26513],[-68.92423,44.25883],[-68.92637,44.24487],[-68.93148,44.23669],[-68.91876,44.23925],[-68.91258,44.24453],[-68.9137,44.25184],[-68.90642,44.2589],[-68.90765,44.26422],[-68.90307,44.27994],[-68.88644,44.30444],[-68.8938,44.30597],[-68.89975,44.31192],[-68.89379,44.31758],[-68.89729,44.32663],[-68.89068,44.3364],[-68.87241,44.34397],[-68.8641,44.35488],[-68.86457,44.37481],[-68.86844,44.38144],[-68.88192,44.38636],[-68.88549,44.37787],[-68.89846,44.38026],[-68.90353,44.37861],[-68.91163,44.36503],[-68.91191,44.35344],[-68.90884,44.34536],[-68.91258,44.3398],[-68.91947,44.33759],[-68.91805,44.3245],[-68.90925,44.32977],[-68.9026,44.3245],[-68.91353,44.31753],[-68.91616,44.31208],[-68.9282,44.30323],[-68.93121,44.29344],[-68.94063,44.2893],[-68.94229,44.28436]]],[[[-68.95194,44.21962],[-68.94395,44.22069],[-68.93968,44.22648],[-68.93849,44.2384],[-68.95194,44.21962]]],[[[-68.96558,44.25543],[-68.96684,44.25089],[-68.95774,44.24673],[-68.94586,44.24828],[-68.9373,44.25509],[-68.94514,44.26173],[-68.9335,44.26956],[-68.93635,44.27568],[-68.9537,44.27279],[-68.95631,44.26156],[-68.96273,44.26139],[-68.96558,44.25543]]]]},"properties":{"STATEFP":"23","COUNTYFP":"027","COUNTYNS":"00581299","GEOIDFQ":"0500000US23027","GEOID":"23027","NAME":"Waldo","NAMELSAD":"Waldo County","STUSPS":"ME","STATE_NAME":"Maine","LSAD":"06","ALAND":1891279833,"AWATER":347573350}},
{"type":"Feature","geometry":{"type":"Polygon","coordinates":[[[-70.78298,43.81415],[-70.78165,43.82356],[-70.78713,43.8326],[-70.79472,43.83544],[-70.79221,43.84609],[-70.80161,43.85608],[-70.79819,43.8633],[-70.7815,43.87388],[-70.78049,43.86823],[-70.76629,43.87724],[-70.76529,43.87154],[-70.74388,43.88585],[-70.75451,43.88846],[-70.75793,43.90686],[-70.75248,43.91401],[-70.72978,43.92833],[-70.74751,43.9459],[-70.71542,43.96182],[-70.78176,44.03139],[-70.791,44.03017],[-70.79253,44.04014],[-70.84808,44.04952],[-70.85845,44.05964],[-70.86132,44.07723],[-70.86658,44.07971],[-70.8578,44.08804],[-70.85855,44.09527],[-70.8218,44.07709],[-70.73997,44.11941],[-70.6995,44.1392],[-70.69592,44.13422],[-70.6709,44.14756],[-70.62433,44.17104],[-70.60797,44.15411],[-70.59866,44.14977],[-70.58733,44.12252],[-70.59894,44.11203],[-70.60617,44.10129],[-70.60301,44.08859],[-70.60907,44.07901],[-70.60887,44.06773],[-70.61265,44.06281],[-70.59468,44.03118],[-70.58359,44.023],[-70.58259,44.01869],[-70.57237,44.0163],[-70.56385,44.02499],[-70.54409,44.00565],[-70.509,44.04145],[-70.50237,44.04257],[-70.48008,44.03208],[-70.48146,44.04369],[-70.47907,44.05408],[-70.48529,44.0604],[-70.43739,44.10788],[-70.37393,44.1718],[-70.33409,44.21075],[-70.32522,44.2084],[-70.30645,44.25886],[-70.26522,44.36291],[-70.27869,44.41517],[-70.26829,44.41641],[-70.27441,44.44063],[-70.2389,44.45894],[-70.25089,44.5034],[-70.26939,44.50118],[-70.27062,44.50622],[-70.28091,44.5051],[-70.28989,44.54025],[-70.30766,44.53788],[-70.28075,44.56962],[-70.34758,44.58018],[-70.47164,44.59861],[-70.54999,44.61073],[-70.5106,44.62722],[-70.61503,44.79563],[-70.76923,44.73223],[-70.7739,44.83974],[-70.79641,44.92588],[-70.80454,44.92493],[-70.82363,45.01379],[-70.77984,45.01838],[-70.83507,45.27674],[-70.83904,45.26913],[-70.84855,45.26333],[-70.8465,45.25297],[-70.84832,45.24471],[-70.8411,45.23893],[-70.84443,45.23451],[-70.85704,45.22916],[-70.8749,45.23407],[-70.88503,45.23487],[-70.89848,45.24409],[-70.89514,45.25225],[-70.89857,45.2585],[-70.91647,45.27733],[-70.9217,45.27945],[-70.91211,45.2962],[-70.91987,45.30539],[-70.9179,45.31192],[-70.92992,45.31846],[-70.93919,45.32018],[-70.94523,45.32565],[-70.95238,45.3391],[-70.96719,45.3324],[-70.98559,45.33219],[-70.99108,45.33825],[-71.00485,45.34542],[-71.01292,45.3433],[-71.01129,45.33442],[-71.00256,45.32782],[-71.00905,45.31902],[-71.03245,45.31007],[-71.04248,45.31304],[-71.05243,45.31109],[-71.05926,45.31375],[-71.07374,45.30772],[-71.08392,45.30545],[-71.07691,45.24691],[-71.0726,45.18094],[-71.06939,45.14404],[-71.059,45.00492],[-71.05786,45.00005],[-71.05271,44.93084],[-71.04465,44.84504],[-71.03752,44.75561],[-71.0367,44.7365],[-71.03104,44.65546],[-71.02666,44.55815],[-71.02299,44.50006],[-71.02077,44.47374],[-71.01536,44.37811],[-71.01275,44.34078],[-71.00857,44.24549],[-71.00137,44.09293],[-70.99844,44.0411],[-70.99284,43.91627],[-70.99265,43.89624],[-70.98993,43.83924],[-70.98904,43.79215],[-70.98278,43.79367],[-70.97437,43.78635],[-70.96421,43.7881],[-70.95755,43.78512],[-70.94086,43.79229],[-70.92707,43.7903],[-70.91268,43.80091],[-70.89923,43.80231],[-70.88066,43.81086],[-70.86128,43.80469],[-70.84333,43.80761],[-70.84121,43.80989],[-70.82133,43.80744],[-70.81601,43.81135],[-70.79927,43.80778],[-70.79167,43.81287],[-70.78298,43.81415]]]},"properties":{"STATEFP":"23","COUNTYFP":"017","COUNTYNS":"00581294","GEOIDFQ":"0500000US23017","GEOID":"23017","NAME":"Oxford","NAMELSAD":"Oxford County","STUSPS":"ME","STATE_NAME":"Maine","LSAD":"06","ALAND":5379296162,"AWATER":255883190}},
{"type":"Feature","geometry":{"type":"MultiPolygon","coordinates":[[[[-69.36829,43.99514],[-69.36239,43.99388],[-69.37118,43.97746],[-69.3667,43.96476],[-69.35407,43.97233],[-69.35621,43.97729],[-69.35051,43.98345],[-69.33007,43.97182],[-69.34646,43.96309],[-69.35122,43.953],[-69.36463,43.94347],[-69.36144,43.93828],[-69.37427,43.92835],[-69.36573,43.92488],[-69.36025,43.93161],[-69.35455,43.93024],[-69.34536,43.94724],[-69.32769,43.94581],[-69.32222,43.95112],[-69.3303,43.95865],[-69.33387,43.96566],[-69.32533,43.97094],[-69.3043,43.96207],[-69.30518,43.95668],[-69.31975,43.94487],[-69.31747,43.94051],[-69.30778,43.94345],[-69.29465,43.95163],[-69.28851,43.95767],[-69.2805,43.95744],[-69.27647,43.94838],[-69.26751,43.94367],[-69.27314,43.9364],[-69.27454,43.9279],[-69.2798,43.92236],[-69.27395,43.91422],[-69.26112,43.91739],[-69.24271,43.92547],[-69.24428,43.9304],[-69.22204,43.93366],[-69.21487,43.93075],[-69.21147,43.93698],[-69.20367,43.94181],[-69.19184,43.95788],[-69.18472,43.95967],[-69.18282,43.9749],[-69.17498,43.97695],[-69.17725,43.98558],[-69.16256,43.999],[-69.16069,43.98917],[-69.14907,43.99166],[-69.1491,43.98585],[-69.14408,43.97951],[-69.13154,43.97609],[-69.12697,43.98276],[-69.14194,43.98653],[-69.13529,43.99696],[-69.11318,43.99456],[-69.11009,44.00038],[-69.12103,44.00345],[-69.12805,44.01731],[-69.11532,44.02482],[-69.11311,44.02888],[-69.09821,44.03507],[-69.09418,44.03898],[-69.07706,44.04225],[-69.07377,44.04614],[-69.0798,44.05526],[-69.0643,44.06991],[-69.0597,44.06924],[-69.05329,44.07726],[-69.0521,44.08529],[-69.0434,44.09216],[-69.0563,44.09516],[-69.06402,44.09169],[-69.07645,44.09063],[-69.09821,44.08307],[-69.10724,44.09058],[-69.10111,44.0936],[-69.10558,44.10168],[-69.10086,44.10453],[-69.10439,44.11055],[-69.10082,44.11686],[-69.0925,44.11823],[-69.08191,44.1155],[-69.07634,44.12488],[-69.07587,44.13461],[-69.08228,44.13921],[-69.07813,44.15081],[-69.08098,44.15677],[-69.07325,44.17588],[-69.05455,44.17154],[-69.05708,44.18295],[-69.05181,44.19592],[-69.05923,44.20791],[-69.04281,44.21517],[-69.0436,44.22503],[-69.04019,44.23367],[-69.03153,44.24248],[-69.02837,44.24901],[-69.0431,44.25955],[-69.12162,44.25564],[-69.18758,44.30457],[-69.24423,44.34691],[-69.26888,44.36465],[-69.34662,44.30834],[-69.39436,44.34293],[-69.40227,44.34306],[-69.40908,44.3364],[-69.40963,44.328],[-69.41643,44.3213],[-69.43699,44.32449],[-69.45125,44.31395],[-69.44066,44.28443],[-69.44948,44.26227],[-69.43284,44.22674],[-69.40363,44.21915],[-69.40602,44.21067],[-69.37217,44.20541],[-69.33767,44.20937],[-69.30366,44.13268],[-69.3115,44.09549],[-69.30384,44.09649],[-69.28203,44.06452],[-69.28227,44.05258],[-69.29803,44.05899],[-69.29822,44.04735],[-69.30966,44.045],[-69.32038,44.03341],[-69.31906,44.02658],[-69.32683,44.0176],[-69.32646,44.00745],[-69.33466,44.00468],[-69.338,44.01141],[-69.3458,44.01876],[-69.35723,44.01095],[-69.364,44.01287],[-69.36829,43.99514]]],[[[-68.65879,44.11021],[-68.65138,44.10576],[-68.65127,44.10142],[-68.63717,44.09941],[-68.63751,44.10428],[-68.64908,44.11051],[-68.65879,44.11021]]],[[[-68.6711,44.0759],[-68.65066,44.06514],[-68.65487,44.05929],[-68.65636,44.04823],[-68.64472,44.05387],[-68.64234,44.04772],[-68.65365,44.03792],[-68.65579,44.02728],[-68.66104,44.01705],[-68.65706,44.0138],[-68.65703,44.00382],[-68.64231,44.01621],[-68.62784,44.02157],[-68.62,44.01969],[-68.61284,44.0129],[-68.60998,44.02765],[-68.6011,44.04526],[-68.60027,44.06394],[-68.60132,44.08632],[-68.61073,44.08904],[-68.60859,44.09434],[-68.62221,44.09549],[-68.63002,44.08399],[-68.64641,44.07991],[-68.6711,44.0759]]],[[[-68.89911,43.82193],[-68.88672,43.8222],[-68.88362,43.83225],[-68.89368,43.83305],[-68.89911,43.82193]]],[[[-68.90593,43.85384],[-68.9077,43.84935],[-68.89618,43.84853],[-68.88644,43.85453],[-68.8792,43.86291],[-68.88168,43.86858],[-68.89007,43.8755],[-68.90238,43.86917],[-68.90159,43.85788],[-68.90593,43.85384]]],[[[-68.9083,44.0613],[-68.89954,44.05611],[-68.89238,44.06215],[-68.89927,44.06693],[-68.9083,44.0613]]],[[[-68.91185,44.0964],[-68.90545,44.08981],[-68.90691,44.07852],[-68.89499,44.07291],[-68.89547,44.08691],[-68.87978,44.07513],[-68.8824,44.06608],[-68.88097,44.05942],[-68.87051,44.05088],[-68.87379,44.03945],[-68.87004,44.03174],[-68.85485,44.02704],[-68.84413,44.04046],[-68.82842,44.03157],[-68.81466,44.03243],[-68.79823,44.04304],[-68.79026,44.05408],[-68.78448,44.054],[-68.77449,44.06437],[-68.77972,44.06847],[-68.77211,44.07889],[-68.7859,44.08947],[-68.78539,44.09369],[-68.79493,44.10159],[-68.80681,44.10637],[-68.8061,44.11678],[-68.82298,44.12292],[-68.82987,44.11814],[-68.84033,44.11934],[-68.83795,44.12753],[-68.85174,44.12616],[-68.84698,44.12053],[-68.84722,44.11422],[-68.86124,44.11149],[-68.86362,44.11934],[-68.88739,44.12548],[-68.89903,44.12343],[-68.90902,44.11217],[-68.91185,44.0964]]],[[[-68.94427,44.1127],[-68.93587,44.10927],[-68.9266,44.12531],[-68.90759,44.13094],[-68.89309,44.1393],[-68.8881,44.14493],[-68.87645,44.1451],[-68.87693,44.14015],[-68.88596,44.13776],[-68.89618,44.12668],[-68.88406,44.12941],[-68.87503,44.12702],[-68.8572,44.12753],[-68.86195,44.1364],[-68.84294,44.14254],[-68.82963,44.15073],[-68.82012,44.1439],[-68.81276,44.15004],[-68.81513,44.15482],[-68.81109,44.16198],[-68.8191,44.16302],[-68.81917,44.17119],[-68.8263,44.17647],[-68.8192,44.17966],[-68.82471,44.18613],[-68.84074,44.18263],[-68.84612,44.18443],[-68.86403,44.17521],[-68.88691,44.16062],[-68.9027,44.15305],[-68.91591,44.14902],[-68.92434,44.13692],[-68.93278,44.13333],[-68.93183,44.12412],[-68.94427,44.1127]]],[[[-69.04616,44.07624],[-69.03617,44.07436],[-69.03204,44.07934],[-69.03809,44.08584],[-69.04616,44.07624]]],[[[-69.05994,44.00157],[-69.05471,43.99285],[-69.04259,44.00704],[-69.04904,44.01113],[-69.05947,44.00722],[-69.05994,44.00157]]],[[[-69.07254,44.01217],[-69.07159,44.00482],[-69.05614,44.01217],[-69.06265,44.01493],[-69.07254,44.01217]]],[[[-69.08313,43.98152],[-69.07848,43.97302],[-69.07254,43.97866],[-69.08313,43.98152]]],[[[-69.09607,43.98396],[-69.09312,43.97915],[-69.07801,43.98618],[-69.06964,43.98591],[-69.06541,43.99439],[-69.09607,43.98396]]],[[[-69.13247,43.87126],[-69.12554,43.87355],[-69.12245,43.88058],[-69.11894,43.89826],[-69.12792,43.89497],[-69.1281,43.88755],[-69.13247,43.87126]]],[[[-69.22584,43.91877],[-69.22019,43.91494],[-69.21332,43.91984],[-69.22252,43.92544],[-69.22584,43.91877]]],[[[-69.29655,43.87132],[-69.29536,43.86259],[-69.2825,43.86458],[-69.28348,43.87372],[-69.29655,43.87132]]],[[[-69.32351,43.86057],[-69.32103,43.85671],[-69.31083,43.85949],[-69.30588,43.87742],[-69.31524,43.88284],[-69.31913,43.86687],[-69.32351,43.86057]]],[[[-69.38472,43.90918],[-69.38307,43.90113],[-69.37404,43.9073],[-69.38472,43.90918]]]]},"properties":{"STATEFP":"23","COUNTYFP":"013","COUNTYNS":"00581292","GEOIDFQ":"0500000US23013","GEOID":"23013","NAME":"Knox","NAMELSAD":"Knox County","STUSPS":"ME","STATE_NAME":"Maine","LSAD":"06","ALAND":945086114,"AWATER":1987492766}},
{"type":"Feature","geometry":{"type":"Polygon","coordinates":[[[-69.75821,44.13933],[-69.76357,44.15322],[-69.85498,44.16786],[-69.86622,44.16208],[-69.87807,44.15337],[-69.8884,44.13666],[-69.8946,44.12314],[-69.89778,44.10766],[-70.00547,44.12452],[-70.02725,44.04336],[-70.02513,44.03636],[-70.03416,44.02972],[-70.0375,44.01911],[-70.03234,44.00324],[-70.05075,43.99409],[-70.04659,43.98564],[-70.03424,43.97566],[-70.02733,43.9631],[-70.02024,43.94606],[-70.00804,43.94202],[-70.00233,43.9336],[-69.9906,43.92915],[-69.98178,43.91774],[-69.97623,43.91528],[-69.96101,43.92296],[-69.95413,43.923],[-69.9339,43.91244],[-69.92781,43.91345],[-69.92134,43.92014],[-69.91123,43.92205],[-69.8905,43.93782],[-69.87466,43.95359],[-69.85703,43.94474],[-69.86248,43.93158],[-69.86482,43.91938],[-69.87051,43.90769],[-69.88208,43.89034],[-69.88959,43.88508],[-69.89323,43.87852],[-69.89493,43.8643],[-69.88387,43.85447],[-69.87488,43.8514],[-69.87612,43.83716],[-69.87009,43.81667],[-69.88005,43.79815],[-69.88734,43.78794],[-69.88739,43.77705],[-69.8734,43.77838],[-69.87306,43.76643],[-69.8647,43.76457],[-69.86152,43.75933],[-69.86891,43.75318],[-69.86867,43.7427],[-69.85462,43.74457],[-69.84868,43.74216],[-69.85559,43.73266],[-69.85793,43.72392],[-69.85035,43.71778],[-69.85508,43.70475],[-69.82895,43.70678],[-69.83347,43.71778],[-69.82658,43.72258],[-69.81303,43.72739],[-69.79031,43.7326],[-69.78998,43.73942],[-69.77833,43.74251],[-69.77072,43.73718],[-69.76597,43.74577],[-69.75409,43.74387],[-69.74101,43.76929],[-69.73293,43.77289],[-69.72156,43.782],[-69.71707,43.7924],[-69.7178,43.80105],[-69.71487,43.81026],[-69.70584,43.82041],[-69.70655,43.83516],[-69.70242,43.84609],[-69.70284,43.85466],[-69.71438,43.8506],[-69.7229,43.85307],[-69.73048,43.86871],[-69.72946,43.87663],[-69.74353,43.89354],[-69.73141,43.90729],[-69.71841,43.91449],[-69.70742,43.92725],[-69.72122,43.9315],[-69.72295,43.93971],[-69.72202,43.95859],[-69.71963,43.97129],[-69.70015,44.00659],[-69.74949,44.0143],[-69.74946,44.01517],[-69.81355,44.02601],[-69.81297,44.02893],[-69.79631,44.0374],[-69.79031,44.04247],[-69.78603,44.05635],[-69.78647,44.0645],[-69.78287,44.07047],[-69.78727,44.07474],[-69.78585,44.08718],[-69.77417,44.09935],[-69.76132,44.12548],[-69.75821,44.13933]]]},"properties":{"STATEFP":"23","COUNTYFP":"023","COUNTYNS":"00581297","GEOIDFQ":"0500000US23023","GEOID":"23023","NAME":"Sagadahoc","NAMELSAD":"Sagadahoc County","STUSPS":"ME","STATE_NAME":"Maine","LSAD":"06","ALAND":657801805,"AWATER":300571247}},
{"type":"Feature","geometry":{"type":"Polygon","coordinates":[[[-70.02336,46.57352],[-70.02652,46.55722],[-70.05695,46.41516],[-70.07613,46.40939],[-70.08925,46.41067],[-70.10041,46.40502],[-70.10018,46.39844],[-70.11484,46.38646],[-70.12546,46.38135],[-70.12755,46.37194],[-70.13644,46.36988],[-70.14116,46.36267],[-70.14853,46.35892],[-70.15635,46.36144],[-70.16593,46.3575],[-70.17197,46.35929],[-70.18874,46.34999],[-70.19583,46.34075],[-70.20741,46.33132],[-70.20705,46.31925],[-70.20312,46.31438],[-70.20619,46.3096],[-70.20572,46.29987],[-70.21442,46.29531],[-70.23127,46.29119],[-70.23268,46.28443],[-70.24842,46.26707],[-70.25459,46.25423],[-70.25528,46.2459],[-70.26064,46.23145],[-70.26698,46.22524],[-70.27094,46.21194],[-70.28553,46.19699],[-70.29274,46.1916],[-70.2909,46.18584],[-70.27803,46.175],[-70.26626,46.16935],[-70.24699,46.15192],[-70.24026,46.15008],[-70.23957,46.14276],[-70.24363,46.12879],[-70.25507,46.1102],[-70.25402,46.0996],[-70.27269,46.1023],[-70.28978,46.09433],[-70.29329,46.08576],[-70.30108,46.08325],[-70.30202,46.07385],[-70.31061,46.06454],[-70.30673,46.06134],[-70.27889,46.06065],[-70.27965,46.0522],[-70.29915,46.03849],[-70.30347,46.0268],[-70.3176,46.01949],[-70.30643,46.01027],[-70.30303,45.99898],[-70.29287,45.9974],[-70.28775,45.99182],[-70.29599,45.98597],[-70.30972,45.98021],[-70.31297,45.96186],[-70.30533,45.96488],[-70.28963,45.9632],[-70.27625,45.96687],[-70.25859,45.95933],[-70.24018,45.94373],[-70.24092,45.9391],[-70.25253,45.93318],[-70.26331,45.92383],[-70.25788,45.91814],[-70.25958,45.91077],[-70.2537,45.90298],[-70.26575,45.89347],[-70.25912,45.89076],[-70.27288,45.88257],[-70.2842,45.87203],[-70.30616,45.85974],[-70.32975,45.8538],[-70.34244,45.85219],[-70.3595,45.83544],[-70.36937,45.83116],[-70.38792,45.81904],[-70.38822,45.81395],[-70.39662,45.80849],[-70.39591,45.79889],[-70.41692,45.79528],[-70.40568,45.77653],[-70.40655,45.76181],[-70.3885,45.74972],[-70.39464,45.74285],[-70.38954,45.73605],[-70.39038,45.72854],[-70.39738,45.72908],[-70.4004,45.71983],[-70.42959,45.7102],[-70.43888,45.70439],[-70.46598,45.70626],[-70.4791,45.69526],[-70.48503,45.69335],[-70.51017,45.67932],[-70.52675,45.66646],[-70.53433,45.67075],[-70.54141,45.66672],[-70.55283,45.66783],[-70.53368,45.60204],[-70.50577,45.51377],[-70.5187,45.51213],[-70.46008,45.30153],[-70.41852,45.14401],[-70.36357,45.15248],[-70.36491,45.1576],[-70.31248,45.16468],[-70.30849,45.16318],[-70.29383,45.1099],[-70.15937,45.1284],[-70.12451,45.00559],[-70.12243,45.00006],[-70.11036,44.94731],[-70.15211,44.94185],[-70.14477,44.91149],[-70.15258,44.9103],[-70.14908,44.8961],[-70.14159,44.89577],[-70.12993,44.85077],[-70.03327,44.86454],[-70.02553,44.83068],[-70.03226,44.82984],[-70.02711,44.80906],[-70.02072,44.80977],[-70.0156,44.78695],[-70.00315,44.78829],[-70.00083,44.77382],[-70.00066,44.75904],[-70.01353,44.7577],[-69.99619,44.6775],[-69.96015,44.68123],[-69.96164,44.67325],[-69.95825,44.66845],[-69.95937,44.66108],[-69.9674,44.6584],[-69.94708,44.64802],[-69.93045,44.61085],[-69.85327,44.62151],[-69.82036,44.60318],[-69.81709,44.59641],[-69.81847,44.58131],[-69.79281,44.57733],[-69.78732,44.59411],[-69.77629,44.60824],[-69.74428,44.60261],[-69.74209,44.59825],[-69.60575,44.57726],[-69.59272,44.58241],[-69.58927,44.58923],[-69.59305,44.60168],[-69.57995,44.62147],[-69.57909,44.62697],[-69.60557,44.65105],[-69.61697,44.65629],[-69.62869,44.67243],[-69.63312,44.70037],[-69.60362,44.70462],[-69.48339,44.72027],[-69.47038,44.71816],[-69.4732,44.70874],[-69.46753,44.70799],[-69.47171,44.6929],[-69.41684,44.70098],[-69.41455,44.7187],[-69.40466,44.72781],[-69.39495,44.73219],[-69.39764,44.74679],[-69.38815,44.74755],[-69.38237,44.75422],[-69.37163,44.75459],[-69.3621,44.75137],[-69.34355,44.74982],[-69.32741,44.71444],[-69.26678,44.72193],[-69.28634,44.80799],[-69.28127,44.80866],[-69.30552,44.89599],[-69.33774,45.01111],[-69.35567,45.07347],[-69.49986,45.05378],[-69.49519,45.03735],[-69.5186,45.03427],[-69.51565,45.02504],[-69.62097,45.01096],[-69.64576,45.10132],[-69.65476,45.09999],[-69.68703,45.20823],[-69.68365,45.2124],[-69.70406,45.27309],[-69.70832,45.29135],[-69.70043,45.29246],[-69.72921,45.37918],[-69.77993,45.54277],[-69.77337,45.54536],[-69.77437,45.55385],[-69.75907,45.55461],[-69.73135,45.56702],[-69.72325,45.58192],[-69.71475,45.58656],[-69.71275,45.59236],[-69.72079,45.60218],[-69.71725,45.6121],[-69.70301,45.62053],[-69.70165,45.62773],[-69.70823,45.63754],[-69.71813,45.63975],[-69.716,45.64809],[-69.69471,45.64067],[-69.69181,45.64494],[-69.70174,45.65179],[-69.72357,45.65739],[-69.73173,45.65582],[-69.7354,45.65112],[-69.74452,45.66375],[-69.73939,45.66745],[-69.73849,45.67903],[-69.74856,45.6812],[-69.75473,45.67941],[-69.77297,45.68572],[-69.78526,45.69278],[-69.79024,45.71034],[-69.8046,45.7163],[-69.80273,45.72376],[-69.79191,45.72568],[-69.80008,45.73314],[-69.80825,45.73278],[-69.82401,45.7422],[-69.81703,45.74669],[-69.80304,45.74892],[-69.78945,45.7471],[-69.79318,45.76155],[-69.79009,45.76798],[-69.77655,45.76791],[-69.76852,45.76132],[-69.75035,45.76346],[-69.73668,45.75465],[-69.72461,45.7658],[-69.72953,45.77614],[-69.73767,45.78278],[-69.72467,45.78364],[-69.71778,45.79789],[-69.70885,45.81092],[-69.7165,45.82905],[-69.71206,45.83226],[-69.70432,45.84619],[-69.71741,45.86578],[-69.72396,45.86557],[-69.72494,45.87404],[-69.7337,45.87703],[-69.70816,45.8857],[-69.69838,45.88447],[-69.70257,45.87855],[-69.70131,45.87261],[-69.69308,45.86419],[-69.68979,45.85403],[-69.68337,45.851],[-69.67482,45.85321],[-69.66699,45.86199],[-69.65656,45.86031],[-69.64657,45.86399],[-69.68356,45.98363],[-69.72858,45.97688],[-69.73232,46.39401],[-69.71925,46.39411],[-69.72111,46.57405],[-70.02336,46.57352]]]},"properties":{"STATEFP":"23","COUNTYFP":"025","COUNTYNS":"00581298","GEOIDFQ":"0500000US23025","GEOID":"23025","NAME":"Somerset","NAMELSAD":"Somerset County","STUSPS":"ME","STATE_NAME":"Maine","LSAD":"06","ALAND":10163811939,"AWATER":437942553}},
{"type":"Feature","geometry":{"type":"Polygon","coordinates":[[[-70.2389,44.45894],[-70.20128,44.47798],[-70.12939,44.48722],[-70.04235,44.48524],[-70.04634,44.49078],[-70.03712,44.50185],[-70.03555,44.50808],[-70.04144,44.51415],[-70.07223,44.52932],[-70.0712,44.53483],[-70.06008,44.54543],[-70.04242,44.57103],[-70.03752,44.58362],[-70.04021,44.58872],[-69.95349,44.57469],[-69.92766,44.60412],[-69.93045,44.61085],[-69.94708,44.64802],[-69.9674,44.6584],[-69.95937,44.66108],[-69.95825,44.66845],[-69.96164,44.67325],[-69.96015,44.68123],[-69.99619,44.6775],[-70.01353,44.7577],[-70.00066,44.75904],[-70.00083,44.77382],[-70.00315,44.78829],[-70.0156,44.78695],[-70.02072,44.80977],[-70.02711,44.80906],[-70.03226,44.82984],[-70.02553,44.83068],[-70.03327,44.86454],[-70.12993,44.85077],[-70.14159,44.89577],[-70.14908,44.8961],[-70.15258,44.9103],[-70.14477,44.91149],[-70.15211,44.94185],[-70.11036,44.94731],[-70.12243,45.00006],[-70.12451,45.00559],[-70.15937,45.1284],[-70.29383,45.1099],[-70.30849,45.16318],[-70.31248,45.16468],[-70.36491,45.1576],[-70.36357,45.15248],[-70.41852,45.14401],[-70.46008,45.30153],[-70.5187,45.51213],[-70.50577,45.51377],[-70.53368,45.60204],[-70.55283,45.66783],[-70.5584,45.66667],[-70.56479,45.65515],[-70.57563,45.64829],[-70.59225,45.62987],[-70.60619,45.62639],[-70.61982,45.61198],[-70.63531,45.61021],[-70.64469,45.60708],[-70.65929,45.58688],[-70.67212,45.57842],[-70.68871,45.56164],[-70.67717,45.55217],[-70.68761,45.5491],[-70.69617,45.5404],[-70.71085,45.52005],[-70.72161,45.51506],[-70.72123,45.50595],[-70.71184,45.50211],[-70.7178,45.49019],[-70.70794,45.48088],[-70.69209,45.47466],[-70.69042,45.46361],[-70.68195,45.46185],[-70.68116,45.45218],[-70.6749,45.4524],[-70.66295,45.44655],[-70.65068,45.44492],[-70.6415,45.43186],[-70.63133,45.42683],[-70.62746,45.42163],[-70.63527,45.41215],[-70.62385,45.40597],[-70.62342,45.40036],[-70.63401,45.39792],[-70.63893,45.38892],[-70.63466,45.38361],[-70.65117,45.37712],[-70.66077,45.37818],[-70.66116,45.38604],[-70.67799,45.39436],[-70.71229,45.39061],[-70.72997,45.39936],[-70.73084,45.4046],[-70.74377,45.41193],[-70.74408,45.42109],[-70.75557,45.42836],[-70.76529,45.42632],[-70.78147,45.43116],[-70.78813,45.4266],[-70.79803,45.42671],[-70.80222,45.41798],[-70.81136,45.41617],[-70.8128,45.41137],[-70.82561,45.40031],[-70.82405,45.39109],[-70.81767,45.3904],[-70.80624,45.37656],[-70.80265,45.36493],[-70.80871,45.36265],[-70.81011,45.3485],[-70.81947,45.34144],[-70.81905,45.33506],[-70.80642,45.3206],[-70.80861,45.31161],[-70.81401,45.30885],[-70.81234,45.30201],[-70.83554,45.2938],[-70.82966,45.29037],[-70.83153,45.27956],[-70.83507,45.27674],[-70.77984,45.01838],[-70.82363,45.01379],[-70.80454,44.92493],[-70.79641,44.92588],[-70.7739,44.83974],[-70.76923,44.73223],[-70.61503,44.79563],[-70.5106,44.62722],[-70.54999,44.61073],[-70.47164,44.59861],[-70.34758,44.58018],[-70.28075,44.56962],[-70.30766,44.53788],[-70.28989,44.54025],[-70.28091,44.5051],[-70.27062,44.50622],[-70.26939,44.50118],[-70.25089,44.5034],[-70.2389,44.45894]]]},"properties":{"STATEFP":"23","COUNTYFP":"007","COUNTYNS":"00581289","GEOIDFQ":"0500000US23007","GEOID":"23007","NAME":"Franklin","NAMELSAD":"Franklin County","STUSPS":"ME","STATE_NAME":"Maine","LSAD":"06","ALAND":4395226705,"AWATER":121284631}},
{"type":"Feature","geometry":{"type":"Polygon","coordinates":[[[-69.72111,46.57405],[-69.71925,46.39411],[-69.73232,46.39401],[-69.72858,45.97688],[-69.68356,45.98363],[-69.64657,45.86399],[-69.65656,45.86031],[-69.66699,45.86199],[-69.67482,45.85321],[-69.68337,45.851],[-69.68979,45.85403],[-69.69308,45.86419],[-69.70131,45.87261],[-69.70257,45.87855],[-69.69838,45.88447],[-69.70816,45.8857],[-69.7337,45.87703],[-69.72494,45.87404],[-69.72396,45.86557],[-69.71741,45.86578],[-69.70432,45.84619],[-69.71206,45.83226],[-69.7165,45.82905],[-69.70885,45.81092],[-69.71778,45.79789],[-69.72467,45.78364],[-69.73767,45.78278],[-69.72953,45.77614],[-69.72461,45.7658],[-69.73668,45.75465],[-69.75035,45.76346],[-69.76852,45.76132],[-69.77655,45.76791],[-69.79009,45.76798],[-69.79318,45.76155],[-69.78945,45.7471],[-69.80304,45.74892],[-69.81703,45.74669],[-69.82401,45.7422],[-69.80825,45.73278],[-69.80008,45.73314],[-69.79191,45.72568],[-69.80273,45.72376],[-69.8046,45.7163],[-69.79024,45.71034],[-69.78526,45.69278],[-69.77297,45.68572],[-69.75473,45.67941],[-69.74856,45.6812],[-69.73849,45.67903],[-69.73939,45.66745],[-69.74452,45.66375],[-69.7354,45.65112],[-69.73173,45.65582],[-69.72357,45.65739],[-69.70174,45.65179],[-69.69181,45.64494],[-69.69471,45.64067],[-69.716,45.64809],[-69.71813,45.63975],[-69.70823,45.63754],[-69.70165,45.62773],[-69.70301,45.62053],[-69.71725,45.6121],[-69.72079,45.60218],[-69.71275,45.59236],[-69.71475,45.58656],[-69.72325,45.58192],[-69.73135,45.56702],[-69.75907,45.55461],[-69.77437,45.55385],[-69.77337,45.54536],[-69.77993,45.54277],[-69.72921,45.37918],[-69.70043,45.29246],[-69.70832,45.29135],[-69.70406,45.27309],[-69.68365,45.2124],[-69.68703,45.20823],[-69.65476,45.09999],[-69.64576,45.10132],[-69.62097,45.01096],[-69.51565,45.02504],[-69.5186,45.03427],[-69.49519,45.03735],[-69.49986,45.05378],[-69.35567,45.07347],[-69.23202,45.09017],[-69.12499,45.10494],[-68.9836,45.12584],[-68.85659,45.14278],[-68.88092,45.22495],[-68.77606,45.24032],[-68.80091,45.32915],[-68.83121,45.44243],[-68.8573,45.5273],[-68.87514,45.5245],[-68.96465,45.51237],[-68.95172,45.58178],[-68.9507,45.63843],[-68.95891,45.6622],[-68.82704,45.68483],[-68.82206,46.16687],[-68.82064,46.2148],[-68.8194,46.39578],[-68.82176,46.3958],[-68.82141,46.57251],[-69.38086,46.57287],[-69.62292,46.57399],[-69.72111,46.57405]]]},"properties":{"STATEFP":"23","COUNTYFP":"021","COUNTYNS":"00581296","GEOIDFQ":"0500000US23021","GEOID":"23021","NAME":"Piscataquis","NAMELSAD":"Piscataquis County","STUSPS":"ME","STATE_NAME":"Maine","LSAD":"06","ALAND":10258545867,"AWATER":1080517302}},
{"type":"Feature","geometry":{"type":"Polygon","coordinates":[[[-70.48008,44.03208],[-70.47965,44.02629],[-70.44859,44.00943],[-70.44503,44.0128],[-70.40195,43.99011],[-70.3983,43.99209],[-70.39532,44.00309],[-70.36387,43.98645],[-70.31537,44.03781],[-70.25313,43.9924],[-70.20028,43.95199],[-70.19699,43.94595],[-70.11586,43.90671],[-70.09233,43.93195],[-70.08084,43.92646],[-70.03424,43.97566],[-70.04659,43.98564],[-70.05075,43.99409],[-70.03234,44.00324],[-70.0375,44.01911],[-70.03416,44.02972],[-70.02513,44.03636],[-70.02725,44.04336],[-70.00547,44.12452],[-70.01173,44.12801],[-70.02739,44.13058],[-70.0185,44.15785],[-70.01395,44.15758],[-70.01033,44.16865],[-69.9988,44.16683],[-69.99379,44.18059],[-70.0605,44.19178],[-70.05566,44.19914],[-70.06588,44.20076],[-70.07575,44.20617],[-70.07426,44.29015],[-70.07446,44.29847],[-70.09905,44.31955],[-70.10286,44.33722],[-70.12891,44.3682],[-70.12005,44.37271],[-70.12217,44.38113],[-70.10049,44.38385],[-70.12939,44.48722],[-70.20128,44.47798],[-70.2389,44.45894],[-70.27441,44.44063],[-70.26829,44.41641],[-70.27869,44.41517],[-70.26522,44.36291],[-70.30645,44.25886],[-70.32522,44.2084],[-70.33409,44.21075],[-70.37393,44.1718],[-70.43739,44.10788],[-70.48529,44.0604],[-70.47907,44.05408],[-70.48146,44.04369],[-70.48008,44.03208]]]},"properties":{"STATEFP":"23","COUNTYFP":"001","COUNTYNS":"00581286","GEOIDFQ":"0500000US23001","GEOID":"23001","NAME":"Androscoggin","NAMELSAD":"Androscoggin County","STUSPS":"ME","STATE_NAME":"Maine","LSAD":"06","ALAND":1211995418,"AWATER":75541705}},
{"type":"Feature","geometry":{"type":"MultiPolygon","coordinates":[[[[-70.35339,43.53541],[-70.34179,43.54048],[-70.3288,43.54075],[-70.31813,43.53476],[-70.32333,43.5292],[-70.31311,43.52696],[-70.31415,43.53526],[-70.30776,43.54432],[-70.29918,43.55059],[-70.2725,43.56262],[-70.26417,43.55318],[-70.24433,43.55185],[-70.23196,43.56112],[-70.22338,43.56403],[-70.21678,43.55687],[-70.20612,43.55763],[-70.19691,43.56515],[-70.20778,43.57823],[-70.20307,43.58629],[-70.21485,43.59015],[-70.21749,43.59709],[-70.20749,43.62348],[-70.22137,43.63285],[-70.22517,43.65023],[-70.23159,43.65108],[-70.24099,43.65913],[-70.24038,43.67052],[-70.25296,43.67501],[-70.25141,43.68518],[-70.23562,43.69888],[-70.23199,43.70482],[-70.21471,43.69733],[-70.21683,43.70482],[-70.21376,43.71279],[-70.218,43.71998],[-70.19379,43.74165],[-70.1926,43.74834],[-70.19759,43.75321],[-70.1869,43.77341],[-70.17549,43.77289],[-70.18048,43.76156],[-70.17602,43.76079],[-70.15327,43.77558],[-70.15416,43.78015],[-70.13622,43.79502],[-70.11952,43.80144],[-70.11338,43.8009],[-70.10704,43.80755],[-70.0992,43.80909],[-70.09433,43.81596],[-70.08068,43.81985],[-70.07327,43.8241],[-70.06363,43.82563],[-70.06859,43.81136],[-70.05784,43.81698],[-70.05838,43.82468],[-70.05356,43.83019],[-70.04405,43.83499],[-70.04192,43.84167],[-70.0192,43.85873],[-70.01007,43.8583],[-69.99462,43.86704],[-69.98844,43.86636],[-69.99557,43.85213],[-70.00287,43.84824],[-70.00817,43.84082],[-70.02314,43.83053],[-70.01411,43.83053],[-69.99652,43.84133],[-69.99272,43.84836],[-69.97874,43.85385],[-69.97285,43.85288],[-69.95181,43.85668],[-69.95412,43.84769],[-69.95904,43.84658],[-69.96433,43.83874],[-69.97703,43.82744],[-69.97608,43.81904],[-69.98131,43.81218],[-69.99367,43.80909],[-70.00425,43.78657],[-70.0139,43.78224],[-70.01928,43.76735],[-70.02885,43.76378],[-70.04334,43.748],[-70.03597,43.74319],[-70.021,43.74646],[-70.02647,43.72894],[-70.01149,43.74337],[-70.00175,43.74646],[-69.99462,43.74354],[-69.9989,43.73554],[-69.99625,43.72994],[-70.00721,43.71763],[-70.00011,43.71529],[-69.99261,43.72479],[-69.99448,43.72845],[-69.98368,43.7444],[-69.97988,43.75384],[-69.9723,43.75347],[-69.95625,43.77237],[-69.94346,43.76522],[-69.93187,43.7837],[-69.92086,43.77745],[-69.91024,43.7777],[-69.9018,43.77162],[-69.88739,43.77705],[-69.88734,43.78794],[-69.88005,43.79815],[-69.87009,43.81667],[-69.87612,43.83716],[-69.87488,43.8514],[-69.88387,43.85447],[-69.89493,43.8643],[-69.89323,43.87852],[-69.88959,43.88508],[-69.88208,43.89034],[-69.87051,43.90769],[-69.86482,43.91938],[-69.86248,43.93158],[-69.85703,43.94474],[-69.87466,43.95359],[-69.8905,43.93782],[-69.91123,43.92205],[-69.92134,43.92014],[-69.92781,43.91345],[-69.9339,43.91244],[-69.95413,43.923],[-69.96101,43.92296],[-69.97623,43.91528],[-69.98178,43.91774],[-69.9906,43.92915],[-70.00233,43.9336],[-70.00804,43.94202],[-70.02024,43.94606],[-70.02733,43.9631],[-70.03424,43.97566],[-70.08084,43.92646],[-70.09233,43.93195],[-70.11586,43.90671],[-70.19699,43.94595],[-70.20028,43.95199],[-70.25313,43.9924],[-70.31537,44.03781],[-70.36387,43.98645],[-70.39532,44.00309],[-70.3983,43.99209],[-70.40195,43.99011],[-70.44503,44.0128],[-70.44859,44.00943],[-70.47965,44.02629],[-70.48008,44.03208],[-70.50237,44.04257],[-70.509,44.04145],[-70.54409,44.00565],[-70.56385,44.02499],[-70.57237,44.0163],[-70.58259,44.01869],[-70.58359,44.023],[-70.59468,44.03118],[-70.61265,44.06281],[-70.60887,44.06773],[-70.60907,44.07901],[-70.60301,44.08859],[-70.60617,44.10129],[-70.59894,44.11203],[-70.58733,44.12252],[-70.59866,44.14977],[-70.60797,44.15411],[-70.62433,44.17104],[-70.6709,44.14756],[-70.69592,44.13422],[-70.6995,44.1392],[-70.73997,44.11941],[-70.8218,44.07709],[-70.85855,44.09527],[-70.8578,44.08804],[-70.86658,44.07971],[-70.86132,44.07723],[-70.85845,44.05964],[-70.84808,44.04952],[-70.79253,44.04014],[-70.791,44.03017],[-70.78176,44.03139],[-70.71542,43.96182],[-70.74751,43.9459],[-70.72978,43.92833],[-70.75248,43.91401],[-70.75793,43.90686],[-70.75451,43.88846],[-70.74388,43.88585],[-70.76529,43.87154],[-70.76629,43.87724],[-70.78049,43.86823],[-70.7815,43.87388],[-70.79819,43.8633],[-70.80161,43.85608],[-70.79221,43.84609],[-70.79472,43.83544],[-70.78713,43.8326],[-70.78165,43.82356],[-70.78298,43.81415],[-70.78033,43.80352],[-70.76607,43.79242],[-70.74532,43.78803],[-70.73323,43.78955],[-70.71264,43.79961],[-70.70148,43.79793],[-70.69895,43.80401],[-70.68959,43.79585],[-70.68434,43.7968],[-70.67547,43.7894],[-70.66281,43.79125],[-70.65299,43.78754],[-70.6557,43.78026],[-70.64984,43.76837],[-70.65588,43.76605],[-70.65108,43.75845],[-70.64397,43.75559],[-70.64556,43.74173],[-70.65342,43.73143],[-70.65962,43.7109],[-70.65737,43.70154],[-70.64974,43.69914],[-70.64257,43.70299],[-70.63087,43.70445],[-70.61449,43.69833],[-70.60564,43.6877],[-70.59534,43.6972],[-70.5774,43.68719],[-70.54996,43.7158],[-70.4737,43.65548],[-70.45774,43.64237],[-70.49201,43.60677],[-70.45179,43.58751],[-70.45346,43.58587],[-70.41297,43.56511],[-70.35339,43.53541]]],[[[-70.01791,43.81698],[-70.00935,43.81132],[-69.99699,43.8223],[-69.99985,43.8295],[-70.01435,43.82316],[-70.01791,43.81698]]],[[[-70.03764,43.71485],[-70.03122,43.71468],[-70.021,43.72465],[-70.02884,43.72636],[-70.03764,43.71485]]],[[[-70.04881,43.79297],[-70.04656,43.782],[-70.03906,43.78508],[-70.0412,43.79057],[-70.0355,43.79503],[-70.03692,43.80138],[-70.04881,43.79297]]],[[[-70.10123,43.67547],[-70.09604,43.67228],[-70.08845,43.68145],[-70.09285,43.68784],[-70.10123,43.67547]]],[[[-70.11465,43.78062],[-70.10202,43.77681],[-70.08965,43.78519],[-70.09604,43.78838],[-70.11465,43.78062]]],[[[-70.13814,43.72756],[-70.1372,43.72091],[-70.12068,43.71257],[-70.11536,43.71724],[-70.11678,43.72294],[-70.10733,43.72541],[-70.1111,43.73068],[-70.09749,43.74834],[-70.10341,43.75611],[-70.10792,43.74791],[-70.11503,43.74915],[-70.12582,43.74545],[-70.12935,43.73683],[-70.13814,43.72756]]],[[[-70.16028,43.74972],[-70.1415,43.74955],[-70.12344,43.75762],[-70.12011,43.76517],[-70.1339,43.76397],[-70.13081,43.77083],[-70.12035,43.77272],[-70.12653,43.77959],[-70.13179,43.77494],[-70.14554,43.77581],[-70.14554,43.76122],[-70.16028,43.74972]]],[[[-70.17357,43.68373],[-70.16908,43.67877],[-70.16012,43.67856],[-70.15172,43.68169],[-70.15386,43.68616],[-70.1455,43.69031],[-70.13913,43.69922],[-70.13366,43.70231],[-70.14055,43.70764],[-70.14611,43.70164],[-70.16388,43.6924],[-70.17357,43.68373]]],[[[-70.20116,43.65195],[-70.18405,43.65109],[-70.17666,43.65977],[-70.18714,43.67395],[-70.19783,43.66312],[-70.20116,43.65195]]],[[[-70.20973,43.64148],[-70.1974,43.63874],[-70.19746,43.64463],[-70.20343,43.64719],[-70.20973,43.64148]]],[[[-70.21395,43.66616],[-70.21082,43.6617],[-70.20021,43.67052],[-70.19308,43.67344],[-70.18215,43.69492],[-70.20189,43.68548],[-70.20615,43.67172],[-70.21395,43.66616]]],[[[-70.238,43.5473],[-70.2455,43.53964],[-70.22784,43.53826],[-70.2244,43.5472],[-70.238,43.5473]]]]},"properties":{"STATEFP":"23","COUNTYFP":"005","COUNTYNS":"00581288","GEOIDFQ":"0500000US23005","GEOID":"23005","NAME":"Cumberland","NAMELSAD":"Cumberland County","STUSPS":"ME","STATE_NAME":"Maine","LSAD":"06","ALAND":2165743897,"AWATER":987468030}},
{"type":"Feature","geometry":{"type":"Polygon","coordinates":[[[-69.50638,44.34287],[-69.4455,44.46384],[-69.39599,44.45708],[-69.38481,44.49628],[-69.37242,44.54459],[-69.41684,44.55108],[-69.39312,44.64038],[-69.46061,44.64705],[-69.46056,44.65561],[-69.45463,44.66282],[-69.44629,44.66422],[-69.44294,44.67238],[-69.4756,44.67668],[-69.47732,44.69206],[-69.47171,44.6929],[-69.46753,44.70799],[-69.4732,44.70874],[-69.47038,44.71816],[-69.48339,44.72027],[-69.60362,44.70462],[-69.63312,44.70037],[-69.62869,44.67243],[-69.61697,44.65629],[-69.60557,44.65105],[-69.57909,44.62697],[-69.57995,44.62147],[-69.59305,44.60168],[-69.58927,44.58923],[-69.59272,44.58241],[-69.60575,44.57726],[-69.74209,44.59825],[-69.74428,44.60261],[-69.77629,44.60824],[-69.78732,44.59411],[-69.79281,44.57733],[-69.81847,44.58131],[-69.81709,44.59641],[-69.82036,44.60318],[-69.85327,44.62151],[-69.93045,44.61085],[-69.92766,44.60412],[-69.95349,44.57469],[-70.04021,44.58872],[-70.03752,44.58362],[-70.04242,44.57103],[-70.06008,44.54543],[-70.0712,44.53483],[-70.07223,44.52932],[-70.04144,44.51415],[-70.03555,44.50808],[-70.03712,44.50185],[-70.04634,44.49078],[-70.04235,44.48524],[-70.12939,44.48722],[-70.10049,44.38385],[-70.12217,44.38113],[-70.12005,44.37271],[-70.12891,44.3682],[-70.10286,44.33722],[-70.09905,44.31955],[-70.07446,44.29847],[-70.07426,44.29015],[-70.07575,44.20617],[-70.06588,44.20076],[-70.05566,44.19914],[-70.0605,44.19178],[-69.99379,44.18059],[-69.9988,44.16683],[-70.01033,44.16865],[-70.01395,44.15758],[-70.0185,44.15785],[-70.02739,44.13058],[-70.01173,44.12801],[-70.00547,44.12452],[-69.89778,44.10766],[-69.8946,44.12314],[-69.8884,44.13666],[-69.87807,44.15337],[-69.86622,44.16208],[-69.85498,44.16786],[-69.76357,44.15322],[-69.75821,44.13933],[-69.65674,44.12239],[-69.66544,44.22758],[-69.65017,44.27963],[-69.63409,44.27705],[-69.5474,44.26099],[-69.53484,44.26736],[-69.53441,44.27221],[-69.52142,44.28056],[-69.50638,44.34287]]]},"properties":{"STATEFP":"23","COUNTYFP":"011","COUNTYNS":"00581291","GEOIDFQ":"0500000US23011","GEOID":"23011","NAME":"Kennebec","NAMELSAD":"Kennebec County","STUSPS":"ME","STATE_NAME":"Maine","LSAD":"06","ALAND":2246739232,"AWATER":216791392}},
{"type":"Feature","geometry":{"type":"Polygon","coordinates":[[[-68.04801,45.6399],[-68.16682,45.62038],[-68.26014,45.60448],[-68.2575,45.59795],[-68.30081,45.59053],[-68.41439,45.57285],[-68.43303,45.57848],[-68.43246,45.66783],[-68.43071,45.75992],[-68.42755,45.75987],[-68.42662,45.85338],[-68.4276,45.94459],[-68.43168,45.95244],[-68.43229,45.99],[-68.43227,46.03557],[-68.4369,46.04289],[-68.43628,46.12474],[-68.43693,46.16808],[-68.43637,46.1833],[-68.43741,46.20753],[-68.43644,46.38212],[-68.56787,46.38254],[-68.69488,46.38261],[-68.69492,46.39551],[-68.8194,46.39578],[-68.82064,46.2148],[-68.82206,46.16687],[-68.82704,45.68483],[-68.95891,45.6622],[-68.9507,45.63843],[-68.95172,45.58178],[-68.96465,45.51237],[-68.87514,45.5245],[-68.8573,45.5273],[-68.83121,45.44243],[-68.80091,45.32915],[-68.77606,45.24032],[-68.88092,45.22495],[-68.85659,45.14278],[-68.9836,45.12584],[-69.12499,45.10494],[-69.23202,45.09017],[-69.35567,45.07347],[-69.33774,45.01111],[-69.30552,44.89599],[-69.28127,44.80866],[-69.28634,44.80799],[-69.26678,44.72193],[-69.2052,44.72959],[-69.19805,44.6996],[-69.18373,44.64402],[-69.08863,44.65931],[-68.89673,44.69172],[-68.89588,44.68925],[-68.86536,44.69422],[-68.86598,44.69696],[-68.83753,44.70213],[-68.83561,44.69132],[-68.81925,44.68751],[-68.81579,44.68375],[-68.7978,44.68883],[-68.78598,44.68665],[-68.78512,44.67844],[-68.76634,44.67571],[-68.7719,44.66445],[-68.74395,44.66058],[-68.72689,44.69613],[-68.71387,44.70362],[-68.69093,44.72167],[-68.64713,44.70364],[-68.61667,44.74099],[-68.55479,44.74873],[-68.44522,44.76301],[-68.45489,44.80155],[-68.47795,44.88909],[-68.5011,44.98072],[-68.37589,44.99737],[-68.3969,45.0833],[-68.37446,45.08605],[-68.2705,45.10012],[-68.29544,45.19044],[-68.30371,45.22153],[-68.18069,45.23717],[-68.05498,45.25258],[-68.03364,45.25608],[-67.99946,45.25968],[-67.93976,45.26785],[-67.96688,45.35188],[-67.95793,45.35325],[-67.99324,45.46702],[-68.02035,45.55329],[-68.04801,45.6399]]]},"properties":{"STATEFP":"23","COUNTYFP":"019","COUNTYNS":"00581295","GEOIDFQ":"0500000US23019","GEOID":"23019","NAME":"Penobscot","NAMELSAD":"Penobscot County","STUSPS":"ME","STATE_NAME":"Maine","LSAD":"06","ALAND":8798671486,"AWATER":414011334}},
{"type":"Feature","geometry":{"type":"MultiPolygon","coordinates":[[[[-68.05498,45.25258],[-68.18069,45.23717],[-68.30371,45.22153],[-68.29544,45.19044],[-68.2705,45.10012],[-68.37446,45.08605],[-68.3969,45.0833],[-68.37589,44.99737],[-68.5011,44.98072],[-68.47795,44.88909],[-68.45489,44.80155],[-68.44522,44.76301],[-68.55479,44.74873],[-68.61667,44.74099],[-68.64713,44.70364],[-68.69093,44.72167],[-68.71387,44.70362],[-68.72689,44.69613],[-68.74395,44.66058],[-68.7719,44.66445],[-68.76634,44.67571],[-68.78512,44.67844],[-68.78598,44.68665],[-68.7978,44.68883],[-68.81579,44.68375],[-68.81183,44.67135],[-68.82242,44.66401],[-68.83163,44.65161],[-68.83433,44.64251],[-68.84695,44.62531],[-68.84476,44.61349],[-68.83005,44.60364],[-68.82362,44.59602],[-68.81504,44.57785],[-68.80779,44.5712],[-68.79827,44.5681],[-68.80609,44.55363],[-68.8033,44.54336],[-68.80234,44.52492],[-68.78566,44.51209],[-68.77782,44.4948],[-68.77782,44.48497],[-68.78685,44.46343],[-68.78281,44.45511],[-68.79951,44.44892],[-68.80163,44.4348],[-68.81201,44.43034],[-68.81703,44.42542],[-68.82183,44.40708],[-68.81299,44.3957],[-68.82127,44.39367],[-68.81989,44.38144],[-68.81062,44.3811],[-68.80967,44.37396],[-68.81591,44.36637],[-68.81481,44.36219],[-68.82542,44.33455],[-68.81965,44.32671],[-68.82763,44.32109],[-68.8272,44.31216],[-68.79506,44.30786],[-68.7878,44.31821],[-68.77397,44.31883],[-68.76202,44.3296],[-68.75072,44.32943],[-68.73931,44.33317],[-68.72566,44.32159],[-68.69701,44.30877],[-68.69772,44.30486],[-68.6894,44.2967],[-68.67946,44.3031],[-68.6711,44.29533],[-68.65524,44.29248],[-68.63229,44.28642],[-68.63115,44.29577],[-68.62425,44.30211],[-68.61902,44.29359],[-68.62573,44.28654],[-68.62457,44.27918],[-68.61395,44.27523],[-68.60338,44.27471],[-68.57721,44.25415],[-68.54869,44.2436],[-68.55202,44.23644],[-68.53459,44.22933],[-68.52279,44.2281],[-68.52255,44.23696],[-68.52815,44.24126],[-68.53301,44.25432],[-68.54251,44.25841],[-68.55321,44.25892],[-68.55654,44.26777],[-68.55535,44.2739],[-68.53919,44.26232],[-68.53063,44.26249],[-68.51922,44.25909],[-68.51898,44.26522],[-68.52861,44.27612],[-68.53227,44.28634],[-68.53087,44.30044],[-68.53859,44.2999],[-68.53633,44.29125],[-68.55012,44.29193],[-68.55122,44.29764],[-68.564,44.30802],[-68.56694,44.3176],[-68.56272,44.32612],[-68.56321,44.33304],[-68.5548,44.34113],[-68.55387,44.34626],[-68.54543,44.355],[-68.55005,44.37179],[-68.55928,44.37431],[-68.55844,44.37948],[-68.56474,44.38522],[-68.56642,44.39445],[-68.56096,44.40285],[-68.55509,44.40369],[-68.53452,44.39781],[-68.52778,44.39851],[-68.51452,44.41334],[-68.50556,44.41166],[-68.49969,44.41418],[-68.49355,44.43212],[-68.48928,44.43239],[-68.4869,44.44502],[-68.47977,44.45418],[-68.4743,44.45113],[-68.47668,44.44502],[-68.47596,44.4311],[-68.48048,44.43059],[-68.47282,44.40411],[-68.47953,44.3997],[-68.48332,44.38816],[-68.47871,44.37894],[-68.46215,44.3794],[-68.46411,44.39808],[-68.45766,44.40768],[-68.45837,44.42007],[-68.46551,44.43382],[-68.47121,44.44027],[-68.45837,44.44705],[-68.45837,44.45384],[-68.46836,44.46843],[-68.46883,44.48183],[-68.47311,44.48675],[-68.46693,44.49031],[-68.43722,44.48268],[-68.43722,44.49014],[-68.42534,44.49828],[-68.42557,44.47861],[-68.43033,44.45673],[-68.427,44.44146],[-68.4314,44.4316],[-68.43389,44.41396],[-68.42946,44.40939],[-68.4339,44.40153],[-68.4308,44.39698],[-68.42178,44.39641],[-68.41322,44.39953],[-68.39256,44.41807],[-68.39093,44.42739],[-68.39278,44.43535],[-68.38303,44.43297],[-68.37566,44.42414],[-68.36853,44.42058],[-68.36211,44.40547],[-68.35427,44.40054],[-68.35641,44.39222],[-68.36372,44.38894],[-68.36829,44.39358],[-68.37709,44.39086],[-68.37733,44.3822],[-68.38903,44.38048],[-68.39803,44.37619],[-68.39655,44.36394],[-68.40987,44.35626],[-68.41717,44.34462],[-68.41702,44.33972],[-68.40704,44.33717],[-68.41196,44.32226],[-68.43085,44.31261],[-68.43095,44.29862],[-68.42611,44.2951],[-68.42367,44.28394],[-68.41583,44.28598],[-68.40822,44.28155],[-68.41298,44.27441],[-68.41087,44.26526],[-68.40444,44.26096],[-68.40454,44.25387],[-68.39468,44.25007],[-68.38959,44.24517],[-68.37798,44.24756],[-68.36536,44.23787],[-68.35166,44.23713],[-68.34313,44.22951],[-68.3395,44.22289],[-68.31759,44.2251],[-68.31059,44.22816],[-68.30769,44.23593],[-68.30103,44.23644],[-68.2977,44.24257],[-68.29105,44.24615],[-68.29526,44.26172],[-68.30293,44.26947],[-68.31363,44.27032],[-68.30959,44.27781],[-68.32005,44.28802],[-68.31719,44.29431],[-68.30911,44.29721],[-68.30056,44.29431],[-68.29461,44.28666],[-68.28024,44.28645],[-68.2767,44.29107],[-68.25944,44.28802],[-68.24826,44.28832],[-68.24256,44.29551],[-68.23591,44.28904],[-68.22426,44.29023],[-68.20239,44.30112],[-68.20073,44.30554],[-68.18893,44.30732],[-68.18956,44.31779],[-68.18267,44.32867],[-68.17554,44.33207],[-68.1745,44.34518],[-68.17958,44.34941],[-68.18198,44.36253],[-68.19694,44.38635],[-68.20354,44.39237],[-68.21554,44.39047],[-68.23947,44.40937],[-68.24996,44.41481],[-68.24304,44.42007],[-68.24744,44.43328],[-68.26847,44.43976],[-68.28392,44.43348],[-68.29427,44.43303],[-68.29906,44.43789],[-68.31196,44.44434],[-68.31886,44.44434],[-68.33217,44.43501],[-68.3324,44.42669],[-68.33787,44.42194],[-68.34738,44.42228],[-68.34952,44.42822],[-68.35879,44.42652],[-68.36734,44.4311],[-68.36188,44.43976],[-68.35451,44.444],[-68.3538,44.45418],[-68.32931,44.44977],[-68.32313,44.46232],[-68.30959,44.4574],[-68.29818,44.44977],[-68.28057,44.45157],[-68.28392,44.45893],[-68.29414,44.47165],[-68.28487,44.47369],[-68.268,44.47147],[-68.26276,44.47979],[-68.26443,44.48725],[-68.25302,44.48386],[-68.24327,44.47267],[-68.22939,44.4635],[-68.22379,44.46555],[-68.22997,44.47912],[-68.21856,44.49336],[-68.21832,44.49963],[-68.21238,44.51319],[-68.21143,44.52014],[-68.20168,44.51997],[-68.20182,44.50999],[-68.19693,44.49336],[-68.18742,44.48776],[-68.18956,44.47538],[-68.19455,44.47189],[-68.17105,44.47021],[-68.16151,44.47352],[-68.16793,44.48641],[-68.1608,44.49573],[-68.15105,44.49811],[-68.14155,44.492],[-68.13939,44.47847],[-68.1318,44.47589],[-68.12135,44.47895],[-68.11523,44.4679],[-68.11943,44.45951],[-68.11984,44.44566],[-68.11612,44.42686],[-68.1097,44.41684],[-68.1135,44.40903],[-68.11229,44.40159],[-68.09995,44.39188],[-68.10423,44.38832],[-68.10138,44.37965],[-68.09298,44.37095],[-68.08783,44.37677],[-68.09425,44.3873],[-68.07761,44.38849],[-68.07476,44.37609],[-68.07787,44.37305],[-68.07607,44.34793],[-68.06705,44.33569],[-68.06036,44.33199],[-68.05361,44.33768],[-68.04481,44.33462],[-68.04304,44.34367],[-68.04576,44.35791],[-68.02794,44.36759],[-68.02561,44.3759],[-68.01415,44.38594],[-68.01962,44.39885],[-68.01154,44.40326],[-68.01035,44.41294],[-68.00393,44.4109],[-67.99438,44.39593],[-67.98373,44.38441],[-67.97042,44.39545],[-67.95877,44.39885],[-67.964,44.40954],[-67.97161,44.4109],[-67.96994,44.41905],[-67.97398,44.42092],[-67.98207,44.44112],[-67.99728,44.44824],[-67.99823,44.45164],[-68.01463,44.45401],[-68.02485,44.46232],[-68.02746,44.47606],[-68.02104,44.47861],[-68.01249,44.47589],[-68.01296,44.46894],[-67.99276,44.4608],[-67.98201,44.47336],[-67.97426,44.47911],[-67.97297,44.48863],[-67.9772,44.49795],[-67.99181,44.50448],[-68.01722,44.58909],[-67.99355,44.59216],[-68.01606,44.67668],[-68.03464,44.67414],[-68.05728,44.76146],[-68.08876,44.87232],[-68.10502,44.93909],[-67.98185,44.95589],[-68.03416,45.18087],[-68.05498,45.25258]]],[[[-68.13228,44.41871],[-68.128,44.40666],[-68.11778,44.40954],[-68.1261,44.41854],[-68.13228,44.41871]]],[[[-68.14202,44.43585],[-68.14297,44.4289],[-68.13394,44.42737],[-68.12491,44.44536],[-68.13465,44.45011],[-68.14202,44.43585]]],[[[-68.14915,44.38696],[-68.14055,44.3768],[-68.13394,44.37931],[-68.12562,44.38713],[-68.1261,44.39868],[-68.13537,44.40309],[-68.14915,44.38696]]],[[[-68.20358,44.24275],[-68.19898,44.2367],[-68.19307,44.23901],[-68.1977,44.24635],[-68.20358,44.24275]]],[[[-68.24096,44.2528],[-68.23138,44.2561],[-68.21724,44.25751],[-68.22204,44.26397],[-68.23056,44.26627],[-68.23972,44.26476],[-68.24096,44.2528]]],[[[-68.27472,44.25868],[-68.27686,44.24079],[-68.26667,44.23403],[-68.2604,44.23714],[-68.24891,44.23544],[-68.24314,44.24099],[-68.25064,44.25756],[-68.26213,44.26077],[-68.27472,44.25868]]],[[[-68.34239,44.19369],[-68.33644,44.19028],[-68.32118,44.19903],[-68.32551,44.20749],[-68.33668,44.20664],[-68.33478,44.20016],[-68.34239,44.19369]]],[[[-68.34524,44.43636],[-68.34167,44.42856],[-68.33454,44.43263],[-68.34524,44.43636]]],[[[-68.35403,44.18022],[-68.35094,44.16948],[-68.33977,44.17033],[-68.33478,44.17681],[-68.33882,44.18465],[-68.34833,44.18636],[-68.35403,44.18022]]],[[[-68.37544,44.11628],[-68.37477,44.11082],[-68.36829,44.10711],[-68.34868,44.10465],[-68.33714,44.10147],[-68.33047,44.10923],[-68.34253,44.11139],[-68.33838,44.11826],[-68.34758,44.12333],[-68.35038,44.12843],[-68.36102,44.12092],[-68.36882,44.12073],[-68.37544,44.11628]]],[[[-68.37598,44.1874],[-68.37043,44.18022],[-68.36235,44.18431],[-68.34976,44.19539],[-68.35416,44.19949],[-68.36447,44.19753],[-68.37598,44.1874]]],[[[-68.45688,44.34429],[-68.45006,44.33581],[-68.44221,44.33666],[-68.44572,44.32492],[-68.44055,44.32119],[-68.43175,44.32425],[-68.42819,44.32901],[-68.42914,44.34023],[-68.4251,44.34686],[-68.41464,44.35723],[-68.42581,44.37201],[-68.4354,44.36972],[-68.44136,44.36165],[-68.45009,44.35732],[-68.45688,44.34429]]],[[[-68.47014,44.20165],[-68.45918,44.19768],[-68.45384,44.20168],[-68.46479,44.20698],[-68.47014,44.20165]]],[[[-68.48262,44.22776],[-68.47953,44.21975],[-68.47335,44.21941],[-68.46764,44.22469],[-68.47596,44.23117],[-68.48262,44.22776]]],[[[-68.4907,44.20272],[-68.47834,44.19812],[-68.47121,44.20732],[-68.47668,44.21498],[-68.48612,44.21343],[-68.4907,44.20272]]],[[[-68.49331,44.28257],[-68.48657,44.2691],[-68.46883,44.26351],[-68.46931,44.27049],[-68.48214,44.27934],[-68.49331,44.28257]]],[[[-68.50116,44.15397],[-68.49715,44.14702],[-68.49024,44.14896],[-68.48083,44.14637],[-68.47596,44.15465],[-68.45837,44.15516],[-68.45362,44.15004],[-68.4579,44.14425],[-68.45554,44.13692],[-68.44751,44.13349],[-68.44865,44.12558],[-68.43852,44.11618],[-68.42391,44.12036],[-68.41883,44.13061],[-68.40311,44.13509],[-68.3925,44.14211],[-68.39463,44.15169],[-68.38327,44.15584],[-68.39408,44.1658],[-68.39468,44.16965],[-68.40821,44.1763],[-68.41322,44.18772],[-68.42296,44.18653],[-68.4251,44.18227],[-68.42177,44.17494],[-68.4358,44.16812],[-68.4453,44.17562],[-68.45148,44.19164],[-68.46191,44.19084],[-68.47026,44.1809],[-68.48022,44.1808],[-68.47573,44.17033],[-68.47786,44.16079],[-68.48381,44.16215],[-68.48704,44.17073],[-68.50101,44.15982],[-68.50116,44.15397]]],[[[-68.5187,44.11322],[-68.51772,44.10468],[-68.50829,44.10159],[-68.49152,44.10983],[-68.49289,44.11692],[-68.50235,44.12702],[-68.51127,44.12508],[-68.5187,44.11322]]],[[[-68.53039,44.33358],[-68.53348,44.32996],[-68.52511,44.324],[-68.51517,44.3248],[-68.50021,44.32323],[-68.49142,44.31178],[-68.47878,44.31956],[-68.47882,44.32493],[-68.48808,44.33241],[-68.48595,44.34057],[-68.49117,44.35587],[-68.49864,44.36969],[-68.50136,44.38228],[-68.50766,44.38522],[-68.51857,44.38102],[-68.52193,44.36759],[-68.52067,44.35836],[-68.52863,44.34461],[-68.53039,44.33358]]],[[[-68.55297,44.22759],[-68.54489,44.22026],[-68.53847,44.22589],[-68.55297,44.22759]]],[[[-68.62119,44.15064],[-68.61215,44.14604],[-68.61174,44.15525],[-68.62119,44.15064]]],[[[-68.62736,44.12523],[-68.6231,44.11941],[-68.61501,44.12045],[-68.60854,44.12671],[-68.61881,44.13034],[-68.62736,44.12523]]],[[[-68.73162,44.22269],[-68.71959,44.21101],[-68.71935,44.20664],[-68.73167,44.20225],[-68.72432,44.19772],[-68.71388,44.19965],[-68.71222,44.19028],[-68.71783,44.18709],[-68.72125,44.17102],[-68.70461,44.1642],[-68.70906,44.15742],[-68.68726,44.15229],[-68.6819,44.13821],[-68.66624,44.13495],[-68.66801,44.15226],[-68.64139,44.15789],[-68.63854,44.16556],[-68.64638,44.1659],[-68.64329,44.1734],[-68.62792,44.16969],[-68.61358,44.18431],[-68.62047,44.20016],[-68.60526,44.2051],[-68.5891,44.20187],[-68.591,44.19573],[-68.60098,44.19198],[-68.57945,44.18526],[-68.56414,44.19164],[-68.56486,44.20561],[-68.57674,44.20936],[-68.58363,44.21464],[-68.58244,44.21992],[-68.60265,44.22299],[-68.60922,44.2445],[-68.6181,44.2487],[-68.62475,44.25875],[-68.62927,44.25653],[-68.63896,44.26411],[-68.66254,44.26998],[-68.67062,44.27985],[-68.67585,44.2807],[-68.6787,44.26471],[-68.69177,44.25467],[-68.69731,44.24708],[-68.69843,44.23304],[-68.70417,44.23447],[-68.71672,44.23051],[-68.73162,44.22269]]],[[[-68.74317,44.30155],[-68.72753,44.29124],[-68.72773,44.28536],[-68.71102,44.27412],[-68.70204,44.27102],[-68.6899,44.27626],[-68.68643,44.28395],[-68.69478,44.29161],[-68.72831,44.30469],[-68.73987,44.30771],[-68.74317,44.30155]]],[[[-68.78732,44.21141],[-68.77751,44.20724],[-68.7691,44.21398],[-68.77442,44.2194],[-68.78732,44.21141]]],[[[-68.79945,44.23593],[-68.79642,44.22821],[-68.78553,44.22483],[-68.78389,44.23143],[-68.79212,44.23665],[-68.79945,44.23593]]],[[[-68.83144,44.23374],[-68.82131,44.22895],[-68.81822,44.24326],[-68.82762,44.24035],[-68.83144,44.23374]]]]},"properties":{"STATEFP":"23","COUNTYFP":"009","COUNTYNS":"00581290","GEOIDFQ":"0500000US23009","GEOID":"23009","NAME":"Hancock","NAMELSAD":"Hancock County","STUSPS":"ME","STATE_NAME":"Maine","LSAD":"06","ALAND":4110645606,"AWATER":1962696193}}
]}