{"type":"FeatureCollection", "features": [
{"type":"Feature","geometry":{"type":"MultiPolygon","coordinates":[[[[-76.38547,39.24756],[-76.38116,39.23963],[-76.37148,39.23795],[-76.34797,39.25011],[-76.34383,39.25726],[-76.35685,39.26095],[-76.37884,39.24903],[-76.38547,39.24756]]],[[[-76.7871,39.7208],[-76.80683,39.66939],[-76.83665,39.58745],[-76.8406,39.5756],[-76.8567,39.5316],[-76.8667,39.5009],[-76.86931,39.48246],[-76.8748,39.482],[-76.8769,39.47666],[-76.88329,39.47475],[-76.8845,39.4669],[-76.892,39.4618],[-76.8857,39.4564],[-76.8818,39.4459],[-76.8885,39.4461],[-76.8873,39.4405],[-76.89449,39.43454],[-76.88143,39.4174],[-76.88443,39.4046],[-76.87935,39.40233],[-76.88552,39.39762],[-76.87996,39.39487],[-76.87908,39.38798],[-76.89133,39.38223],[-76.88895,39.37057],[-76.88202,39.36434],[-76.87974,39.35685],[-76.88227,39.35019],[-76.87811,39.34227],[-76.87836,39.33629],[-76.87504,39.33215],[-76.86244,39.32981],[-76.85544,39.32322],[-76.85391,39.31766],[-76.84936,39.31589],[-76.84401,39.31818],[-76.83974,39.31527],[-76.82333,39.31901],[-76.81884,39.31353],[-76.81469,39.31788],[-76.81013,39.31524],[-76.80452,39.31673],[-76.79472,39.31428],[-76.79403,39.3068],[-76.78753,39.30021],[-76.77914,39.29714],[-76.7854,39.29109],[-76.78517,39.28286],[-76.79449,39.26662],[-76.78196,39.25833],[-76.76383,39.25131],[-76.76325,39.24634],[-76.75718,39.2475],[-76.75181,39.24448],[-76.74007,39.2324],[-76.71726,39.22548],[-76.71309,39.22172],[-76.70667,39.22125],[-76.70523,39.21567],[-76.69708,39.21409],[-76.697,39.21706],[-76.68775,39.22129],[-76.68095,39.22],[-76.66991,39.22843],[-76.65866,39.23101],[-76.64722,39.22904],[-76.63714,39.2235],[-76.63012,39.22459],[-76.61861,39.2374],[-76.64421,39.24892],[-76.67343,39.26128],[-76.71105,39.27789],[-76.71146,39.33457],[-76.71131,39.37193],[-76.52979,39.37206],[-76.52978,39.25578],[-76.52958,39.2403],[-76.5172,39.24155],[-76.51661,39.23226],[-76.51257,39.22848],[-76.50318,39.23207],[-76.49735,39.22692],[-76.49688,39.21504],[-76.50098,39.20938],[-76.4957,39.20188],[-76.49205,39.20144],[-76.48008,39.20511],[-76.46348,39.20591],[-76.46253,39.21578],[-76.4579,39.21909],[-76.44685,39.21826],[-76.44411,39.21043],[-76.44958,39.20381],[-76.44767,39.19774],[-76.44248,39.19541],[-76.43654,39.20217],[-76.42528,39.20571],[-76.41768,39.21981],[-76.4097,39.22512],[-76.39912,39.22905],[-76.40109,39.23272],[-76.41025,39.23152],[-76.42249,39.23253],[-76.43009,39.23907],[-76.4443,39.24304],[-76.45084,39.24908],[-76.44336,39.25591],[-76.43663,39.25342],[-76.427,39.2549],[-76.41571,39.24781],[-76.40454,39.24928],[-76.4049,39.25554],[-76.39543,39.26682],[-76.39919,39.27026],[-76.39325,39.27771],[-76.38282,39.27755],[-76.38256,39.28645],[-76.39325,39.28627],[-76.39919,39.29234],[-76.39896,39.29703],[-76.40811,39.30006],[-76.41096,39.30825],[-76.40288,39.31138],[-76.39575,39.30604],[-76.38386,39.30843],[-76.38493,39.3019],[-76.38018,39.29859],[-76.37108,39.30416],[-76.36439,39.31184],[-76.37091,39.32066],[-76.36532,39.32167],[-76.3557,39.31588],[-76.34001,39.31128],[-76.33609,39.31441],[-76.33339,39.32408],[-76.35261,39.32939],[-76.34928,39.33408],[-76.3494,39.33923],[-76.33692,39.33877],[-76.33061,39.33542],[-76.3455,39.3583],[-76.34096,39.35991],[-76.33775,39.37332],[-76.35011,39.37516],[-76.35368,39.38039],[-76.35926,39.3814],[-76.35756,39.38969],[-76.36105,39.40026],[-76.36633,39.40421],[-76.37194,39.4051],[-76.37025,39.41529],[-76.37301,39.42121],[-76.38032,39.42482],[-76.38098,39.4295],[-76.37764,39.43617],[-76.37895,39.44543],[-76.38876,39.45377],[-76.39169,39.46453],[-76.39554,39.4683],[-76.41119,39.47853],[-76.4209,39.47841],[-76.4248,39.48115],[-76.43361,39.49232],[-76.42792,39.50172],[-76.43221,39.50662],[-76.43698,39.50196],[-76.44797,39.50846],[-76.45357,39.50687],[-76.47064,39.51585],[-76.48359,39.51949],[-76.4894,39.52407],[-76.499,39.5235],[-76.5106,39.52459],[-76.51653,39.52918],[-76.51903,39.53671],[-76.53217,39.54398],[-76.53106,39.5554],[-76.53228,39.56156],[-76.54041,39.56909],[-76.54126,39.57502],[-76.54782,39.58822],[-76.55325,39.58943],[-76.55946,39.59766],[-76.56519,39.6145],[-76.56579,39.62554],[-76.56739,39.6843],[-76.56945,39.7212],[-76.71559,39.7211],[-76.7871,39.7208]]]]},"properties":{"STATEFP":"24","COUNTYFP":"005","COUNTYNS":"01695314","GEOIDFQ":"0500000US24005","GEOID":"24005","NAME":"Baltimore","NAMELSAD":"Baltimore County","STUSPS":"MD","STATE_NAME":"Maryland","LSAD":"06","ALAND":1549740649,"AWATER":215957832}},
{"type":"Feature","geometry":{"type":"MultiPolygon","coordinates":[[[[-76.08881,38.16313],[-76.08474,38.15663],[-76.07666,38.15822],[-76.06371,38.17092],[-76.06026,38.16878],[-76.0542,38.15037],[-76.05115,38.14753],[-76.03226,38.14827],[-76.0289,38.15418],[-76.03519,38.15981],[-76.03899,38.16719],[-76.02885,38.1684],[-76.02238,38.17377],[-76.02607,38.18206],[-76.03495,38.18531],[-76.04208,38.18419],[-76.04291,38.18821],[-76.03666,38.19231],[-76.04899,38.20378],[-76.06454,38.20054],[-76.0561,38.19717],[-76.05884,38.19101],[-76.06561,38.18811],[-76.08451,38.18979],[-76.08425,38.1811],[-76.08106,38.17588],[-76.08748,38.17046],[-76.08881,38.16313]]],[[[-76.02847,38.57234],[-76.02651,38.56682],[-76.04315,38.56208],[-76.05373,38.56747],[-76.06157,38.56979],[-76.07785,38.57946],[-76.07785,38.58503],[-76.08653,38.58587],[-76.09009,38.59293],[-76.11433,38.58299],[-76.12051,38.58624],[-76.13299,38.59562],[-76.14131,38.60602],[-76.1526,38.59581],[-76.16128,38.59512],[-76.16864,38.60221],[-76.16437,38.61494],[-76.16472,38.6219],[-76.16855,38.6279],[-76.17661,38.62765],[-76.18649,38.62107],[-76.1919,38.6197],[-76.20306,38.61074],[-76.21243,38.60674],[-76.21539,38.60941],[-76.23816,38.6167],[-76.2348,38.62431],[-76.23847,38.62737],[-76.25454,38.62225],[-76.24993,38.61531],[-76.26415,38.61511],[-76.26514,38.61122],[-76.27429,38.61178],[-76.27183,38.61566],[-76.27643,38.62116],[-76.28083,38.61949],[-76.27886,38.61152],[-76.27323,38.60204],[-76.26407,38.60398],[-76.26312,38.59878],[-76.26863,38.59775],[-76.27212,38.59208],[-76.26621,38.58605],[-76.2756,38.58094],[-76.28095,38.57472],[-76.28986,38.57732],[-76.29257,38.58142],[-76.2997,38.57504],[-76.29923,38.56951],[-76.29004,38.56916],[-76.2813,38.56112],[-76.27556,38.55247],[-76.27534,38.54715],[-76.27927,38.53558],[-76.27453,38.53513],[-76.2674,38.54256],[-76.25516,38.54154],[-76.2444,38.53697],[-76.23496,38.54126],[-76.22283,38.53978],[-76.22022,38.53187],[-76.22676,38.52546],[-76.23234,38.52676],[-76.2473,38.52382],[-76.25198,38.51911],[-76.26312,38.50268],[-76.26538,38.49747],[-76.2737,38.49486],[-76.2882,38.49868],[-76.28755,38.50354],[-76.29966,38.5013],[-76.31081,38.49637],[-76.32232,38.49892],[-76.32349,38.49319],[-76.33355,38.48209],[-76.33212,38.47597],[-76.32165,38.46191],[-76.31315,38.45681],[-76.31175,38.45038],[-76.3059,38.44816],[-76.29321,38.42562],[-76.28802,38.423],[-76.28284,38.41578],[-76.27925,38.40324],[-76.28187,38.38923],[-76.27807,38.38239],[-76.27108,38.37962],[-76.27019,38.37459],[-76.26358,38.37276],[-76.25684,38.36717],[-76.24967,38.36421],[-76.24409,38.3586],[-76.23845,38.34799],[-76.23294,38.34524],[-76.23377,38.33601],[-76.2302,38.32921],[-76.2334,38.32312],[-76.23003,38.32132],[-76.22964,38.31438],[-76.22427,38.30767],[-76.21145,38.30266],[-76.20647,38.29844],[-76.19974,38.28622],[-76.19476,38.2837],[-76.19053,38.27714],[-76.18574,38.26398],[-76.17922,38.25878],[-76.17173,38.24787],[-76.15937,38.24516],[-76.14987,38.23648],[-76.14056,38.23184],[-76.12997,38.23461],[-76.12572,38.23902],[-76.12662,38.24295],[-76.1463,38.24968],[-76.16325,38.24891],[-76.16576,38.25412],[-76.17578,38.26155],[-76.181,38.27064],[-76.18029,38.28239],[-76.17355,38.28523],[-76.17779,38.29051],[-76.17019,38.2934],[-76.17209,38.29722],[-76.18017,38.29209],[-76.18718,38.29471],[-76.19455,38.29433],[-76.20109,38.29163],[-76.20608,38.3003],[-76.21772,38.30776],[-76.222,38.31364],[-76.21879,38.32706],[-76.21071,38.32921],[-76.2119,38.33806],[-76.22046,38.34235],[-76.22913,38.35363],[-76.23389,38.36528],[-76.23151,38.36714],[-76.23282,38.37487],[-76.22711,38.38093],[-76.23234,38.38903],[-76.23104,38.39332],[-76.22379,38.39472],[-76.21559,38.38959],[-76.2138,38.37832],[-76.21844,38.37208],[-76.21713,38.36481],[-76.20881,38.36639],[-76.20465,38.37105],[-76.19574,38.36649],[-76.19717,38.36379],[-76.18243,38.35959],[-76.18184,38.35559],[-76.17209,38.34599],[-76.17043,38.34105],[-76.17197,38.33517],[-76.16175,38.33042],[-76.15914,38.32203],[-76.16746,38.32175],[-76.17459,38.32865],[-76.17791,38.33415],[-76.18267,38.33676],[-76.1892,38.33294],[-76.18493,38.328],[-76.18778,38.32492],[-76.19728,38.32389],[-76.19324,38.31643],[-76.18552,38.31998],[-76.18457,38.32352],[-76.1747,38.32464],[-76.16437,38.31578],[-76.15961,38.31578],[-76.14511,38.31019],[-76.14416,38.31382],[-76.13394,38.30972],[-76.1324,38.30179],[-76.14,38.29676],[-76.13941,38.29275],[-76.14988,38.28466],[-76.14856,38.27885],[-76.14109,38.27729],[-76.13852,38.28139],[-76.12705,38.28342],[-76.13228,38.28948],[-76.12919,38.29778],[-76.11469,38.30068],[-76.10566,38.29545],[-76.11493,38.29275],[-76.11136,38.28902],[-76.10518,38.28911],[-76.10221,38.29228],[-76.09514,38.27867],[-76.08664,38.27931],[-76.08546,38.27232],[-76.07904,38.27092],[-76.07773,38.26737],[-76.08653,38.26233],[-76.09407,38.26281],[-76.09515,38.25388],[-76.08858,38.25463],[-76.08272,38.25265],[-76.07844,38.25543],[-76.07126,38.24662],[-76.07122,38.24282],[-76.05817,38.22839],[-76.04624,38.22705],[-76.04114,38.22211],[-76.03653,38.22477],[-76.03569,38.23056],[-76.04411,38.24168],[-76.05277,38.24778],[-76.0504,38.2502],[-76.0406,38.25026],[-76.03769,38.25964],[-76.0328,38.26893],[-76.03276,38.27515],[-76.02696,38.28141],[-76.03053,38.28796],[-76.03542,38.2897],[-76.04105,38.29805],[-76.05022,38.3041],[-76.04958,38.30959],[-76.0456,38.31825],[-76.04162,38.32214],[-76.03395,38.32321],[-76.02497,38.33042],[-76.01724,38.33294],[-76.01225,38.35148],[-76.01035,38.36356],[-76.00512,38.36844],[-76.01296,38.37487],[-75.99763,38.37422],[-75.993,38.36956],[-75.97388,38.36585],[-75.96694,38.35165],[-75.95818,38.34617],[-75.96198,38.34338],[-75.96151,38.33098],[-75.96531,38.3225],[-75.976,38.31653],[-75.98134,38.31515],[-76.00865,38.31226],[-76.01629,38.30721],[-76.00737,38.30432],[-76.00193,38.29528],[-75.99038,38.28292],[-75.98111,38.26859],[-75.98253,38.26446],[-75.96635,38.25499],[-75.96195,38.25139],[-75.96412,38.24109],[-75.97026,38.23381],[-75.94923,38.23751],[-75.9407,38.2469],[-75.9488,38.2488],[-75.95454,38.25289],[-75.95162,38.25614],[-75.95491,38.264],[-75.94924,38.26789],[-75.94023,38.27092],[-75.93793,38.27619],[-75.93881,38.28445],[-75.93599,38.28776],[-75.94095,38.29396],[-75.94083,38.29844],[-75.93685,38.30363],[-75.93833,38.30683],[-75.93215,38.31224],[-75.92728,38.32138],[-75.91967,38.32594],[-75.91356,38.32706],[-75.91456,38.33928],[-75.91219,38.34319],[-75.90316,38.34645],[-75.90007,38.34953],[-75.89353,38.3499],[-75.87261,38.35568],[-75.86358,38.3595],[-75.86323,38.36257],[-75.86869,38.37068],[-75.87119,38.37739],[-75.86473,38.37972],[-75.85529,38.38535],[-75.84035,38.38478],[-75.83837,38.38748],[-75.8424,38.39308],[-75.85126,38.40035],[-75.85095,38.40454],[-75.84557,38.42187],[-75.82887,38.42342],[-75.82129,38.43014],[-75.81983,38.43589],[-75.82664,38.44223],[-75.83313,38.44344],[-75.83674,38.44809],[-75.83316,38.45762],[-75.81669,38.46331],[-75.81577,38.46937],[-75.8229,38.47601],[-75.82371,38.48102],[-75.81519,38.48879],[-75.79466,38.49237],[-75.78206,38.5016],[-75.76499,38.50648],[-75.75602,38.51532],[-75.75334,38.52874],[-75.74489,38.53778],[-75.73217,38.53802],[-75.72449,38.54123],[-75.71189,38.55088],[-75.70608,38.56054],[-75.70156,38.56074],[-75.70736,38.6354],[-75.71453,38.64584],[-75.72801,38.65637],[-75.7377,38.66532],[-75.74902,38.67107],[-75.76272,38.68622],[-75.76897,38.68582],[-75.77381,38.67638],[-75.78649,38.67729],[-75.79841,38.67634],[-75.80028,38.69598],[-75.80624,38.69836],[-75.81612,38.69828],[-75.83797,38.70399],[-75.85812,38.70116],[-75.87047,38.69425],[-75.87835,38.69353],[-75.88899,38.69547],[-75.89711,38.6994],[-75.90486,38.68765],[-75.90878,38.68794],[-75.91853,38.6809],[-75.92272,38.682],[-75.92985,38.67599],[-75.93685,38.68014],[-75.94525,38.67411],[-75.95558,38.66347],[-75.95532,38.65349],[-75.95792,38.64804],[-75.9652,38.64104],[-75.97931,38.63027],[-75.98351,38.62511],[-75.98085,38.61426],[-75.98192,38.60704],[-75.99159,38.59209],[-75.99966,38.59035],[-76.00806,38.58632],[-76.02344,38.57388],[-76.02847,38.57234]]]]},"properties":{"STATEFP":"24","COUNTYFP":"019","COUNTYNS":"00596495","GEOIDFQ":"0500000US24019","GEOID":"24019","NAME":"Dorchester","NAMELSAD":"Dorchester County","STUSPS":"MD","STATE_NAME":"Maryland","LSAD":"06","ALAND":1400573750,"AWATER":1145353067}},
{"type":"Feature","geometry":{"type":"Polygon","coordinates":[[[-77.08627,38.70603],[-77.099,38.69861],[-77.1059,38.69682],[-77.122,38.68582],[-77.1325,38.67382],[-77.1359,38.64982],[-77.1319,38.64422],[-77.1302,38.63502],[-77.11006,38.63341],[-77.10709,38.63072],[-77.11565,38.62348],[-77.12463,38.61978],[-77.12908,38.61436],[-77.14084,38.61048],[-77.14865,38.6056],[-77.16967,38.60687],[-77.18321,38.60038],[-77.19137,38.5881],[-77.19174,38.58542],[-77.20662,38.57355],[-77.21035,38.56767],[-77.22112,38.55522],[-77.23772,38.55187],[-77.25756,38.52179],[-77.25672,38.51896],[-77.2636,38.51234],[-77.26701,38.49857],[-77.2724,38.48994],[-77.27422,38.48177],[-77.26616,38.47387],[-77.26728,38.4675],[-77.27087,38.46407],[-77.26467,38.45605],[-77.26293,38.44936],[-77.26588,38.4438],[-77.25751,38.43398],[-77.25672,38.43045],[-77.26335,38.42084],[-77.26512,38.4135],[-77.25757,38.40226],[-77.25017,38.38278],[-77.23637,38.37425],[-77.22398,38.36861],[-77.21673,38.36316],[-77.20731,38.35987],[-77.18668,38.36564],[-77.17947,38.36854],[-77.17157,38.37456],[-77.16605,38.376],[-77.15646,38.383],[-77.14731,38.3862],[-77.13673,38.3918],[-77.12774,38.40083],[-77.12332,38.41065],[-77.11059,38.40921],[-77.10657,38.40624],[-77.09107,38.40755],[-77.08639,38.41476],[-77.07549,38.42471],[-77.06989,38.42613],[-77.06473,38.431],[-77.04064,38.44462],[-77.01637,38.44557],[-77.01246,38.43671],[-77.00164,38.42195],[-76.99859,38.40929],[-76.98828,38.39498],[-76.9843,38.37469],[-76.98358,38.363],[-76.97608,38.35594],[-76.9751,38.34875],[-76.97825,38.34228],[-76.96715,38.34157],[-76.95246,38.33323],[-76.94601,38.33187],[-76.93026,38.32309],[-76.92218,38.31134],[-76.92492,38.29071],[-76.91807,38.2915],[-76.90741,38.28847],[-76.88878,38.27855],[-76.86429,38.26895],[-76.84707,38.25616],[-76.84214,38.25449],[-76.83779,38.26161],[-76.84055,38.26431],[-76.8348,38.27401],[-76.83741,38.2771],[-76.84038,38.28918],[-76.84622,38.29177],[-76.84671,38.3003],[-76.85301,38.30478],[-76.85444,38.31298],[-76.85159,38.31597],[-76.85872,38.32482],[-76.86609,38.32744],[-76.86989,38.33182],[-76.86929,38.33872],[-76.86383,38.34384],[-76.8561,38.35857],[-76.84787,38.35544],[-76.84993,38.36582],[-76.85827,38.37172],[-76.8713,38.37764],[-76.87435,38.38258],[-76.87146,38.38994],[-76.8565,38.39467],[-76.85032,38.39834],[-76.84814,38.40608],[-76.83983,38.41105],[-76.83488,38.41794],[-76.82956,38.42112],[-76.82269,38.42838],[-76.82022,38.43506],[-76.79774,38.47188],[-76.78441,38.49247],[-76.77464,38.50899],[-76.76829,38.51295],[-76.75205,38.51373],[-76.74805,38.51247],[-76.72663,38.51177],[-76.71084,38.50941],[-76.70531,38.50168],[-76.69932,38.49712],[-76.6846,38.49501],[-76.67412,38.49962],[-76.66299,38.52662],[-76.67546,38.53588],[-76.68982,38.53763],[-76.69254,38.54117],[-76.70114,38.54468],[-76.72328,38.55139],[-76.74053,38.55867],[-76.73967,38.57281],[-76.74234,38.57658],[-76.74268,38.59422],[-76.74648,38.59969],[-76.74583,38.60525],[-76.74757,38.61733],[-76.75841,38.61982],[-76.79725,38.63449],[-76.86339,38.65851],[-76.87875,38.65901],[-76.89044,38.65497],[-76.89835,38.65461],[-76.90455,38.65157],[-76.91684,38.6525],[-76.92748,38.65485],[-76.93955,38.65459],[-76.94659,38.65893],[-76.9545,38.65846],[-76.96575,38.66127],[-76.97243,38.65846],[-76.99131,38.65713],[-77.01874,38.64851],[-77.02874,38.63367],[-77.03827,38.63001],[-77.04622,38.62015],[-77.0502,38.62072],[-77.05787,38.63967],[-77.0786,38.69411],[-77.08627,38.70603]]]},"properties":{"STATEFP":"24","COUNTYFP":"017","COUNTYNS":"01676992","GEOIDFQ":"0500000US24017","GEOID":"24017","NAME":"Charles","NAMELSAD":"Charles County","STUSPS":"MD","STATE_NAME":"Maryland","LSAD":"06","ALAND":1185745253,"AWATER":479451413}},
{"type":"Feature","geometry":{"type":"Polygon","coordinates":[[[-76.23326,39.72131],[-76.22928,39.70913],[-76.21268,39.68641],[-76.18658,39.66951],[-76.18397,39.66661],[-76.16841,39.65613],[-76.16176,39.64962],[-76.14747,39.61941],[-76.13567,39.61311],[-76.0887,39.56134],[-76.08597,39.55901],[-76.07616,39.54365],[-76.06381,39.54661],[-76.04708,39.54644],[-76.04553,39.5526],[-76.03685,39.55287],[-76.0285,39.5485],[-76.01768,39.54656],[-76.01208,39.53933],[-76.00244,39.54177],[-76.00637,39.54621],[-75.99967,39.56049],[-75.97303,39.57046],[-75.96526,39.57887],[-75.96483,39.58649],[-75.9577,39.59254],[-75.9488,39.58936],[-75.94776,39.58058],[-75.95429,39.57522],[-75.9575,39.56498],[-75.97001,39.55732],[-75.96655,39.54611],[-75.96924,39.54162],[-75.96234,39.5361],[-75.96626,39.53216],[-75.97322,39.53268],[-75.9805,39.5291],[-75.98149,39.51624],[-75.9863,39.5104],[-75.98812,39.49701],[-75.99483,39.48968],[-75.99579,39.48439],[-75.99399,39.47619],[-75.99939,39.46594],[-76.00959,39.45754],[-76.01231,39.45311],[-76.00945,39.4492],[-76.00251,39.4502],[-75.99597,39.45384],[-75.99716,39.45687],[-75.9867,39.46127],[-75.98551,39.4699],[-75.97826,39.47054],[-75.96662,39.46283],[-75.97173,39.45687],[-75.97675,39.44463],[-75.98258,39.43529],[-75.9974,39.43031],[-76.00688,39.41453],[-76.01653,39.40847],[-76.03306,39.40314],[-76.0376,39.39945],[-76.04131,39.39064],[-76.03803,39.38673],[-76.03082,39.38546],[-76.00892,39.38591],[-75.99514,39.38471],[-75.98611,39.37948],[-75.99076,39.37462],[-75.9827,39.36749],[-75.97442,39.36862],[-75.9706,39.37285],[-75.96407,39.37473],[-75.94934,39.37251],[-75.94536,39.36858],[-75.93985,39.36779],[-75.93202,39.37151],[-75.92277,39.36725],[-75.90803,39.3645],[-75.89598,39.36587],[-75.8851,39.36084],[-75.88213,39.36433],[-75.86761,39.36781],[-75.86104,39.36761],[-75.85543,39.36456],[-75.84238,39.37098],[-75.83117,39.37417],[-75.82366,39.38141],[-75.80945,39.37975],[-75.80616,39.3768],[-75.79573,39.37724],[-75.79424,39.37974],[-75.78441,39.38036],[-75.76669,39.37754],[-75.78079,39.55026],[-75.78745,39.63746],[-75.78866,39.65821],[-75.7886,39.7222],[-75.79956,39.72188],[-75.99865,39.72158],[-76.01307,39.72192],[-76.06796,39.72173],[-76.23326,39.72131]]]},"properties":{"STATEFP":"24","COUNTYFP":"015","COUNTYNS":"00596115","GEOIDFQ":"0500000US24015","GEOID":"24015","NAME":"Cecil","NAMELSAD":"Cecil County","STUSPS":"MD","STATE_NAME":"Maryland","LSAD":"06","ALAND":896912542,"AWATER":185281256}},
{"type":"Feature","geometry":{"type":"MultiPolygon","coordinates":[[[[-75.94525,38.67411],[-75.94864,38.6762],[-75.96793,38.68201],[-75.97167,38.68465],[-75.97552,38.69669],[-75.97861,38.69832],[-75.98934,38.69648],[-75.99461,38.69944],[-75.99416,38.7092],[-76.00278,38.71838],[-76.01042,38.72248],[-76.01504,38.72869],[-76.009,38.73647],[-75.99638,38.73571],[-75.99459,38.74189],[-75.99945,38.75444],[-75.99376,38.75928],[-75.97997,38.76371],[-75.9718,38.76954],[-75.96404,38.77967],[-75.95455,38.7775],[-75.94945,38.77842],[-75.93735,38.78724],[-75.93252,38.79614],[-75.92796,38.7992],[-75.91137,38.80629],[-75.90378,38.80693],[-75.89718,38.81521],[-75.90645,38.81971],[-75.90175,38.82288],[-75.90434,38.82643],[-75.91292,38.82953],[-75.91518,38.83484],[-75.92777,38.83889],[-75.92677,38.84704],[-75.93037,38.85087],[-75.9228,38.85479],[-75.92433,38.86039],[-75.93023,38.86129],[-75.93471,38.86751],[-75.93929,38.86656],[-75.9444,38.87509],[-75.93892,38.87639],[-75.94148,38.88118],[-75.94875,38.87844],[-75.95059,38.88443],[-75.94046,38.88456],[-75.94831,38.89132],[-75.94436,38.89755],[-75.94812,38.90456],[-75.94934,38.91833],[-75.97192,38.92184],[-75.9863,38.92526],[-76.06572,38.93988],[-76.07793,38.94015],[-76.09696,38.94426],[-76.10367,38.939],[-76.11097,38.92665],[-76.11074,38.9206],[-76.1155,38.91372],[-76.11146,38.91101],[-76.11336,38.90452],[-76.10268,38.89017],[-76.10351,38.88231],[-76.11432,38.88084],[-76.12257,38.88204],[-76.128,38.87599],[-76.13207,38.87947],[-76.14984,38.88282],[-76.16372,38.87953],[-76.16992,38.86565],[-76.17787,38.86516],[-76.18224,38.85861],[-76.19067,38.86408],[-76.19308,38.86284],[-76.20167,38.84811],[-76.1977,38.84371],[-76.1954,38.83549],[-76.19109,38.82966],[-76.19343,38.82179],[-76.1993,38.81208],[-76.20026,38.803],[-76.1974,38.79837],[-76.18813,38.79207],[-76.18635,38.78605],[-76.17875,38.78049],[-76.18017,38.77697],[-76.1709,38.77058],[-76.16021,38.77503],[-76.15652,38.76891],[-76.16258,38.76687],[-76.16567,38.75863],[-76.17055,38.75371],[-76.18195,38.7565],[-76.1873,38.76762],[-76.20228,38.77623],[-76.21642,38.7867],[-76.21452,38.79485],[-76.21784,38.80013],[-76.21154,38.8055],[-76.22937,38.82137],[-76.23938,38.8201],[-76.24209,38.81736],[-76.25036,38.82544],[-76.25011,38.83016],[-76.2552,38.83286],[-76.25948,38.84312],[-76.26581,38.84751],[-76.26651,38.85285],[-76.28155,38.83796],[-76.27815,38.83549],[-76.28845,38.82735],[-76.2978,38.82831],[-76.30892,38.81335],[-76.31008,38.79685],[-76.31884,38.78776],[-76.32377,38.77929],[-76.33462,38.77291],[-76.32943,38.76882],[-76.33003,38.76344],[-76.33726,38.76073],[-76.34253,38.74902],[-76.33912,38.73825],[-76.34054,38.73034],[-76.3385,38.72229],[-76.34253,38.71406],[-76.34503,38.70384],[-76.34297,38.69846],[-76.34647,38.69205],[-76.34372,38.68169],[-76.34013,38.67601],[-76.33336,38.6787],[-76.32594,38.67802],[-76.32186,38.68951],[-76.3274,38.69391],[-76.33402,38.70313],[-76.33148,38.71327],[-76.3245,38.71846],[-76.31933,38.72915],[-76.31276,38.73071],[-76.3147,38.73759],[-76.32492,38.74009],[-76.3128,38.74584],[-76.31339,38.74908],[-76.29865,38.74973],[-76.2945,38.73573],[-76.29473,38.73101],[-76.29901,38.72782],[-76.29596,38.72416],[-76.28416,38.72071],[-76.28235,38.7162],[-76.2716,38.71322],[-76.27028,38.72439],[-76.26728,38.72823],[-76.25509,38.73648],[-76.2573,38.74259],[-76.2548,38.74917],[-76.24434,38.74954],[-76.24256,38.75983],[-76.23614,38.76344],[-76.22462,38.76039],[-76.2226,38.75761],[-76.22462,38.75131],[-76.21345,38.74278],[-76.20548,38.73916],[-76.20893,38.73323],[-76.21535,38.7285],[-76.22248,38.73629],[-76.22925,38.73916],[-76.23816,38.73694],[-76.23181,38.73155],[-76.22949,38.72618],[-76.23674,38.72404],[-76.23907,38.71944],[-76.23872,38.71285],[-76.22693,38.69809],[-76.21964,38.69721],[-76.21343,38.69237],[-76.21564,38.68722],[-76.21281,38.68189],[-76.20415,38.6755],[-76.19859,38.67675],[-76.19538,38.68232],[-76.18457,38.69503],[-76.1772,38.69299],[-76.17304,38.68742],[-76.17732,38.67601],[-76.17314,38.67097],[-76.16669,38.66774],[-76.16257,38.66208],[-76.15561,38.65808],[-76.14716,38.63684],[-76.13466,38.63889],[-76.12764,38.63527],[-76.12348,38.62896],[-76.11338,38.62134],[-76.0996,38.62487],[-76.08855,38.62589],[-76.08308,38.62348],[-76.08035,38.61466],[-76.07298,38.61289],[-76.05337,38.60379],[-76.05289,38.59413],[-76.04766,38.59181],[-76.03923,38.58494],[-76.03162,38.58131],[-76.02847,38.57234],[-76.02344,38.57388],[-76.00806,38.58632],[-75.99966,38.59035],[-75.99159,38.59209],[-75.98192,38.60704],[-75.98085,38.61426],[-75.98351,38.62511],[-75.97931,38.63027],[-75.9652,38.64104],[-75.95792,38.64804],[-75.95532,38.65349],[-75.95558,38.66347],[-75.94525,38.67411]]],[[[-76.39069,38.76628],[-76.39035,38.757],[-76.38434,38.75017],[-76.38362,38.74547],[-76.37736,38.7428],[-76.36326,38.74661],[-76.36421,38.75431],[-76.37084,38.76564],[-76.37234,38.77405],[-76.36989,38.77864],[-76.37524,38.78258],[-76.37982,38.7802],[-76.39069,38.76628]]]]},"properties":{"STATEFP":"24","COUNTYFP":"041","COUNTYNS":"00592947","GEOIDFQ":"0500000US24041","GEOID":"24041","NAME":"Talbot","NAMELSAD":"Talbot County","STUSPS":"MD","STATE_NAME":"Maryland","LSAD":"06","ALAND":695556093,"AWATER":539369000}},
{"type":"Feature","geometry":{"type":"Polygon","coordinates":[[[-76.84787,38.35544],[-76.82711,38.34738],[-76.82984,38.34188],[-76.8416,38.33676],[-76.83507,38.33387],[-76.82865,38.31354],[-76.82307,38.30907],[-76.82544,38.30296],[-76.81403,38.29135],[-76.8132,38.28678],[-76.80705,38.28541],[-76.80235,38.28074],[-76.80215,38.2767],[-76.809,38.26897],[-76.80572,38.26234],[-76.80522,38.25365],[-76.80084,38.24992],[-76.79062,38.25132],[-76.78551,38.24554],[-76.77779,38.24292],[-76.77577,38.23564],[-76.77863,38.22847],[-76.76391,38.226],[-76.75229,38.22212],[-76.74479,38.22777],[-76.74466,38.23256],[-76.74005,38.23523],[-76.73206,38.246],[-76.7222,38.24106],[-76.71986,38.23315],[-76.70489,38.23364],[-76.69903,38.24068],[-76.68714,38.24134],[-76.68726,38.23555],[-76.67346,38.2344],[-76.65991,38.23054],[-76.6473,38.22513],[-76.63254,38.22566],[-76.61963,38.22281],[-76.59064,38.21421],[-76.58062,38.2071],[-76.57258,38.20362],[-76.55296,38.18721],[-76.54733,38.17567],[-76.54533,38.16537],[-76.54038,38.15299],[-76.53297,38.14662],[-76.52987,38.13408],[-76.51849,38.14095],[-76.50211,38.13888],[-76.48104,38.11587],[-76.47327,38.10304],[-76.46548,38.1066],[-76.4698,38.11926],[-76.46187,38.13139],[-76.46123,38.13934],[-76.46883,38.14906],[-76.46967,38.15336],[-76.46158,38.15467],[-76.45006,38.15925],[-76.43889,38.16083],[-76.43508,38.15495],[-76.4415,38.15102],[-76.43544,38.14663],[-76.43757,38.13611],[-76.4302,38.126],[-76.43042,38.11938],[-76.42546,38.11466],[-76.42121,38.10604],[-76.40537,38.10697],[-76.39233,38.1029],[-76.39066,38.09407],[-76.38422,38.09194],[-76.37162,38.08174],[-76.37179,38.07957],[-76.36124,38.05954],[-76.35275,38.05318],[-76.33745,38.0535],[-76.3218,38.04966],[-76.32976,38.07241],[-76.33193,38.0996],[-76.34084,38.11644],[-76.33383,38.1256],[-76.32014,38.13834],[-76.32566,38.14761],[-76.32837,38.14897],[-76.33436,38.15968],[-76.35352,38.17813],[-76.36188,38.19205],[-76.38524,38.21775],[-76.39932,38.25928],[-76.39885,38.267],[-76.39417,38.27823],[-76.37662,38.29453],[-76.37502,38.29942],[-76.38149,38.30313],[-76.39573,38.30863],[-76.40894,38.3045],[-76.42272,38.30478],[-76.42926,38.29443],[-76.44186,38.29163],[-76.45921,38.29443],[-76.47692,38.31709],[-76.472,38.32501],[-76.47804,38.32706],[-76.48938,38.328],[-76.48313,38.34245],[-76.48636,38.35352],[-76.49116,38.36125],[-76.50147,38.3725],[-76.50783,38.3775],[-76.51666,38.38167],[-76.52465,38.39034],[-76.53407,38.39777],[-76.55343,38.39504],[-76.55996,38.39732],[-76.5639,38.406],[-76.57863,38.41128],[-76.59753,38.42343],[-76.60837,38.42445],[-76.62468,38.44367],[-76.63449,38.45146],[-76.65435,38.46517],[-76.65214,38.47375],[-76.66034,38.48737],[-76.66595,38.49439],[-76.67412,38.49962],[-76.6846,38.49501],[-76.69932,38.49712],[-76.70531,38.50168],[-76.71084,38.50941],[-76.72663,38.51177],[-76.74805,38.51247],[-76.75205,38.51373],[-76.76829,38.51295],[-76.77464,38.50899],[-76.78441,38.49247],[-76.79774,38.47188],[-76.82022,38.43506],[-76.82269,38.42838],[-76.82956,38.42112],[-76.83488,38.41794],[-76.83983,38.41105],[-76.84814,38.40608],[-76.85032,38.39834],[-76.8565,38.39467],[-76.87146,38.38994],[-76.87435,38.38258],[-76.8713,38.37764],[-76.85827,38.37172],[-76.84993,38.36582],[-76.84787,38.35544]]]},"properties":{"STATEFP":"24","COUNTYFP":"037","COUNTYNS":"01697853","GEOIDFQ":"0500000US24037","GEOID":"24037","NAME":"St. Mary's","NAMELSAD":"St. Mary's County","STUSPS":"MD","STATE_NAME":"Maryland","LSAD":"06","ALAND":928676346,"AWATER":1050726154}},
{"type":"Feature","geometry":{"type":"MultiPolygon","coordinates":[[[[-75.80137,38.25589],[-75.80321,38.25263],[-75.82341,38.25282],[-75.83696,38.24712],[-75.85693,38.23592],[-75.86061,38.2292],[-75.8514,38.22643],[-75.84528,38.23125],[-75.82543,38.22911],[-75.81866,38.22612],[-75.82876,38.21604],[-75.8372,38.21818],[-75.84112,38.2124],[-75.8641,38.20086],[-75.87775,38.19829],[-75.8846,38.19975],[-75.88807,38.20381],[-75.8959,38.20026],[-75.90982,38.19692],[-75.92432,38.19026],[-75.93675,38.18951],[-75.94237,38.18707],[-75.95157,38.17809],[-75.94728,38.17079],[-75.95127,38.16189],[-75.95511,38.14653],[-75.95962,38.13714],[-75.9556,38.1306],[-75.94522,38.12448],[-75.94777,38.11938],[-75.94178,38.11191],[-75.93461,38.11727],[-75.93709,38.12421],[-75.92062,38.13142],[-75.92169,38.13691],[-75.92978,38.14242],[-75.93263,38.14925],[-75.92573,38.15102],[-75.91744,38.14481],[-75.90482,38.14233],[-75.89424,38.14813],[-75.88081,38.14803],[-75.87808,38.13971],[-75.88029,38.13702],[-75.86864,38.13438],[-75.87166,38.14205],[-75.85954,38.14054],[-75.84992,38.14441],[-75.84148,38.14476],[-75.83649,38.15055],[-75.82223,38.14784],[-75.80808,38.14046],[-75.79739,38.14429],[-75.78848,38.14579],[-75.78776,38.13747],[-75.79656,38.1356],[-75.80535,38.1284],[-75.80927,38.13317],[-75.81854,38.13139],[-75.82068,38.1256],[-75.82767,38.13344],[-75.83399,38.12719],[-75.83825,38.1262],[-75.83756,38.11375],[-75.8426,38.11311],[-75.84825,38.10813],[-75.85582,38.10466],[-75.86572,38.08801],[-75.86394,38.08034],[-75.87558,38.08024],[-75.87547,38.07603],[-75.87119,38.0692],[-75.87388,38.06177],[-75.87099,38.05923],[-75.85888,38.06014],[-75.86007,38.06574],[-75.85609,38.06883],[-75.84426,38.07227],[-75.83306,38.06754],[-75.81959,38.06681],[-75.81058,38.06219],[-75.8006,38.06191],[-75.80345,38.06733],[-75.80285,38.07276],[-75.79513,38.07061],[-75.78978,38.0722],[-75.79002,38.0838],[-75.7855,38.08651],[-75.78182,38.07903],[-75.77374,38.07706],[-75.78027,38.06509],[-75.78931,38.06163],[-75.79679,38.05358],[-75.80559,38.05292],[-75.81177,38.0475],[-75.8189,38.04413],[-75.82644,38.04587],[-75.83007,38.03823],[-75.8435,38.02747],[-75.85053,38.0367],[-75.85751,38.03878],[-75.87075,38.03498],[-75.87423,38.02841],[-75.86715,38.0255],[-75.87346,38.01311],[-75.88548,37.99608],[-75.88819,37.98786],[-75.89843,37.97483],[-75.89008,37.97699],[-75.87867,37.96978],[-75.8738,37.97502],[-75.86786,37.97746],[-75.86192,37.97343],[-75.86525,37.96509],[-75.8612,37.95535],[-75.86572,37.95151],[-75.87784,37.95019],[-75.88991,37.95369],[-75.89304,37.93992],[-75.89305,37.92864],[-75.89728,37.92634],[-75.89269,37.91685],[-75.88503,37.91172],[-75.87771,37.91613],[-75.86073,37.91831],[-75.8555,37.92265],[-75.83315,37.93076],[-75.8299,37.93856],[-75.82095,37.9389],[-75.81864,37.94639],[-75.82615,37.95282],[-75.82401,37.96078],[-75.81866,37.96725],[-75.81319,37.9664],[-75.81367,37.95947],[-75.80927,37.95516],[-75.80375,37.95563],[-75.79155,37.96493],[-75.78381,37.97259],[-75.77231,37.97242],[-75.75024,37.96887],[-75.75401,37.97577],[-75.73916,37.98392],[-75.73702,37.97671],[-75.74023,37.97446],[-75.73999,37.96837],[-75.73651,37.96323],[-75.72266,37.97131],[-75.72181,37.98008],[-75.72394,37.98364],[-75.7161,37.98898],[-75.71289,37.98851],[-75.71515,37.97821],[-75.69042,37.96693],[-75.67702,37.96796],[-75.66651,37.9624],[-75.65811,37.95947],[-75.653,37.96594],[-75.64472,37.96978],[-75.64182,37.97597],[-75.63574,37.97954],[-75.63253,37.98669],[-75.62665,37.98889],[-75.62434,37.99421],[-75.62117,37.99848],[-75.61973,38.00712],[-75.62894,38.00741],[-75.63155,38.01765],[-75.63929,38.02298],[-75.64585,38.02064],[-75.64822,38.02536],[-75.65582,38.02976],[-75.66183,38.04185],[-75.65632,38.05216],[-75.6496,38.0521],[-75.64594,38.04593],[-75.63885,38.04471],[-75.63712,38.0512],[-75.62266,38.05497],[-75.6162,38.06506],[-75.61752,38.07302],[-75.60908,38.07563],[-75.59959,38.06938],[-75.58159,38.06827],[-75.57459,38.07164],[-75.571,38.07704],[-75.57249,38.08116],[-75.56952,38.08711],[-75.56219,38.0884],[-75.55333,38.08482],[-75.54581,38.08675],[-75.54412,38.09187],[-75.54606,38.09799],[-75.54357,38.10676],[-75.55185,38.11551],[-75.55254,38.12088],[-75.55916,38.12693],[-75.56847,38.13265],[-75.5717,38.1316],[-75.57669,38.14044],[-75.57682,38.1443],[-75.57241,38.15092],[-75.56184,38.15821],[-75.55171,38.16274],[-75.54699,38.16961],[-75.5459,38.17874],[-75.5494,38.18551],[-75.55793,38.1916],[-75.56019,38.19768],[-75.5678,38.20595],[-75.57584,38.21128],[-75.57665,38.22006],[-75.58682,38.22361],[-75.59193,38.23225],[-75.60583,38.24913],[-75.60469,38.25964],[-75.61072,38.26763],[-75.61021,38.27307],[-75.61276,38.27863],[-75.62588,38.28229],[-75.63309,38.28898],[-75.64382,38.2892],[-75.65069,38.29434],[-75.65713,38.29533],[-75.66268,38.29885],[-75.67325,38.29362],[-75.68145,38.29299],[-75.68723,38.28995],[-75.68638,38.28551],[-75.69101,38.28203],[-75.69945,38.26491],[-75.72081,38.26714],[-75.72743,38.27541],[-75.72793,38.27976],[-75.73452,38.28304],[-75.74041,38.27936],[-75.7531,38.28206],[-75.75441,38.28544],[-75.76332,38.28597],[-75.77007,38.28395],[-75.77099,38.27653],[-75.77594,38.2701],[-75.78123,38.26752],[-75.79625,38.26577],[-75.80137,38.25589]]],[[[-76.04998,37.99011],[-76.04703,37.97869],[-76.04653,37.95359],[-76.0414,37.95401],[-75.9939,37.95349],[-75.99063,37.96294],[-75.99775,37.96762],[-75.993,37.97583],[-75.99324,37.98495],[-75.9891,37.99044],[-75.98212,37.98855],[-75.98492,37.9976],[-75.98425,38.00401],[-75.98009,38.00489],[-75.98865,38.01935],[-76.00274,38.02494],[-76.00726,38.03261],[-76.00734,38.03671],[-76.01313,38.03976],[-76.0215,38.03845],[-76.03531,38.03143],[-76.041,38.03196],[-76.04732,38.01949],[-76.04775,38.01238],[-76.04517,38.00874],[-76.04824,38.00397],[-76.04768,37.9934],[-76.04998,37.99011]]],[[[-76.0542,38.09427],[-76.05157,38.08942],[-76.04241,38.08193],[-76.0239,38.0837],[-76.01534,38.07678],[-76.01273,38.07211],[-76.00628,38.07856],[-76.00846,38.08465],[-76.00808,38.09148],[-76.01555,38.1034],[-76.02259,38.10615],[-76.02128,38.11644],[-76.01349,38.12085],[-76.01293,38.12927],[-76.01857,38.13193],[-76.0233,38.12906],[-76.02556,38.12214],[-76.03578,38.12018],[-76.04196,38.11718],[-76.04196,38.10896],[-76.03994,38.10157],[-76.03269,38.1011],[-76.03352,38.091],[-76.04434,38.08932],[-76.04695,38.09278],[-76.0542,38.09427]]]]},"properties":{"STATEFP":"24","COUNTYFP":"039","COUNTYNS":"00596907","GEOIDFQ":"0500000US24039","GEOID":"24039","NAME":"Somerset","NAMELSAD":"Somerset County","STUSPS":"MD","STATE_NAME":"Maryland","LSAD":"06","ALAND":828145299,"AWATER":752652887}},
{"type":"Feature","geometry":{"type":"Polygon","coordinates":[[[-75.70736,38.6354],[-75.71759,38.76561],[-75.724,38.84668],[-75.73286,38.95737],[-75.74381,39.09467],[-75.74579,39.11494],[-75.74767,39.14335],[-75.75793,39.13842],[-75.77571,39.13456],[-75.79108,39.13283],[-75.79887,39.12863],[-75.80988,39.12037],[-75.82316,39.1151],[-75.83494,39.10834],[-75.8433,39.09051],[-75.84824,39.08564],[-75.84707,39.07478],[-75.84897,39.07137],[-75.86317,39.05932],[-75.86968,39.05735],[-75.87628,39.04751],[-75.87802,39.03878],[-75.88336,39.0325],[-75.88282,39.02791],[-75.89053,39.023],[-75.89076,39.01832],[-75.89739,39.01429],[-75.90523,39.01525],[-75.9041,39.01043],[-75.91109,39.00413],[-75.91964,39.00011],[-75.92199,38.99442],[-75.92973,38.99065],[-75.93464,38.9802],[-75.94093,38.9763],[-75.93658,38.97342],[-75.94263,38.96767],[-75.93823,38.95886],[-75.94201,38.95619],[-75.94222,38.94992],[-75.95092,38.9464],[-75.94797,38.93189],[-75.95274,38.92926],[-75.94959,38.92407],[-75.94934,38.91833],[-75.94812,38.90456],[-75.94436,38.89755],[-75.94831,38.89132],[-75.94046,38.88456],[-75.95059,38.88443],[-75.94875,38.87844],[-75.94148,38.88118],[-75.93892,38.87639],[-75.9444,38.87509],[-75.93929,38.86656],[-75.93471,38.86751],[-75.93023,38.86129],[-75.92433,38.86039],[-75.9228,38.85479],[-75.93037,38.85087],[-75.92677,38.84704],[-75.92777,38.83889],[-75.91518,38.83484],[-75.91292,38.82953],[-75.90434,38.82643],[-75.90175,38.82288],[-75.90645,38.81971],[-75.89718,38.81521],[-75.90378,38.80693],[-75.91137,38.80629],[-75.92796,38.7992],[-75.93252,38.79614],[-75.93735,38.78724],[-75.94945,38.77842],[-75.95455,38.7775],[-75.96404,38.77967],[-75.9718,38.76954],[-75.97997,38.76371],[-75.99376,38.75928],[-75.99945,38.75444],[-75.99459,38.74189],[-75.99638,38.73571],[-76.009,38.73647],[-76.01504,38.72869],[-76.01042,38.72248],[-76.00278,38.71838],[-75.99416,38.7092],[-75.99461,38.69944],[-75.98934,38.69648],[-75.97861,38.69832],[-75.97552,38.69669],[-75.97167,38.68465],[-75.96793,38.68201],[-75.94864,38.6762],[-75.94525,38.67411],[-75.93685,38.68014],[-75.92985,38.67599],[-75.92272,38.682],[-75.91853,38.6809],[-75.90878,38.68794],[-75.90486,38.68765],[-75.89711,38.6994],[-75.88899,38.69547],[-75.87835,38.69353],[-75.87047,38.69425],[-75.85812,38.70116],[-75.83797,38.70399],[-75.81612,38.69828],[-75.80624,38.69836],[-75.80028,38.69598],[-75.79841,38.67634],[-75.78649,38.67729],[-75.77381,38.67638],[-75.76897,38.68582],[-75.76272,38.68622],[-75.74902,38.67107],[-75.7377,38.66532],[-75.72801,38.65637],[-75.71453,38.64584],[-75.70736,38.6354]]]},"properties":{"STATEFP":"24","COUNTYFP":"011","COUNTYNS":"00595737","GEOIDFQ":"0500000US24011","GEOID":"24011","NAME":"Caroline","NAMELSAD":"Caroline County","STUSPS":"MD","STATE_NAME":"Maryland","LSAD":"06","ALAND":827350254,"AWATER":16777065}},
{"type":"Feature","geometry":{"type":"Polygon","coordinates":[[[-76.67546,38.53588],[-76.67228,38.55278],[-76.67914,38.56673],[-76.6778,38.57237],[-76.6807,38.5805],[-76.67256,38.59927],[-76.67348,38.60725],[-76.67233,38.61753],[-76.67847,38.62732],[-76.68659,38.63048],[-76.69285,38.63644],[-76.69163,38.64851],[-76.68513,38.65477],[-76.68333,38.66118],[-76.68737,38.66379],[-76.69926,38.66577],[-76.69926,38.67111],[-76.69046,38.67368],[-76.68715,38.68137],[-76.69549,38.68578],[-76.69843,38.69044],[-76.69498,38.70031],[-76.69774,38.70703],[-76.70196,38.71086],[-76.69359,38.72476],[-76.69555,38.73154],[-76.69384,38.73591],[-76.68402,38.73835],[-76.68636,38.74848],[-76.69438,38.74888],[-76.69927,38.75341],[-76.70095,38.76875],[-76.71255,38.77491],[-76.71439,38.78076],[-76.71225,38.78436],[-76.70615,38.78567],[-76.70254,38.7904],[-76.71012,38.796],[-76.7084,38.80311],[-76.71231,38.81292],[-76.70942,38.81626],[-76.70177,38.81554],[-76.69637,38.82272],[-76.69972,38.83678],[-76.69655,38.84716],[-76.69117,38.8544],[-76.69187,38.85921],[-76.6881,38.86456],[-76.68316,38.86672],[-76.67657,38.87596],[-76.67524,38.88567],[-76.67626,38.89595],[-76.66951,38.90443],[-76.67852,38.91054],[-76.67806,38.91419],[-76.68512,38.918],[-76.69053,38.92476],[-76.68312,38.9263],[-76.68142,38.93127],[-76.69218,38.93632],[-76.69102,38.94084],[-76.69528,38.94778],[-76.69417,38.95678],[-76.69898,38.96268],[-76.70229,38.97013],[-76.70218,38.97984],[-76.69846,38.98378],[-76.7089,38.99341],[-76.72127,38.99971],[-76.72426,39.00457],[-76.73328,39.00682],[-76.74452,39.01712],[-76.74313,39.0237],[-76.74765,39.03342],[-76.757,39.03776],[-76.76131,39.03538],[-76.77653,39.04531],[-76.79262,39.04618],[-76.79571,39.05457],[-76.80075,39.05539],[-76.80394,39.06245],[-76.81726,39.06177],[-76.83153,39.06916],[-76.83672,39.0736],[-76.83272,39.07594],[-76.83491,39.08287],[-76.82712,39.08983],[-76.82852,39.095],[-76.83756,39.09685],[-76.84036,39.10314],[-76.84908,39.1091],[-76.869,39.11221],[-76.87535,39.11683],[-76.8885,39.13097],[-76.89427,39.12386],[-76.90729,39.11791],[-76.9039,39.11462],[-76.90744,39.10624],[-76.9216,39.08621],[-76.94631,39.05242],[-76.96619,39.0262],[-76.9911,38.99241],[-76.98479,38.98718],[-76.98687,38.97688],[-76.99418,38.97529],[-77.00259,38.96548],[-76.9351,38.91331],[-76.90939,38.89281],[-76.9795,38.83781],[-77.0014,38.82151],[-77.03901,38.79165],[-77.0401,38.78991],[-77.04228,38.74129],[-77.04149,38.72591],[-77.0462,38.71443],[-77.0532,38.70992],[-77.07183,38.71009],[-77.07995,38.70901],[-77.08627,38.70603],[-77.0786,38.69411],[-77.05787,38.63967],[-77.0502,38.62072],[-77.04622,38.62015],[-77.03827,38.63001],[-77.02874,38.63367],[-77.01874,38.64851],[-76.99131,38.65713],[-76.97243,38.65846],[-76.96575,38.66127],[-76.9545,38.65846],[-76.94659,38.65893],[-76.93955,38.65459],[-76.92748,38.65485],[-76.91684,38.6525],[-76.90455,38.65157],[-76.89835,38.65461],[-76.89044,38.65497],[-76.87875,38.65901],[-76.86339,38.65851],[-76.79725,38.63449],[-76.75841,38.61982],[-76.74757,38.61733],[-76.74583,38.60525],[-76.74648,38.59969],[-76.74268,38.59422],[-76.74234,38.57658],[-76.73967,38.57281],[-76.74053,38.55867],[-76.72328,38.55139],[-76.70114,38.54468],[-76.69254,38.54117],[-76.68982,38.53763],[-76.67546,38.53588]]]},"properties":{"STATEFP":"24","COUNTYFP":"033","COUNTYNS":"01714670","GEOIDFQ":"0500000US24033","GEOID":"24033","NAME":"Prince George's","NAMELSAD":"Prince George's County","STUSPS":"MD","STATE_NAME":"Maryland","LSAD":"06","ALAND":1249914204,"AWATER":42053184}},
{"type":"Feature","geometry":{"type":"Polygon","coordinates":[[[-78.92842,39.72278],[-78.96721,39.65493],[-79.01802,39.56609],[-79.06753,39.47937],[-79.06422,39.47844],[-79.06078,39.47174],[-79.05542,39.47149],[-79.05388,39.48009],[-79.04705,39.48335],[-79.04443,39.4798],[-79.03691,39.4768],[-79.03388,39.46776],[-79.02816,39.46506],[-79.01715,39.46698],[-79.0101,39.46105],[-78.99695,39.45496],[-78.97883,39.44868],[-78.97012,39.44333],[-78.96548,39.43845],[-78.95675,39.44026],[-78.956,39.44793],[-78.95996,39.45164],[-78.95429,39.4547],[-78.95852,39.45905],[-78.95771,39.46385],[-78.9466,39.46614],[-78.93887,39.4741],[-78.94229,39.48099],[-78.93361,39.48618],[-78.91649,39.48654],[-78.91381,39.49375],[-78.90872,39.4967],[-78.90389,39.50472],[-78.90551,39.51155],[-78.89294,39.51276],[-78.89043,39.52505],[-78.87908,39.52121],[-78.87474,39.52261],[-78.86936,39.53179],[-78.87069,39.53877],[-78.86143,39.54097],[-78.85102,39.55404],[-78.8512,39.55992],[-78.84418,39.5624],[-78.83855,39.5673],[-78.8303,39.56535],[-78.8214,39.56062],[-78.81676,39.56169],[-78.81351,39.56772],[-78.8201,39.57629],[-78.82636,39.57733],[-78.82601,39.58883],[-78.8189,39.59037],[-78.81748,39.59459],[-78.81221,39.59772],[-78.80935,39.60806],[-78.79586,39.60693],[-78.79596,39.61421],[-78.80174,39.62749],[-78.7974,39.62946],[-78.79094,39.63829],[-78.78134,39.63679],[-78.77524,39.64569],[-78.76584,39.64849],[-78.76534,39.64399],[-78.77264,39.63689],[-78.77848,39.62441],[-78.77752,39.62171],[-78.76317,39.6189],[-78.7485,39.62626],[-78.73619,39.62171],[-78.73376,39.61393],[-78.74706,39.60569],[-78.75151,39.60995],[-78.76811,39.6087],[-78.77814,39.60136],[-78.77051,39.59499],[-78.76749,39.58749],[-78.75675,39.58069],[-78.74642,39.57954],[-78.74025,39.58566],[-78.73398,39.58662],[-78.73199,39.57536],[-78.72501,39.56397],[-78.71333,39.56203],[-78.7071,39.55586],[-78.69463,39.55325],[-78.68945,39.54577],[-78.67563,39.54037],[-78.66874,39.54016],[-78.66399,39.53678],[-78.65598,39.5347],[-78.63084,39.53711],[-78.62304,39.53951],[-78.60687,39.53508],[-78.60226,39.53211],[-78.59163,39.53689],[-78.59213,39.53182],[-78.58779,39.52791],[-78.57824,39.52657],[-78.56593,39.51944],[-78.55713,39.52153],[-78.54658,39.521],[-78.52789,39.52465],[-78.52139,39.52479],[-78.5032,39.51865],[-78.48974,39.51779],[-78.48068,39.51896],[-78.47418,39.51624],[-78.46864,39.51679],[-78.4629,39.52084],[-78.46095,39.52599],[-78.463,39.53365],[-78.4609,39.53744],[-78.45041,39.53795],[-78.4506,39.54399],[-78.46012,39.54585],[-78.46022,39.55118],[-78.45108,39.55019],[-78.44196,39.54122],[-78.43476,39.54399],[-78.439,39.55194],[-78.43187,39.55246],[-78.42695,39.5466],[-78.41998,39.54541],[-78.41729,39.5496],[-78.42654,39.55915],[-78.43818,39.56352],[-78.45438,39.57432],[-78.45834,39.58043],[-78.45719,39.58738],[-78.44317,39.59116],[-78.42825,39.58672],[-78.41867,39.58111],[-78.40803,39.57859],[-78.40094,39.58021],[-78.39532,39.58422],[-78.39747,39.59023],[-78.42064,39.60318],[-78.43152,39.61448],[-78.43362,39.61826],[-78.43025,39.62329],[-78.42055,39.62402],[-78.39583,39.61608],[-78.39077,39.61212],[-78.37818,39.60818],[-78.3724,39.6123],[-78.38296,39.62225],[-78.38249,39.62822],[-78.37317,39.63046],[-78.36249,39.62605],[-78.35388,39.62772],[-78.35873,39.63559],[-78.35826,39.63966],[-78.3519,39.64049],[-78.33388,39.63649],[-78.33371,39.64093],[-78.34203,39.64388],[-78.34002,39.65275],[-78.35318,39.65528],[-78.34929,39.66057],[-78.33319,39.66641],[-78.34348,39.67554],[-78.33617,39.68071],[-78.32678,39.67648],[-78.31801,39.68052],[-78.31631,39.68928],[-78.31966,39.69644],[-78.31745,39.69918],[-78.33075,39.71125],[-78.33317,39.71864],[-78.34296,39.7172],[-78.34283,39.72254],[-78.43884,39.72248],[-78.46142,39.72287],[-78.5377,39.72249],[-78.72353,39.72304],[-78.92842,39.72278]]]},"properties":{"STATEFP":"24","COUNTYFP":"001","COUNTYNS":"01713506","GEOIDFQ":"0500000US24001","GEOID":"24001","NAME":"Allegany","NAMELSAD":"Allegany County","STUSPS":"MD","STATE_NAME":"Maryland","LSAD":"06","ALAND":1093489886,"AWATER":14710933}},
{"type":"Feature","geometry":{"type":"Polygon","coordinates":[[[-76.88227,39.35019],[-76.89052,39.35317],[-76.8979,39.35163],[-76.9058,39.35415],[-76.91676,39.35064],[-76.92931,39.35395],[-76.93381,39.35774],[-76.96235,39.35809],[-76.969,39.36382],[-76.97442,39.36139],[-76.9894,39.36134],[-76.99755,39.35595],[-77.00914,39.35483],[-77.02259,39.35076],[-77.03053,39.35129],[-77.03352,39.35526],[-77.0457,39.36003],[-77.06023,39.35977],[-77.06496,39.36194],[-77.07434,39.36265],[-77.07767,39.36615],[-77.08601,39.36794],[-77.10267,39.36902],[-77.1071,39.36676],[-77.11671,39.36643],[-77.13569,39.36018],[-77.14511,39.3512],[-77.15147,39.3487],[-77.16808,39.35396],[-77.1688,39.3535],[-77.18381,39.34546],[-77.1868,39.3382],[-77.17855,39.32546],[-77.17286,39.31947],[-77.17035,39.31311],[-77.16459,39.30744],[-77.15341,39.30203],[-77.14006,39.2921],[-77.13789,39.28815],[-77.14001,39.28344],[-77.134,39.27618],[-77.13059,39.26841],[-77.11699,39.26754],[-77.11081,39.26414],[-77.10362,39.266],[-77.0821,39.26003],[-77.07011,39.2541],[-77.06219,39.24732],[-77.06152,39.24127],[-77.05025,39.23758],[-77.04481,39.23767],[-77.03588,39.22967],[-77.03232,39.22032],[-77.01757,39.20975],[-77.00942,39.20673],[-77.01216,39.19518],[-77.00491,39.19326],[-77.00433,39.18926],[-77.00842,39.18157],[-76.99991,39.17863],[-76.99743,39.1741],[-77.0014,39.17088],[-76.99732,39.16647],[-76.98714,39.16629],[-76.973,39.1614],[-76.9767,39.15416],[-76.97561,39.14975],[-76.96407,39.1482],[-76.95554,39.14487],[-76.95307,39.13897],[-76.95852,39.13402],[-76.94858,39.1296],[-76.93828,39.13278],[-76.9291,39.13839],[-76.91898,39.13213],[-76.91565,39.127],[-76.9073,39.12549],[-76.89724,39.12699],[-76.8885,39.13097],[-76.87535,39.11683],[-76.869,39.11221],[-76.84908,39.1091],[-76.84036,39.10314],[-76.83047,39.10662],[-76.82667,39.10995],[-76.82272,39.11867],[-76.81203,39.12273],[-76.80118,39.12219],[-76.7905,39.1255],[-76.78518,39.13208],[-76.78151,39.1455],[-76.76374,39.16623],[-76.75014,39.17502],[-76.74639,39.17951],[-76.7382,39.17909],[-76.7295,39.18379],[-76.72195,39.18303],[-76.71922,39.19148],[-76.71608,39.19184],[-76.70333,39.2107],[-76.69708,39.21409],[-76.70523,39.21567],[-76.70667,39.22125],[-76.71309,39.22172],[-76.71726,39.22548],[-76.74007,39.2324],[-76.75181,39.24448],[-76.75718,39.2475],[-76.76325,39.24634],[-76.76383,39.25131],[-76.78196,39.25833],[-76.79449,39.26662],[-76.78517,39.28286],[-76.7854,39.29109],[-76.77914,39.29714],[-76.78753,39.30021],[-76.79403,39.3068],[-76.79472,39.31428],[-76.80452,39.31673],[-76.81013,39.31524],[-76.81469,39.31788],[-76.81884,39.31353],[-76.82333,39.31901],[-76.83974,39.31527],[-76.84401,39.31818],[-76.84936,39.31589],[-76.85391,39.31766],[-76.85544,39.32322],[-76.86244,39.32981],[-76.87504,39.33215],[-76.87836,39.33629],[-76.87811,39.34227],[-76.88227,39.35019]]]},"properties":{"STATEFP":"24","COUNTYFP":"027","COUNTYNS":"01709077","GEOIDFQ":"0500000US24027","GEOID":"24027","NAME":"Howard","NAMELSAD":"Howard County","STUSPS":"MD","STATE_NAME":"Maryland","LSAD":"06","ALAND":649957177,"AWATER":6336170}},
{"type":"Feature","geometry":{"type":"Polygon","coordinates":[[[-76.67412,38.49962],[-76.66595,38.49439],[-76.66034,38.48737],[-76.65214,38.47375],[-76.65435,38.46517],[-76.63449,38.45146],[-76.62468,38.44367],[-76.60837,38.42445],[-76.59753,38.42343],[-76.57863,38.41128],[-76.5639,38.406],[-76.55996,38.39732],[-76.55343,38.39504],[-76.53407,38.39777],[-76.52465,38.39034],[-76.51666,38.38167],[-76.50783,38.3775],[-76.50147,38.3725],[-76.49116,38.36125],[-76.48636,38.35352],[-76.48313,38.34245],[-76.48938,38.328],[-76.47804,38.32706],[-76.472,38.32501],[-76.46824,38.32893],[-76.46206,38.32501],[-76.45576,38.31653],[-76.45136,38.32324],[-76.43805,38.32529],[-76.42688,38.32277],[-76.41922,38.32292],[-76.40494,38.34109],[-76.387,38.36127],[-76.39091,38.37506],[-76.38187,38.38638],[-76.39484,38.3894],[-76.40252,38.3944],[-76.40757,38.40297],[-76.41353,38.40933],[-76.41538,38.41468],[-76.43627,38.43343],[-76.45094,38.44242],[-76.4558,38.45123],[-76.47354,38.46644],[-76.48399,38.47411],[-76.4927,38.48285],[-76.50602,38.50461],[-76.51571,38.52899],[-76.51751,38.53915],[-76.51511,38.55576],[-76.51721,38.57311],[-76.51634,38.59023],[-76.51128,38.61574],[-76.51513,38.62376],[-76.51555,38.62936],[-76.52462,38.64596],[-76.5324,38.67836],[-76.53254,38.69967],[-76.52831,38.71274],[-76.53558,38.72148],[-76.60351,38.7212],[-76.6159,38.7208],[-76.62294,38.72666],[-76.62308,38.76728],[-76.63449,38.76666],[-76.64307,38.76928],[-76.66041,38.76408],[-76.67327,38.7554],[-76.68521,38.75609],[-76.68636,38.74848],[-76.68402,38.73835],[-76.69384,38.73591],[-76.69555,38.73154],[-76.69359,38.72476],[-76.70196,38.71086],[-76.69774,38.70703],[-76.69498,38.70031],[-76.69843,38.69044],[-76.69549,38.68578],[-76.68715,38.68137],[-76.69046,38.67368],[-76.69926,38.67111],[-76.69926,38.66577],[-76.68737,38.66379],[-76.68333,38.66118],[-76.68513,38.65477],[-76.69163,38.64851],[-76.69285,38.63644],[-76.68659,38.63048],[-76.67847,38.62732],[-76.67233,38.61753],[-76.67348,38.60725],[-76.67256,38.59927],[-76.6807,38.5805],[-76.6778,38.57237],[-76.67914,38.56673],[-76.67228,38.55278],[-76.67546,38.53588],[-76.66299,38.52662],[-76.67412,38.49962]]]},"properties":{"STATEFP":"24","COUNTYFP":"009","COUNTYNS":"01676636","GEOIDFQ":"0500000US24009","GEOID":"24009","NAME":"Calvert","NAMELSAD":"Calvert County","STUSPS":"MD","STATE_NAME":"Maryland","LSAD":"06","ALAND":552158537,"AWATER":341580669}},
{"type":"Feature","geometry":{"type":"Polygon","coordinates":[[[-78.33388,39.63649],[-78.30815,39.62961],[-78.28304,39.62047],[-78.26683,39.61882],[-78.26337,39.62168],[-78.26219,39.63046],[-78.25408,39.64009],[-78.23806,39.65208],[-78.22768,39.6568],[-78.22386,39.66261],[-78.23301,39.67047],[-78.22733,39.67612],[-78.20294,39.67665],[-78.1967,39.68207],[-78.19244,39.68912],[-78.18276,39.69511],[-78.17136,39.69561],[-78.15416,39.69053],[-78.14348,39.69041],[-78.13271,39.68698],[-78.10783,39.68214],[-78.09712,39.67816],[-78.08983,39.67167],[-78.07752,39.66888],[-78.05193,39.64821],[-78.04767,39.64311],[-78.03599,39.63572],[-78.03014,39.62746],[-78.0239,39.6217],[-78.01134,39.60408],[-78.00233,39.60049],[-77.97669,39.59974],[-77.97015,39.60509],[-77.96209,39.6087],[-77.9521,39.60636],[-77.9506,39.60394],[-77.95195,39.59271],[-77.94618,39.58481],[-77.93905,39.58714],[-77.93637,39.59451],[-77.93545,39.60808],[-77.93836,39.61258],[-77.94413,39.61462],[-77.94194,39.61879],[-77.93286,39.61768],[-77.92874,39.61391],[-77.9233,39.60485],[-77.91641,39.60282],[-77.88848,39.59734],[-77.88182,39.60004],[-77.88194,39.60811],[-77.88696,39.61333],[-77.88512,39.61578],[-77.87472,39.61429],[-77.86868,39.61114],[-77.85344,39.60712],[-77.83801,39.60613],[-77.83181,39.6011],[-77.82975,39.59105],[-77.83322,39.57102],[-77.83633,39.56637],[-77.84217,39.56433],[-77.85585,39.56461],[-77.87845,39.56349],[-77.88797,39.5592],[-77.88644,39.55195],[-77.87153,39.54428],[-77.86432,39.53481],[-77.86613,39.51766],[-77.86019,39.51433],[-77.85075,39.5154],[-77.84192,39.51847],[-77.84054,39.5292],[-77.83351,39.53263],[-77.82536,39.52918],[-77.82355,39.52408],[-77.82565,39.5169],[-77.8451,39.50585],[-77.84567,39.49863],[-77.83191,39.49474],[-77.82078,39.4939],[-77.80782,39.49024],[-77.79563,39.48962],[-77.78976,39.49221],[-77.78161,39.49907],[-77.77095,39.49909],[-77.76599,39.49572],[-77.77172,39.48921],[-77.78852,39.48505],[-77.79548,39.48182],[-77.7982,39.47572],[-77.79563,39.47126],[-77.77852,39.46366],[-77.78047,39.45987],[-77.79316,39.46204],[-77.79847,39.46067],[-77.79814,39.45598],[-77.78611,39.4472],[-77.78856,39.44283],[-77.80086,39.44084],[-77.80254,39.43597],[-77.79275,39.43059],[-77.77485,39.42785],[-77.76332,39.42844],[-77.75309,39.42326],[-77.74748,39.41093],[-77.74001,39.40169],[-77.73641,39.39268],[-77.73632,39.38774],[-77.74971,39.38417],[-77.75327,39.37832],[-77.74414,39.36514],[-77.74593,39.35322],[-77.75931,39.34531],[-77.75961,39.33733],[-77.75579,39.3339],[-77.73501,39.32702],[-77.72738,39.32167],[-77.71586,39.32064],[-77.70771,39.32156],[-77.69746,39.31863],[-77.68712,39.31991],[-77.67712,39.32408],[-77.67344,39.34423],[-77.66689,39.35073],[-77.66067,39.36312],[-77.65155,39.37511],[-77.64041,39.40254],[-77.64092,39.41473],[-77.63774,39.42482],[-77.63701,39.43853],[-77.63384,39.44682],[-77.62926,39.4486],[-77.62681,39.45711],[-77.62186,39.45967],[-77.62173,39.46396],[-77.61616,39.46837],[-77.62202,39.48175],[-77.61441,39.49155],[-77.62301,39.4999],[-77.6226,39.5076],[-77.61348,39.52867],[-77.60607,39.53672],[-77.5977,39.54078],[-77.59942,39.54971],[-77.59591,39.55111],[-77.59397,39.56392],[-77.58676,39.57137],[-77.58451,39.58161],[-77.57792,39.59879],[-77.57571,39.60971],[-77.57018,39.62],[-77.55076,39.62531],[-77.54845,39.63123],[-77.54068,39.63356],[-77.53036,39.63169],[-77.52576,39.63753],[-77.52016,39.64068],[-77.51324,39.64992],[-77.51208,39.6542],[-77.49844,39.66754],[-77.49287,39.67643],[-77.49708,39.68313],[-77.50836,39.68407],[-77.50316,39.68923],[-77.49689,39.6904],[-77.49035,39.69584],[-77.48624,39.70462],[-77.47399,39.71368],[-77.46914,39.72002],[-77.57439,39.72032],[-77.72411,39.72089],[-77.87472,39.72222],[-77.9956,39.72228],[-78.09914,39.72232],[-78.20289,39.72242],[-78.33071,39.72269],[-78.34283,39.72254],[-78.34296,39.7172],[-78.33317,39.71864],[-78.33075,39.71125],[-78.31745,39.69918],[-78.31966,39.69644],[-78.31631,39.68928],[-78.31801,39.68052],[-78.32678,39.67648],[-78.33617,39.68071],[-78.34348,39.67554],[-78.33319,39.66641],[-78.34929,39.66057],[-78.35318,39.65528],[-78.34002,39.65275],[-78.34203,39.64388],[-78.33371,39.64093],[-78.33388,39.63649]]]},"properties":{"STATEFP":"24","COUNTYFP":"043","COUNTYNS":"01714220","GEOIDFQ":"0500000US24043","GEOID":"24043","NAME":"Washington","NAMELSAD":"Washington County","STUSPS":"MD","STATE_NAME":"Maryland","LSAD":"06","ALAND":1185655256,"AWATER":24820607}},
{"type":"Feature","geometry":{"type":"MultiPolygon","coordinates":[[[[-76.35756,39.38969],[-76.35712,39.39408],[-76.33538,39.39041],[-76.3292,39.38765],[-76.32302,39.38995],[-76.31137,39.38848],[-76.30709,39.38545],[-76.30246,39.37727],[-76.30305,39.37066],[-76.30935,39.35963],[-76.30942,39.35415],[-76.29691,39.35131],[-76.29438,39.34894],[-76.29878,39.34021],[-76.29878,39.32921],[-76.29352,39.32505],[-76.28962,39.31717],[-76.29039,39.30978],[-76.29662,39.30203],[-76.28175,39.29966],[-76.28125,39.31036],[-76.27772,39.31555],[-76.27774,39.32213],[-76.26683,39.32968],[-76.26358,39.33431],[-76.25706,39.33785],[-76.25849,39.34695],[-76.26528,39.35001],[-76.2655,39.35917],[-76.27346,39.36147],[-76.28689,39.369],[-76.27774,39.37148],[-76.2722,39.3781],[-76.2756,39.38085],[-76.26514,39.39233],[-76.26906,39.40308],[-76.26348,39.40813],[-76.2548,39.41189],[-76.25421,39.41667],[-76.24743,39.43503],[-76.25361,39.44255],[-76.25159,39.44962],[-76.24434,39.4554],[-76.24149,39.46127],[-76.23294,39.45944],[-76.23104,39.45641],[-76.23638,39.44549],[-76.23698,39.43806],[-76.22462,39.42567],[-76.23008,39.41814],[-76.24268,39.40749],[-76.24161,39.404],[-76.24978,39.38889],[-76.24474,39.3836],[-76.25339,39.37875],[-76.24625,39.37029],[-76.25266,39.37001],[-76.25011,39.36132],[-76.23988,39.36141],[-76.23378,39.35201],[-76.22698,39.34991],[-76.22168,39.35636],[-76.20361,39.36397],[-76.19693,39.36784],[-76.18671,39.38094],[-76.18007,39.37761],[-76.17595,39.38224],[-76.17411,39.38924],[-76.15877,39.40631],[-76.14637,39.40531],[-76.13633,39.41101],[-76.12189,39.42123],[-76.11682,39.42761],[-76.10481,39.43322],[-76.10031,39.4432],[-76.08926,39.44512],[-76.08118,39.43671],[-76.06002,39.4499],[-76.06932,39.46767],[-76.07197,39.47505],[-76.07959,39.47499],[-76.08329,39.47786],[-76.09831,39.47612],[-76.10466,39.47879],[-76.11206,39.48622],[-76.11647,39.48136],[-76.12241,39.48136],[-76.12812,39.48668],[-76.12313,39.48889],[-76.11123,39.50599],[-76.11107,39.50946],[-76.10484,39.52164],[-76.09819,39.52948],[-76.09607,39.53691],[-76.08858,39.53822],[-76.08355,39.54187],[-76.07616,39.54365],[-76.08597,39.55901],[-76.0887,39.56134],[-76.13567,39.61311],[-76.14747,39.61941],[-76.16176,39.64962],[-76.16841,39.65613],[-76.18397,39.66661],[-76.18658,39.66951],[-76.21268,39.68641],[-76.22928,39.70913],[-76.23326,39.72131],[-76.41878,39.7212],[-76.56945,39.7212],[-76.56739,39.6843],[-76.56579,39.62554],[-76.56519,39.6145],[-76.55946,39.59766],[-76.55325,39.58943],[-76.54782,39.58822],[-76.54126,39.57502],[-76.54041,39.56909],[-76.53228,39.56156],[-76.53106,39.5554],[-76.53217,39.54398],[-76.51903,39.53671],[-76.51653,39.52918],[-76.5106,39.52459],[-76.499,39.5235],[-76.4894,39.52407],[-76.48359,39.51949],[-76.47064,39.51585],[-76.45357,39.50687],[-76.44797,39.50846],[-76.43698,39.50196],[-76.43221,39.50662],[-76.42792,39.50172],[-76.43361,39.49232],[-76.4248,39.48115],[-76.4209,39.47841],[-76.41119,39.47853],[-76.39554,39.4683],[-76.39169,39.46453],[-76.38876,39.45377],[-76.37895,39.44543],[-76.37764,39.43617],[-76.38098,39.4295],[-76.38032,39.42482],[-76.37301,39.42121],[-76.37025,39.41529],[-76.37194,39.4051],[-76.36633,39.40421],[-76.36105,39.40026],[-76.35756,39.38969]]],[[[-76.27225,39.27456],[-76.26495,39.27952],[-76.26622,39.28201],[-76.25799,39.28779],[-76.26035,39.29245],[-76.26641,39.29054],[-76.27225,39.27456]]]]},"properties":{"STATEFP":"24","COUNTYFP":"025","COUNTYNS":"01698178","GEOIDFQ":"0500000US24025","GEOID":"24025","NAME":"Harford","NAMELSAD":"Harford County","STUSPS":"MD","STATE_NAME":"Maryland","LSAD":"06","ALAND":1132149298,"AWATER":231888421}},
{"type":"Feature","geometry":{"type":"Polygon","coordinates":[[[-75.62434,37.99421],[-75.53994,38.00134],[-75.43667,38.01021],[-75.39698,38.01344],[-75.27436,38.02459],[-75.24247,38.02703],[-75.21612,38.06179],[-75.1938,38.09601],[-75.17915,38.12636],[-75.15897,38.18424],[-75.14802,38.21019],[-75.13026,38.2469],[-75.12155,38.26961],[-75.10295,38.31153],[-75.09389,38.32343],[-75.08552,38.32427],[-75.08143,38.33597],[-75.07248,38.35528],[-75.06586,38.37715],[-75.06137,38.38947],[-75.05459,38.41483],[-75.04894,38.45126],[-75.18555,38.45121],[-75.25272,38.4514],[-75.34125,38.45197],[-75.33579,38.44229],[-75.3304,38.42423],[-75.32343,38.41849],[-75.3171,38.40424],[-75.32523,38.38593],[-75.32974,38.38129],[-75.32164,38.37087],[-75.31629,38.36928],[-75.31396,38.35981],[-75.30701,38.35476],[-75.31347,38.34788],[-75.3232,38.3319],[-75.33067,38.33192],[-75.33943,38.32465],[-75.34096,38.32021],[-75.34608,38.31938],[-75.35628,38.31316],[-75.36087,38.29834],[-75.36464,38.29036],[-75.37259,38.28971],[-75.45652,38.2862],[-75.49964,38.28384],[-75.61276,38.27863],[-75.61021,38.27307],[-75.61072,38.26763],[-75.60469,38.25964],[-75.60583,38.24913],[-75.59193,38.23225],[-75.58682,38.22361],[-75.57665,38.22006],[-75.57584,38.21128],[-75.5678,38.20595],[-75.56019,38.19768],[-75.55793,38.1916],[-75.5494,38.18551],[-75.5459,38.17874],[-75.54699,38.16961],[-75.55171,38.16274],[-75.56184,38.15821],[-75.57241,38.15092],[-75.57682,38.1443],[-75.57669,38.14044],[-75.5717,38.1316],[-75.56847,38.13265],[-75.55916,38.12693],[-75.55254,38.12088],[-75.55185,38.11551],[-75.54357,38.10676],[-75.54606,38.09799],[-75.54412,38.09187],[-75.54581,38.08675],[-75.55333,38.08482],[-75.56219,38.0884],[-75.56952,38.08711],[-75.57249,38.08116],[-75.571,38.07704],[-75.57459,38.07164],[-75.58159,38.06827],[-75.59959,38.06938],[-75.60908,38.07563],[-75.61752,38.07302],[-75.6162,38.06506],[-75.62266,38.05497],[-75.63712,38.0512],[-75.63885,38.04471],[-75.64594,38.04593],[-75.6496,38.0521],[-75.65632,38.05216],[-75.66183,38.04185],[-75.65582,38.02976],[-75.64822,38.02536],[-75.64585,38.02064],[-75.63929,38.02298],[-75.63155,38.01765],[-75.62894,38.00741],[-75.61973,38.00712],[-75.62117,37.99848],[-75.62434,37.99421]]]},"properties":{"STATEFP":"24","COUNTYFP":"047","COUNTYNS":"01668802","GEOIDFQ":"0500000US24047","GEOID":"24047","NAME":"Worcester","NAMELSAD":"Worcester County","STUSPS":"MD","STATE_NAME":"Maryland","LSAD":"06","ALAND":1212887337,"AWATER":586800206}},
{"type":"Feature","geometry":{"type":"Polygon","coordinates":[[[-76.69708,39.21409],[-76.70333,39.2107],[-76.71608,39.19184],[-76.71922,39.19148],[-76.72195,39.18303],[-76.7295,39.18379],[-76.7382,39.17909],[-76.74639,39.17951],[-76.75014,39.17502],[-76.76374,39.16623],[-76.78151,39.1455],[-76.78518,39.13208],[-76.7905,39.1255],[-76.80118,39.12219],[-76.81203,39.12273],[-76.82272,39.11867],[-76.82667,39.10995],[-76.83047,39.10662],[-76.84036,39.10314],[-76.83756,39.09685],[-76.82852,39.095],[-76.82712,39.08983],[-76.83491,39.08287],[-76.83272,39.07594],[-76.83672,39.0736],[-76.83153,39.06916],[-76.81726,39.06177],[-76.80394,39.06245],[-76.80075,39.05539],[-76.79571,39.05457],[-76.79262,39.04618],[-76.77653,39.04531],[-76.76131,39.03538],[-76.757,39.03776],[-76.74765,39.03342],[-76.74313,39.0237],[-76.74452,39.01712],[-76.73328,39.00682],[-76.72426,39.00457],[-76.72127,38.99971],[-76.7089,38.99341],[-76.69846,38.98378],[-76.70218,38.97984],[-76.70229,38.97013],[-76.69898,38.96268],[-76.69417,38.95678],[-76.69528,38.94778],[-76.69102,38.94084],[-76.69218,38.93632],[-76.68142,38.93127],[-76.68312,38.9263],[-76.69053,38.92476],[-76.68512,38.918],[-76.67806,38.91419],[-76.67852,38.91054],[-76.66951,38.90443],[-76.67626,38.89595],[-76.67524,38.88567],[-76.67657,38.87596],[-76.68316,38.86672],[-76.6881,38.86456],[-76.69187,38.85921],[-76.69117,38.8544],[-76.69655,38.84716],[-76.69972,38.83678],[-76.69637,38.82272],[-76.70177,38.81554],[-76.70942,38.81626],[-76.71231,38.81292],[-76.7084,38.80311],[-76.71012,38.796],[-76.70254,38.7904],[-76.70615,38.78567],[-76.71225,38.78436],[-76.71439,38.78076],[-76.71255,38.77491],[-76.70095,38.76875],[-76.69927,38.75341],[-76.69438,38.74888],[-76.68636,38.74848],[-76.68521,38.75609],[-76.67327,38.7554],[-76.66041,38.76408],[-76.64307,38.76928],[-76.63449,38.76666],[-76.62308,38.76728],[-76.62294,38.72666],[-76.6159,38.7208],[-76.60351,38.7212],[-76.53558,38.72148],[-76.52831,38.71274],[-76.5262,38.72429],[-76.52987,38.72843],[-76.54448,38.72771],[-76.55274,38.73535],[-76.55753,38.74469],[-76.55423,38.75396],[-76.55917,38.75868],[-76.55988,38.76736],[-76.54958,38.77285],[-76.53936,38.77469],[-76.52698,38.78702],[-76.52468,38.79502],[-76.51008,38.80122],[-76.50666,38.80979],[-76.49794,38.8148],[-76.49576,38.83007],[-76.48988,38.83872],[-76.49444,38.85072],[-76.49977,38.85221],[-76.5033,38.8455],[-76.51494,38.85216],[-76.51993,38.85013],[-76.53645,38.85179],[-76.53847,38.86142],[-76.53443,38.8628],[-76.51944,38.86314],[-76.49068,38.88481],[-76.49088,38.89451],[-76.49388,38.89961],[-76.4945,38.90933],[-76.49973,38.90859],[-76.50734,38.91294],[-76.50912,38.91987],[-76.49724,38.92551],[-76.48951,38.92736],[-76.47834,38.91895],[-76.47822,38.91645],[-76.46948,38.91151],[-76.46938,38.90761],[-76.46026,38.90715],[-76.45878,38.91521],[-76.46362,38.92748],[-76.45966,38.93393],[-76.45028,38.94111],[-76.45778,38.94841],[-76.46308,38.94861],[-76.47128,38.95651],[-76.47488,38.96731],[-76.4742,38.97265],[-76.48024,38.97773],[-76.4762,38.98152],[-76.46919,38.98263],[-76.46313,38.98106],[-76.45849,38.98466],[-76.45048,38.97761],[-76.44875,38.98697],[-76.45041,38.99103],[-76.44661,38.99491],[-76.43449,38.99667],[-76.43128,39.00147],[-76.42391,38.99953],[-76.42415,38.99417],[-76.41325,38.99697],[-76.41397,39.00144],[-76.3945,39.01268],[-76.39778,39.02261],[-76.40508,39.03321],[-76.41373,39.03887],[-76.43122,39.04696],[-76.43893,39.05279],[-76.42994,39.06285],[-76.42194,39.07699],[-76.42216,39.08385],[-76.43314,39.11123],[-76.43328,39.12177],[-76.43104,39.13212],[-76.45278,39.14351],[-76.47148,39.15471],[-76.48026,39.16664],[-76.48618,39.16245],[-76.48856,39.15738],[-76.50092,39.15544],[-76.50056,39.16208],[-76.51239,39.1725],[-76.51768,39.17323],[-76.52578,39.17791],[-76.52612,39.181],[-76.53341,39.19041],[-76.52786,39.19552],[-76.53539,39.20381],[-76.53307,39.20765],[-76.55009,39.19721],[-76.58328,39.2074],[-76.61168,39.23439],[-76.61861,39.2374],[-76.63012,39.22459],[-76.63714,39.2235],[-76.64722,39.22904],[-76.65866,39.23101],[-76.66991,39.22843],[-76.68095,39.22],[-76.68775,39.22129],[-76.697,39.21706],[-76.69708,39.21409]]]},"properties":{"STATEFP":"24","COUNTYFP":"003","COUNTYNS":"01710958","GEOIDFQ":"0500000US24003","GEOID":"24003","NAME":"Anne Arundel","NAMELSAD":"Anne Arundel County","STUSPS":"MD","STATE_NAME":"Maryland","LSAD":"06","ALAND":1074343715,"AWATER":448054686}},
{"type":"Feature","geometry":{"type":"Polygon","coordinates":[[[-78.92842,39.72278],[-79.04555,39.72288],[-79.20835,39.7222],[-79.39246,39.72143],[-79.47666,39.72108],[-79.47657,39.64421],[-79.47776,39.64228],[-79.47887,39.53169],[-79.48237,39.53169],[-79.4833,39.45391],[-79.48437,39.3443],[-79.48607,39.3443],[-79.48681,39.29637],[-79.48765,39.27993],[-79.48587,39.26491],[-79.48687,39.20596],[-79.46979,39.20373],[-79.46916,39.2073],[-79.46106,39.21144],[-79.45456,39.2102],[-79.45047,39.21403],[-79.43983,39.21707],[-79.43263,39.22408],[-79.42441,39.22817],[-79.42506,39.23369],[-79.42035,39.23888],[-79.41205,39.24055],[-79.40335,39.25055],[-79.39836,39.25294],[-79.39286,39.26182],[-79.38186,39.26687],[-79.37881,39.27182],[-79.37259,39.27403],[-79.36134,39.27492],[-79.35375,39.27804],[-79.35098,39.28524],[-79.34362,39.28715],[-79.34434,39.29353],[-79.33238,39.29992],[-79.32181,39.2999],[-79.31477,39.30438],[-79.30231,39.29955],[-79.29024,39.29932],[-79.29016,39.30352],[-79.28372,39.30964],[-79.28204,39.32305],[-79.26936,39.33073],[-79.26756,39.33629],[-79.25978,39.33424],[-79.25389,39.33908],[-79.25736,39.34252],[-79.25358,39.3462],[-79.25631,39.35723],[-79.24943,39.35564],[-79.24229,39.35943],[-79.23292,39.35962],[-79.23165,39.36457],[-79.21428,39.36348],[-79.21207,39.37077],[-79.20294,39.37787],[-79.19713,39.3886],[-79.18495,39.38525],[-79.17696,39.38903],[-79.18116,39.3946],[-79.17441,39.39524],[-79.16519,39.38715],[-79.16193,39.39186],[-79.1665,39.40089],[-79.15901,39.4108],[-79.16015,39.41638],[-79.15535,39.4183],[-79.14965,39.41445],[-79.14975,39.40573],[-79.14375,39.4052],[-79.14109,39.41035],[-79.14231,39.41669],[-79.1365,39.41889],[-79.12838,39.41748],[-79.12905,39.42954],[-79.12404,39.4332],[-79.11223,39.43088],[-79.11657,39.43806],[-79.11407,39.44332],[-79.10793,39.44575],[-79.10247,39.45118],[-79.10186,39.45728],[-79.10719,39.46201],[-79.09543,39.46255],[-79.09696,39.46824],[-79.1036,39.47003],[-79.10521,39.47424],[-79.10048,39.477],[-79.09133,39.47241],[-79.08327,39.47138],[-79.06863,39.47451],[-79.06753,39.47937],[-79.01802,39.56609],[-78.96721,39.65493],[-78.92842,39.72278]]]},"properties":{"STATEFP":"24","COUNTYFP":"023","COUNTYNS":"01711058","GEOIDFQ":"0500000US24023","GEOID":"24023","NAME":"Garrett","NAMELSAD":"Garrett County","STUSPS":"MD","STATE_NAME":"Maryland","LSAD":"06","ALAND":1681102438,"AWATER":22498420}},
{"type":"Feature","geometry":{"type":"Polygon","coordinates":[[[-76.7871,39.7208],[-76.8901,39.7204],[-76.9366,39.7207],[-76.9909,39.7198],[-77.0589,39.7201],[-77.21702,39.72],[-77.21544,39.71301],[-77.22574,39.70985],[-77.22432,39.70453],[-77.21864,39.70297],[-77.21778,39.69634],[-77.22597,39.69384],[-77.24299,39.69501],[-77.24444,39.69228],[-77.23596,39.68521],[-77.23447,39.6776],[-77.24319,39.66993],[-77.25423,39.66782],[-77.25584,39.66321],[-77.26215,39.66517],[-77.2666,39.66141],[-77.26614,39.65507],[-77.27562,39.64713],[-77.27127,39.642],[-77.27922,39.63628],[-77.2772,39.63129],[-77.29146,39.63058],[-77.29843,39.63814],[-77.30717,39.64111],[-77.31116,39.63973],[-77.30956,39.63076],[-77.30179,39.6212],[-77.30742,39.6191],[-77.29977,39.61228],[-77.29573,39.6114],[-77.28775,39.60452],[-77.28582,39.60775],[-77.27157,39.60622],[-77.27092,39.60122],[-77.2637,39.59477],[-77.26016,39.60251],[-77.25085,39.60159],[-77.2484,39.59507],[-77.22999,39.58343],[-77.22251,39.5831],[-77.21564,39.57451],[-77.21109,39.57887],[-77.20012,39.57859],[-77.18713,39.56643],[-77.18273,39.55934],[-77.17461,39.55951],[-77.16962,39.54985],[-77.169,39.54229],[-77.17075,39.53475],[-77.16209,39.53245],[-77.15234,39.5325],[-77.14991,39.52194],[-77.13849,39.52052],[-77.13806,39.51604],[-77.13355,39.50855],[-77.12975,39.50956],[-77.11243,39.49749],[-77.10684,39.49166],[-77.1102,39.486],[-77.11769,39.47862],[-77.11995,39.46558],[-77.11605,39.46034],[-77.12383,39.45147],[-77.1267,39.44383],[-77.13345,39.4324],[-77.14045,39.42414],[-77.14717,39.41901],[-77.14835,39.40529],[-77.15438,39.3913],[-77.15818,39.37345],[-77.16438,39.36814],[-77.16808,39.35396],[-77.15147,39.3487],[-77.14511,39.3512],[-77.13569,39.36018],[-77.11671,39.36643],[-77.1071,39.36676],[-77.10267,39.36902],[-77.08601,39.36794],[-77.07767,39.36615],[-77.07434,39.36265],[-77.06496,39.36194],[-77.06023,39.35977],[-77.0457,39.36003],[-77.03352,39.35526],[-77.03053,39.35129],[-77.02259,39.35076],[-77.00914,39.35483],[-76.99755,39.35595],[-76.9894,39.36134],[-76.97442,39.36139],[-76.969,39.36382],[-76.96235,39.35809],[-76.93381,39.35774],[-76.92931,39.35395],[-76.91676,39.35064],[-76.9058,39.35415],[-76.8979,39.35163],[-76.89052,39.35317],[-76.88227,39.35019],[-76.87974,39.35685],[-76.88202,39.36434],[-76.88895,39.37057],[-76.89133,39.38223],[-76.87908,39.38798],[-76.87996,39.39487],[-76.88552,39.39762],[-76.87935,39.40233],[-76.88443,39.4046],[-76.88143,39.4174],[-76.89449,39.43454],[-76.8873,39.4405],[-76.8885,39.4461],[-76.8818,39.4459],[-76.8857,39.4564],[-76.892,39.4618],[-76.8845,39.4669],[-76.88329,39.47475],[-76.8769,39.47666],[-76.8748,39.482],[-76.86931,39.48246],[-76.8667,39.5009],[-76.8567,39.5316],[-76.8406,39.5756],[-76.83665,39.58745],[-76.80683,39.66939],[-76.7871,39.7208]]]},"properties":{"STATEFP":"24","COUNTYFP":"013","COUNTYNS":"01696228","GEOIDFQ":"0500000US24013","GEOID":"24013","NAME":"Carroll","NAMELSAD":"Carroll County","STUSPS":"MD","STATE_NAME":"Maryland","LSAD":"06","ALAND":1159317311,"AWATER":13111616}},
{"type":"Feature","geometry":{"type":"Polygon","coordinates":[[[-75.86473,38.37972],[-75.84932,38.365],[-75.85633,38.34953],[-75.87,38.34235],[-75.8782,38.32734],[-75.88248,38.32911],[-75.89222,38.31177],[-75.89959,38.30105],[-75.90827,38.29228],[-75.90137,38.28603],[-75.90767,38.2726],[-75.91702,38.26325],[-75.90921,38.25584],[-75.90788,38.24747],[-75.89971,38.23284],[-75.89569,38.22856],[-75.88669,38.2294],[-75.88851,38.24142],[-75.88344,38.24445],[-75.88188,38.24992],[-75.87665,38.25478],[-75.87,38.2517],[-75.87309,38.2461],[-75.86962,38.2436],[-75.86382,38.2474],[-75.85158,38.24796],[-75.84564,38.2573],[-75.83423,38.25739],[-75.82187,38.26187],[-75.81094,38.25636],[-75.80137,38.25589],[-75.79625,38.26577],[-75.78123,38.26752],[-75.77594,38.2701],[-75.77099,38.27653],[-75.77007,38.28395],[-75.76332,38.28597],[-75.75441,38.28544],[-75.7531,38.28206],[-75.74041,38.27936],[-75.73452,38.28304],[-75.72793,38.27976],[-75.72743,38.27541],[-75.72081,38.26714],[-75.69945,38.26491],[-75.69101,38.28203],[-75.68638,38.28551],[-75.68723,38.28995],[-75.68145,38.29299],[-75.67325,38.29362],[-75.66268,38.29885],[-75.65713,38.29533],[-75.65069,38.29434],[-75.64382,38.2892],[-75.63309,38.28898],[-75.62588,38.28229],[-75.61276,38.27863],[-75.49964,38.28384],[-75.45652,38.2862],[-75.37259,38.28971],[-75.36464,38.29036],[-75.36087,38.29834],[-75.35628,38.31316],[-75.34608,38.31938],[-75.34096,38.32021],[-75.33943,38.32465],[-75.33067,38.33192],[-75.3232,38.3319],[-75.31347,38.34788],[-75.30701,38.35476],[-75.31396,38.35981],[-75.31629,38.36928],[-75.32164,38.37087],[-75.32974,38.38129],[-75.32523,38.38593],[-75.3171,38.40424],[-75.32343,38.41849],[-75.3304,38.42423],[-75.33579,38.44229],[-75.34125,38.45197],[-75.38421,38.45212],[-75.42873,38.45267],[-75.50014,38.45414],[-75.55993,38.45558],[-75.66284,38.45876],[-75.69367,38.46008],[-75.69878,38.522],[-75.70156,38.56074],[-75.70608,38.56054],[-75.71189,38.55088],[-75.72449,38.54123],[-75.73217,38.53802],[-75.74489,38.53778],[-75.75334,38.52874],[-75.75602,38.51532],[-75.76499,38.50648],[-75.78206,38.5016],[-75.79466,38.49237],[-75.81519,38.48879],[-75.82371,38.48102],[-75.8229,38.47601],[-75.81577,38.46937],[-75.81669,38.46331],[-75.83316,38.45762],[-75.83674,38.44809],[-75.83313,38.44344],[-75.82664,38.44223],[-75.81983,38.43589],[-75.82129,38.43014],[-75.82887,38.42342],[-75.84557,38.42187],[-75.85095,38.40454],[-75.85126,38.40035],[-75.8424,38.39308],[-75.83837,38.38748],[-75.84035,38.38478],[-75.85529,38.38535],[-75.86473,38.37972]]]},"properties":{"STATEFP":"24","COUNTYFP":"045","COUNTYNS":"01668606","GEOIDFQ":"0500000US24045","GEOID":"24045","NAME":"Wicomico","NAMELSAD":"Wicomico County","STUSPS":"MD","STATE_NAME":"Maryland","LSAD":"06","ALAND":969761875,"AWATER":66769937}},
{"type":"Feature","geometry":{"type":"Polygon","coordinates":[[[-76.8885,39.13097],[-76.89724,39.12699],[-76.9073,39.12549],[-76.91565,39.127],[-76.91898,39.13213],[-76.9291,39.13839],[-76.93828,39.13278],[-76.94858,39.1296],[-76.95852,39.13402],[-76.95307,39.13897],[-76.95554,39.14487],[-76.96407,39.1482],[-76.97561,39.14975],[-76.9767,39.15416],[-76.973,39.1614],[-76.98714,39.16629],[-76.99732,39.16647],[-77.0014,39.17088],[-76.99743,39.1741],[-76.99991,39.17863],[-77.00842,39.18157],[-77.00433,39.18926],[-77.00491,39.19326],[-77.01216,39.19518],[-77.00942,39.20673],[-77.01757,39.20975],[-77.03232,39.22032],[-77.03588,39.22967],[-77.04481,39.23767],[-77.05025,39.23758],[-77.06152,39.24127],[-77.06219,39.24732],[-77.07011,39.2541],[-77.0821,39.26003],[-77.10362,39.266],[-77.11081,39.26414],[-77.11699,39.26754],[-77.13059,39.26841],[-77.134,39.27618],[-77.14001,39.28344],[-77.13789,39.28815],[-77.14006,39.2921],[-77.15341,39.30203],[-77.16459,39.30744],[-77.17035,39.31311],[-77.17286,39.31947],[-77.17855,39.32546],[-77.1868,39.3382],[-77.18381,39.34546],[-77.1688,39.3535],[-77.21749,39.33141],[-77.30134,39.29184],[-77.31384,39.28646],[-77.39643,39.24799],[-77.45475,39.22166],[-77.45892,39.22034],[-77.47361,39.20841],[-77.47593,39.20202],[-77.47501,39.19493],[-77.4786,39.18917],[-77.48597,39.18567],[-77.50516,39.18205],[-77.51063,39.17848],[-77.51643,39.17089],[-77.52122,39.16106],[-77.52487,39.14846],[-77.52728,39.14624],[-77.52456,39.12782],[-77.51993,39.12093],[-77.51532,39.11859],[-77.49495,39.11304],[-77.4858,39.1093],[-77.47701,39.10033],[-77.46944,39.08639],[-77.46262,39.07625],[-77.45283,39.07247],[-77.4374,39.07061],[-77.42318,39.06688],[-77.40459,39.0645],[-77.3992,39.06478],[-77.38568,39.06199],[-77.37508,39.0613],[-77.34029,39.06299],[-77.33371,39.05951],[-77.3149,39.05221],[-77.301,39.04951],[-77.2931,39.04651],[-77.27471,39.03409],[-77.2553,39.03001],[-77.246,39.02491],[-77.2446,39.02011],[-77.2469,39.01481],[-77.2518,39.01141],[-77.2557,39.00241],[-77.253,38.99571],[-77.2492,38.99371],[-77.24462,38.98254],[-77.2348,38.97631],[-77.2284,38.9784],[-77.2215,38.97131],[-77.2093,38.97041],[-77.1975,38.96681],[-77.183,38.96881],[-77.1653,38.96801],[-77.1466,38.96421],[-77.1377,38.95531],[-77.1276,38.94001],[-77.11976,38.93434],[-77.0915,38.95651],[-77.041,38.99511],[-77.00259,38.96548],[-76.99418,38.97529],[-76.98687,38.97688],[-76.98479,38.98718],[-76.9911,38.99241],[-76.96619,39.0262],[-76.94631,39.05242],[-76.9216,39.08621],[-76.90744,39.10624],[-76.9039,39.11462],[-76.90729,39.11791],[-76.89427,39.12386],[-76.8885,39.13097]]]},"properties":{"STATEFP":"24","COUNTYFP":"031","COUNTYNS":"01712500","GEOIDFQ":"0500000US24031","GEOID":"24031","NAME":"Montgomery","NAMELSAD":"Montgomery County","STUSPS":"MD","STATE_NAME":"Maryland","LSAD":"06","ALAND":1277238908,"AWATER":35640935}},
{"type":"Feature","geometry":{"type":"Polygon","coordinates":[[[-75.94934,38.91833],[-75.94959,38.92407],[-75.95274,38.92926],[-75.94797,38.93189],[-75.95092,38.9464],[-75.94222,38.94992],[-75.94201,38.95619],[-75.93823,38.95886],[-75.94263,38.96767],[-75.93658,38.97342],[-75.94093,38.9763],[-75.93464,38.9802],[-75.92973,38.99065],[-75.92199,38.99442],[-75.91964,39.00011],[-75.91109,39.00413],[-75.9041,39.01043],[-75.90523,39.01525],[-75.89739,39.01429],[-75.89076,39.01832],[-75.89053,39.023],[-75.88282,39.02791],[-75.88336,39.0325],[-75.87802,39.03878],[-75.87628,39.04751],[-75.86968,39.05735],[-75.86317,39.05932],[-75.84897,39.07137],[-75.84707,39.07478],[-75.84824,39.08564],[-75.8433,39.09051],[-75.83494,39.10834],[-75.82316,39.1151],[-75.80988,39.12037],[-75.79887,39.12863],[-75.79108,39.13283],[-75.77571,39.13456],[-75.75793,39.13842],[-75.74767,39.14335],[-75.75103,39.17776],[-75.75596,39.24607],[-75.76778,39.24754],[-75.78441,39.24518],[-75.79682,39.24135],[-75.80634,39.24199],[-75.81019,39.24515],[-75.82008,39.2462],[-75.84443,39.25785],[-75.85395,39.26007],[-75.86631,39.26086],[-75.87416,39.25423],[-75.88566,39.2492],[-75.91756,39.2433],[-75.92693,39.2437],[-75.94071,39.23849],[-75.94849,39.24239],[-75.95607,39.24056],[-75.96261,39.24199],[-75.97039,39.24636],[-75.97726,39.24479],[-75.98477,39.24608],[-75.98781,39.2393],[-75.99878,39.23807],[-76.01029,39.23952],[-76.02045,39.2274],[-76.02822,39.22618],[-76.05656,39.21034],[-76.06879,39.19235],[-76.06444,39.18464],[-76.05327,39.18315],[-76.04666,39.18075],[-76.04024,39.17519],[-76.04259,39.16603],[-76.06386,39.15514],[-76.07336,39.15337],[-76.0816,39.14766],[-76.07455,39.14141],[-76.07501,39.13394],[-76.08558,39.13106],[-76.09415,39.12685],[-76.11706,39.1071],[-76.12286,39.10485],[-76.13444,39.10437],[-76.13626,39.09835],[-76.14479,39.09304],[-76.14491,39.09013],[-76.139,39.08247],[-76.14062,39.07965],[-76.15023,39.07882],[-76.15896,39.06549],[-76.16906,39.06279],[-76.17528,39.05881],[-76.18421,39.04626],[-76.17714,39.04417],[-76.17541,39.03917],[-76.17828,39.03166],[-76.17043,39.02372],[-76.16362,39.01006],[-76.16399,38.99954],[-76.17201,38.99531],[-76.19143,38.97963],[-76.20236,38.97308],[-76.20812,38.97348],[-76.21893,38.97054],[-76.22618,38.97457],[-76.23864,38.97348],[-76.24409,38.98069],[-76.25278,38.9805],[-76.25659,38.97542],[-76.26181,38.97801],[-76.25991,38.98376],[-76.27748,38.98249],[-76.28107,38.9888],[-76.28899,38.99669],[-76.29396,39.00395],[-76.29793,39.01919],[-76.30595,39.02877],[-76.30161,39.03818],[-76.31177,39.03526],[-76.32027,39.02301],[-76.32356,39.00896],[-76.32135,39.00341],[-76.32453,38.9957],[-76.33299,38.9868],[-76.33599,38.97548],[-76.34085,38.97458],[-76.35383,38.95723],[-76.36173,38.93918],[-76.36231,38.92929],[-76.36566,38.90748],[-76.36522,38.89241],[-76.36387,38.8841],[-76.36468,38.87383],[-76.36916,38.86295],[-76.37468,38.85532],[-76.37509,38.83947],[-76.36819,38.83613],[-76.36348,38.84998],[-76.35039,38.8574],[-76.34059,38.85574],[-76.33103,38.86432],[-76.33364,38.88055],[-76.3385,38.89247],[-76.33618,38.89669],[-76.3361,38.90598],[-76.34025,38.91183],[-76.33395,38.91812],[-76.32718,38.91812],[-76.3241,38.91117],[-76.31802,38.91129],[-76.3166,38.92302],[-76.30899,38.92468],[-76.30281,38.922],[-76.29961,38.90268],[-76.29331,38.90324],[-76.29387,38.91012],[-76.29943,38.91854],[-76.29591,38.92866],[-76.27308,38.94193],[-76.26223,38.91998],[-76.2564,38.91883],[-76.24802,38.92379],[-76.25611,38.92709],[-76.26086,38.93273],[-76.25112,38.94021],[-76.25188,38.95871],[-76.25338,38.96489],[-76.24351,38.96563],[-76.2365,38.95417],[-76.23733,38.94936],[-76.23484,38.94252],[-76.22751,38.94159],[-76.22105,38.94752],[-76.20857,38.944],[-76.213,38.93356],[-76.20505,38.93086],[-76.20399,38.92404],[-76.20523,38.9088],[-76.20374,38.89585],[-76.19681,38.89509],[-76.20008,38.88289],[-76.2026,38.86262],[-76.20633,38.85559],[-76.20167,38.84811],[-76.19308,38.86284],[-76.19067,38.86408],[-76.18224,38.85861],[-76.17787,38.86516],[-76.16992,38.86565],[-76.16372,38.87953],[-76.14984,38.88282],[-76.13207,38.87947],[-76.128,38.87599],[-76.12257,38.88204],[-76.11432,38.88084],[-76.10351,38.88231],[-76.10268,38.89017],[-76.11336,38.90452],[-76.11146,38.91101],[-76.1155,38.91372],[-76.11074,38.9206],[-76.11097,38.92665],[-76.10367,38.939],[-76.09696,38.94426],[-76.07793,38.94015],[-76.06572,38.93988],[-75.9863,38.92526],[-75.97192,38.92184],[-75.94934,38.91833]]]},"properties":{"STATEFP":"24","COUNTYFP":"035","COUNTYNS":"00596089","GEOIDFQ":"0500000US24035","GEOID":"24035","NAME":"Queen Anne's","NAMELSAD":"Queen Anne's County","STUSPS":"MD","STATE_NAME":"Maryland","LSAD":"06","ALAND":962618588,"AWATER":360075353}},
{"type":"Feature","geometry":{"type":"Polygon","coordinates":[[[-75.99076,39.37462],[-76.00241,39.3675],[-76.01154,39.36661],[-76.02299,39.3619],[-76.03292,39.36741],[-76.04985,39.37064],[-76.06231,39.37199],[-76.08585,39.37037],[-76.11053,39.37226],[-76.11636,39.36093],[-76.13232,39.35274],[-76.13697,39.34441],[-76.13322,39.34049],[-76.13347,39.33289],[-76.14321,39.32829],[-76.14552,39.3344],[-76.15967,39.33591],[-76.17042,39.33209],[-76.17563,39.32353],[-76.18558,39.31933],[-76.18602,39.31246],[-76.17909,39.3101],[-76.17663,39.304],[-76.17909,39.30007],[-76.16829,39.29464],[-76.17268,39.2882],[-76.18313,39.291],[-76.19018,39.28134],[-76.20009,39.28003],[-76.20422,39.26864],[-76.21125,39.26981],[-76.22248,39.25775],[-76.2267,39.24431],[-76.23205,39.23334],[-76.24136,39.22107],[-76.25103,39.19921],[-76.25583,39.1916],[-76.2666,39.18052],[-76.27464,39.16549],[-76.27737,39.15165],[-76.27608,39.14623],[-76.26538,39.14399],[-76.25703,39.13573],[-76.24486,39.13064],[-76.24442,39.12201],[-76.24729,39.11871],[-76.24281,39.10893],[-76.236,39.09987],[-76.23175,39.08283],[-76.23112,39.06102],[-76.22503,39.05023],[-76.23706,39.04552],[-76.2409,39.0398],[-76.24269,39.02893],[-76.23509,39.02346],[-76.23176,39.01852],[-76.2173,39.0134],[-76.20984,39.00877],[-76.20647,39.0131],[-76.20149,39.01351],[-76.20958,39.02709],[-76.20725,39.03299],[-76.21262,39.04116],[-76.21015,39.04574],[-76.21528,39.0532],[-76.20935,39.05912],[-76.21174,39.06973],[-76.20462,39.07702],[-76.20338,39.08563],[-76.20783,39.092],[-76.20182,39.0967],[-76.19552,39.09029],[-76.18439,39.09642],[-76.18428,39.10959],[-76.16902,39.11176],[-76.16578,39.10942],[-76.17002,39.10068],[-76.16484,39.09598],[-76.16251,39.10381],[-76.15126,39.1081],[-76.14483,39.10561],[-76.14122,39.10747],[-76.13444,39.10437],[-76.12286,39.10485],[-76.11706,39.1071],[-76.09415,39.12685],[-76.08558,39.13106],[-76.07501,39.13394],[-76.07455,39.14141],[-76.0816,39.14766],[-76.07336,39.15337],[-76.06386,39.15514],[-76.04259,39.16603],[-76.04024,39.17519],[-76.04666,39.18075],[-76.05327,39.18315],[-76.06444,39.18464],[-76.06879,39.19235],[-76.05656,39.21034],[-76.02822,39.22618],[-76.02045,39.2274],[-76.01029,39.23952],[-75.99878,39.23807],[-75.98781,39.2393],[-75.98477,39.24608],[-75.97726,39.24479],[-75.97039,39.24636],[-75.96261,39.24199],[-75.95607,39.24056],[-75.94849,39.24239],[-75.94071,39.23849],[-75.92693,39.2437],[-75.91756,39.2433],[-75.88566,39.2492],[-75.87416,39.25423],[-75.86631,39.26086],[-75.85395,39.26007],[-75.84443,39.25785],[-75.82008,39.2462],[-75.81019,39.24515],[-75.80634,39.24199],[-75.79682,39.24135],[-75.78441,39.24518],[-75.76778,39.24754],[-75.75596,39.24607],[-75.76669,39.37754],[-75.78441,39.38036],[-75.79424,39.37974],[-75.79573,39.37724],[-75.80616,39.3768],[-75.80945,39.37975],[-75.82366,39.38141],[-75.83117,39.37417],[-75.84238,39.37098],[-75.85543,39.36456],[-75.86104,39.36761],[-75.86761,39.36781],[-75.88213,39.36433],[-75.8851,39.36084],[-75.89598,39.36587],[-75.90803,39.3645],[-75.92277,39.36725],[-75.93202,39.37151],[-75.93985,39.36779],[-75.94536,39.36858],[-75.94934,39.37251],[-75.96407,39.37473],[-75.9706,39.37285],[-75.97442,39.36862],[-75.9827,39.36749],[-75.99076,39.37462]]]},"properties":{"STATEFP":"24","COUNTYFP":"029","COUNTYNS":"00593907","GEOIDFQ":"0500000US24029","GEOID":"24029","NAME":"Kent","NAMELSAD":"Kent County","STUSPS":"MD","STATE_NAME":"Maryland","LSAD":"06","ALAND":717268761,"AWATER":353549972}},
{"type":"Feature","geometry":{"type":"Polygon","coordinates":[[[-77.16808,39.35396],[-77.16438,39.36814],[-77.15818,39.37345],[-77.15438,39.3913],[-77.14835,39.40529],[-77.14717,39.41901],[-77.14045,39.42414],[-77.13345,39.4324],[-77.1267,39.44383],[-77.12383,39.45147],[-77.11605,39.46034],[-77.11995,39.46558],[-77.11769,39.47862],[-77.1102,39.486],[-77.10684,39.49166],[-77.11243,39.49749],[-77.12975,39.50956],[-77.13355,39.50855],[-77.13806,39.51604],[-77.13849,39.52052],[-77.14991,39.52194],[-77.15234,39.5325],[-77.16209,39.53245],[-77.17075,39.53475],[-77.169,39.54229],[-77.16962,39.54985],[-77.17461,39.55951],[-77.18273,39.55934],[-77.18713,39.56643],[-77.20012,39.57859],[-77.21109,39.57887],[-77.21564,39.57451],[-77.22251,39.5831],[-77.22999,39.58343],[-77.2484,39.59507],[-77.25085,39.60159],[-77.26016,39.60251],[-77.2637,39.59477],[-77.27092,39.60122],[-77.27157,39.60622],[-77.28582,39.60775],[-77.28775,39.60452],[-77.29573,39.6114],[-77.29977,39.61228],[-77.30742,39.6191],[-77.30179,39.6212],[-77.30956,39.63076],[-77.31116,39.63973],[-77.30717,39.64111],[-77.29843,39.63814],[-77.29146,39.63058],[-77.2772,39.63129],[-77.27922,39.63628],[-77.27127,39.642],[-77.27562,39.64713],[-77.26614,39.65507],[-77.2666,39.66141],[-77.26215,39.66517],[-77.25584,39.66321],[-77.25423,39.66782],[-77.24319,39.66993],[-77.23447,39.6776],[-77.23596,39.68521],[-77.24444,39.69228],[-77.24299,39.69501],[-77.22597,39.69384],[-77.21778,39.69634],[-77.21864,39.70297],[-77.22432,39.70453],[-77.22574,39.70985],[-77.21544,39.71301],[-77.21702,39.72],[-77.29301,39.72],[-77.46914,39.72002],[-77.47399,39.71368],[-77.48624,39.70462],[-77.49035,39.69584],[-77.49689,39.6904],[-77.50316,39.68923],[-77.50836,39.68407],[-77.49708,39.68313],[-77.49287,39.67643],[-77.49844,39.66754],[-77.51208,39.6542],[-77.51324,39.64992],[-77.52016,39.64068],[-77.52576,39.63753],[-77.53036,39.63169],[-77.54068,39.63356],[-77.54845,39.63123],[-77.55076,39.62531],[-77.57018,39.62],[-77.57571,39.60971],[-77.57792,39.59879],[-77.58451,39.58161],[-77.58676,39.57137],[-77.59397,39.56392],[-77.59591,39.55111],[-77.59942,39.54971],[-77.5977,39.54078],[-77.60607,39.53672],[-77.61348,39.52867],[-77.6226,39.5076],[-77.62301,39.4999],[-77.61441,39.49155],[-77.62202,39.48175],[-77.61616,39.46837],[-77.62173,39.46396],[-77.62186,39.45967],[-77.62681,39.45711],[-77.62926,39.4486],[-77.63384,39.44682],[-77.63701,39.43853],[-77.63774,39.42482],[-77.64092,39.41473],[-77.64041,39.40254],[-77.65155,39.37511],[-77.66067,39.36312],[-77.66689,39.35073],[-77.67344,39.34423],[-77.67712,39.32408],[-77.66613,39.31701],[-77.651,39.31078],[-77.61594,39.30272],[-77.6059,39.30369],[-77.59889,39.30188],[-77.58823,39.30196],[-77.57849,39.30523],[-77.5666,39.30612],[-77.56183,39.30191],[-77.56277,39.2945],[-77.56085,39.28615],[-77.54585,39.27154],[-77.54323,39.26694],[-77.53446,39.26236],[-77.52249,39.25909],[-77.50843,39.25263],[-77.49661,39.25105],[-77.48681,39.24759],[-77.47121,39.23451],[-77.46021,39.22836],[-77.45892,39.22034],[-77.45475,39.22166],[-77.39643,39.24799],[-77.31384,39.28646],[-77.30134,39.29184],[-77.21749,39.33141],[-77.1688,39.3535],[-77.16808,39.35396]]]},"properties":{"STATEFP":"24","COUNTYFP":"021","COUNTYNS":"01711211","GEOIDFQ":"0500000US24021","GEOID":"24021","NAME":"Frederick","NAMELSAD":"Frederick County","STUSPS":"MD","STATE_NAME":"Maryland","LSAD":"06","ALAND":1711011017,"AWATER":17624710}},
{"type":"Feature","geometry":{"type":"Polygon","coordinates":[[[-76.61861,39.2374],[-76.61168,39.23439],[-76.58328,39.2074],[-76.55009,39.19721],[-76.53307,39.20765],[-76.53428,39.21321],[-76.5418,39.21228],[-76.55535,39.21697],[-76.5645,39.22461],[-76.56224,39.23529],[-76.56557,39.24118],[-76.57852,39.24882],[-76.58446,39.25379],[-76.58648,39.26134],[-76.57151,39.26069],[-76.56331,39.25692],[-76.55273,39.25747],[-76.54026,39.25039],[-76.53895,39.24551],[-76.53324,39.23925],[-76.52958,39.2403],[-76.52978,39.25578],[-76.52979,39.37206],[-76.71131,39.37193],[-76.71146,39.33457],[-76.71105,39.27789],[-76.67343,39.26128],[-76.64421,39.24892],[-76.61861,39.2374]]]},"properties":{"STATEFP":"24","COUNTYFP":"510","COUNTYNS":"01702381","GEOIDFQ":"0500000US24510","GEOID":"24510","NAME":"Baltimore","NAMELSAD":"Baltimore city","STUSPS":"MD","STATE_NAME":"Maryland","LSAD":"25","ALAND":209649328,"AWATER":28758743}}
]}