{"type":"FeatureCollection", "features": [
{"type":"Feature","geometry":{"type":"Polygon","coordinates":[[[-70.64307,41.7176],[-70.62653,41.713],[-70.62082,41.70053],[-70.63149,41.69631],[-70.64596,41.69379],[-70.65766,41.68443],[-70.65734,41.68148],[-70.63635,41.68],[-70.63292,41.67045],[-70.64861,41.67033],[-70.65196,41.66304],[-70.64072,41.65946],[-70.63172,41.66369],[-70.62053,41.65727],[-70.63373,41.64893],[-70.65072,41.64613],[-70.64616,41.6407],[-70.64678,41.63503],[-70.64,41.62462],[-70.64613,41.61972],[-70.64685,41.6135],[-70.65245,41.60521],[-70.64204,41.58307],[-70.64275,41.57238],[-70.6539,41.56516],[-70.6543,41.54993],[-70.65866,41.54339],[-70.66651,41.53996],[-70.66806,41.5329],[-70.67638,41.52899],[-70.68698,41.52949],[-70.68541,41.52134],[-70.67305,41.52365],[-70.66829,41.51795],[-70.65663,41.51478],[-70.64363,41.53236],[-70.63361,41.53825],[-70.61108,41.54299],[-70.60184,41.54208],[-70.59381,41.5451],[-70.58055,41.54424],[-70.57377,41.54687],[-70.54682,41.55141],[-70.53882,41.55126],[-70.52862,41.54672],[-70.52233,41.54897],[-70.49324,41.55204],[-70.47626,41.5585],[-70.46128,41.57182],[-70.44529,41.59181],[-70.43725,41.60533],[-70.42681,41.60472],[-70.40853,41.60735],[-70.40058,41.60638],[-70.37915,41.61136],[-70.36985,41.61589],[-70.36035,41.63107],[-70.35163,41.63469],[-70.33807,41.63634],[-70.32159,41.63051],[-70.31663,41.62545],[-70.30065,41.62951],[-70.29062,41.6352],[-70.27452,41.63293],[-70.26913,41.62574],[-70.26759,41.61091],[-70.2596,41.61086],[-70.25621,41.6207],[-70.24587,41.62848],[-70.21977,41.63647],[-70.20708,41.6425],[-70.198,41.64415],[-70.19519,41.64791],[-70.16834,41.652],[-70.14088,41.65042],[-70.11651,41.6555],[-70.08924,41.66281],[-70.06211,41.66445],[-70.04051,41.6674],[-70.02935,41.66774],[-70.01421,41.67197],[-70.00701,41.67158],[-69.99636,41.66718],[-69.98532,41.65821],[-69.97572,41.65374],[-69.97049,41.64546],[-69.97592,41.63886],[-69.97748,41.63079],[-69.98556,41.61967],[-69.98521,41.61312],[-69.99221,41.60332],[-69.99131,41.58872],[-69.99388,41.5763],[-69.99885,41.5659],[-70.00862,41.55798],[-70.01361,41.55105],[-70.01123,41.54393],[-70.00386,41.54055],[-69.99198,41.54749],[-69.98821,41.5547],[-69.98936,41.58146],[-69.98841,41.59443],[-69.98318,41.6083],[-69.97605,41.61167],[-69.96719,41.61196],[-69.95777,41.62036],[-69.9568,41.6298],[-69.94753,41.65147],[-69.94397,41.65555],[-69.94373,41.66478],[-69.93375,41.67863],[-69.93042,41.69194],[-69.92839,41.70845],[-69.92865,41.74125],[-69.93802,41.80951],[-69.94531,41.84522],[-69.9686,41.9117],[-69.98608,41.9496],[-70.0119,41.98972],[-70.0335,42.01774],[-70.05853,42.04036],[-70.08262,42.05466],[-70.11597,42.06764],[-70.16017,42.07863],[-70.1893,42.08234],[-70.2069,42.0819],[-70.22563,42.0786],[-70.23809,42.07288],[-70.24538,42.06373],[-70.22862,42.05393],[-70.2187,42.04585],[-70.20874,42.03075],[-70.19497,42.0364],[-70.18682,42.05045],[-70.16978,42.05974],[-70.15542,42.06241],[-70.12304,42.05167],[-70.10806,42.0436],[-70.09559,42.03283],[-70.08958,42.0249],[-70.08377,42.01204],[-70.07742,41.9855],[-70.07722,41.94336],[-70.07401,41.93865],[-70.07304,41.89978],[-70.06572,41.89964],[-70.06567,41.91166],[-70.05895,41.91711],[-70.06162,41.9235],[-70.05496,41.92792],[-70.04499,41.93005],[-70.02739,41.92933],[-70.0323,41.92044],[-70.02555,41.9117],[-70.01337,41.90599],[-70.01361,41.90121],[-70.02424,41.89634],[-70.0185,41.89153],[-70.00292,41.89032],[-70.00019,41.88694],[-70.00901,41.87662],[-70.00449,41.83883],[-70.00384,41.80852],[-70.00846,41.80079],[-70.02473,41.78736],[-70.06431,41.77284],[-70.07246,41.77294],[-70.08299,41.76896],[-70.09606,41.76655],[-70.12198,41.75884],[-70.14153,41.76007],[-70.14991,41.75698],[-70.1838,41.75058],[-70.18925,41.75198],[-70.21607,41.74298],[-70.24078,41.72753],[-70.2353,41.72246],[-70.24109,41.71463],[-70.25024,41.70774],[-70.26855,41.71293],[-70.27802,41.70999],[-70.29428,41.71084],[-70.3198,41.70967],[-70.32736,41.71126],[-70.3285,41.70392],[-70.34205,41.70136],[-70.35731,41.70253],[-70.36287,41.70509],[-70.36259,41.7119],[-70.38212,41.72148],[-70.39524,41.7251],[-70.39424,41.73],[-70.38412,41.73095],[-70.38284,41.73468],[-70.34079,41.73078],[-70.3325,41.73181],[-70.31924,41.72889],[-70.29319,41.72534],[-70.28817,41.72921],[-70.28177,41.72242],[-70.27525,41.72581],[-70.29556,41.73441],[-70.37534,41.73878],[-70.39999,41.74172],[-70.42982,41.74888],[-70.47155,41.76156],[-70.49405,41.77388],[-70.49452,41.77824],[-70.51741,41.79095],[-70.53266,41.8048],[-70.53729,41.81086],[-70.56536,41.78667],[-70.60294,41.7747],[-70.63255,41.7629],[-70.62078,41.74753],[-70.63271,41.73776],[-70.63939,41.72802],[-70.64307,41.7176]]]},"properties":{"STATEFP":"25","COUNTYFP":"001","COUNTYNS":"00606927","GEOIDFQ":"0500000US25001","GEOID":"25001","NAME":"Barnstable","NAMELSAD":"Barnstable County","STUSPS":"MA","STATE_NAME":"Massachusetts","LSAD":"06","ALAND":1020973583,"AWATER":2360362409}},
{"type":"Feature","geometry":{"type":"Polygon","coordinates":[[[-71.89877,42.71142],[-71.8971,42.70373],[-71.85776,42.67498],[-71.85639,42.66764],[-71.85848,42.63382],[-71.84484,42.63799],[-71.77532,42.63666],[-71.77575,42.64423],[-71.6646,42.6116],[-71.67897,42.53043],[-71.63587,42.52402],[-71.63921,42.53096],[-71.63588,42.54],[-71.62847,42.548],[-71.61993,42.5525],[-71.60785,42.54538],[-71.59462,42.54338],[-71.58029,42.55047],[-71.53878,42.54303],[-71.53138,42.52035],[-71.53485,42.51333],[-71.56037,42.47435],[-71.54339,42.46645],[-71.5591,42.41194],[-71.58526,42.4071],[-71.60425,42.3977],[-71.58019,42.38698],[-71.60776,42.37002],[-71.60306,42.36727],[-71.61001,42.3574],[-71.62583,42.34972],[-71.61826,42.34259],[-71.6041,42.33677],[-71.60527,42.33016],[-71.59736,42.32102],[-71.58521,42.31095],[-71.56908,42.32037],[-71.55113,42.3264],[-71.51653,42.33034],[-71.50822,42.32793],[-71.4868,42.33019],[-71.48511,42.32316],[-71.48635,42.31045],[-71.50588,42.27294],[-71.50648,42.26428],[-71.51388,42.26759],[-71.53226,42.26611],[-71.53963,42.26279],[-71.55658,42.26813],[-71.56456,42.26687],[-71.58676,42.25955],[-71.60222,42.2181],[-71.58291,42.19556],[-71.57227,42.19273],[-71.55678,42.19245],[-71.55574,42.1825],[-71.53928,42.18973],[-71.50689,42.18893],[-71.50263,42.19142],[-71.49738,42.16664],[-71.47803,42.16587],[-71.47812,42.15678],[-71.464,42.1582],[-71.44407,42.17489],[-71.43017,42.17939],[-71.42355,42.17813],[-71.40229,42.17879],[-71.40443,42.18843],[-71.36199,42.19576],[-71.34417,42.2007],[-71.35216,42.20737],[-71.34998,42.21395],[-71.33862,42.21689],[-71.34101,42.22447],[-71.32969,42.23333],[-71.32944,42.2453],[-71.3325,42.24908],[-71.30292,42.24827],[-71.30846,42.27071],[-71.32366,42.29742],[-71.32975,42.31299],[-71.26996,42.32809],[-71.2468,42.32106],[-71.23879,42.3218],[-71.22873,42.31928],[-71.22669,42.30825],[-71.21327,42.30616],[-71.20524,42.28957],[-71.19125,42.28299],[-71.17864,42.2946],[-71.1647,42.30383],[-71.17893,42.31432],[-71.15704,42.33039],[-71.16756,42.33344],[-71.1667,42.34001],[-71.1748,42.35027],[-71.16762,42.36007],[-71.16389,42.35852],[-71.14833,42.36112],[-71.13237,42.36889],[-71.1282,42.37357],[-71.11723,42.36737],[-71.11685,42.35539],[-71.10432,42.3524],[-71.09123,42.35434],[-71.07795,42.35874],[-71.06711,42.37182],[-71.07247,42.37266],[-71.07566,42.3802],[-71.0807,42.38104],[-71.0735,42.3918],[-71.0657,42.3866],[-71.05529,42.3871],[-71.04815,42.39663],[-71.04057,42.40198],[-71.02038,42.43825],[-71.02584,42.44471],[-71.05421,42.4769],[-71.05263,42.48606],[-71.04521,42.48872],[-71.03991,42.49595],[-71.04377,42.5012],[-71.0349,42.50676],[-71.03948,42.51454],[-71.04098,42.52626],[-71.05751,42.52417],[-71.06727,42.52498],[-71.07515,42.53104],[-71.07098,42.55589],[-71.05704,42.57402],[-71.04975,42.57109],[-71.04153,42.57349],[-71.03546,42.57026],[-71.02831,42.57408],[-71.034,42.58549],[-71.05935,42.60633],[-71.07617,42.60414],[-71.13546,42.59912],[-71.1432,42.60404],[-71.14865,42.61317],[-71.15862,42.61295],[-71.16488,42.59802],[-71.18135,42.60837],[-71.17176,42.61655],[-71.25619,42.65715],[-71.24249,42.66235],[-71.23843,42.67076],[-71.2552,42.73664],[-71.2679,42.72589],[-71.27893,42.71126],[-71.29421,42.69699],[-71.33021,42.69719],[-71.35187,42.69815],[-71.56731,42.70326],[-71.74582,42.70729],[-71.89877,42.71142]]]},"properties":{"STATEFP":"25","COUNTYFP":"017","COUNTYNS":"00606935","GEOIDFQ":"0500000US25017","GEOID":"25017","NAME":"Middlesex","NAMELSAD":"Middlesex County","STUSPS":"MA","STATE_NAME":"Massachusetts","LSAD":"06","ALAND":2118293312,"AWATER":75289849}},
{"type":"Feature","geometry":{"type":"MultiPolygon","coordinates":[[[[-71.15704,42.33039],[-71.13515,42.34602],[-71.12285,42.35186],[-71.10657,42.34991],[-71.10552,42.34381],[-71.11654,42.32394],[-71.12371,42.32272],[-71.14013,42.30215],[-71.15211,42.29459],[-71.1647,42.30383],[-71.17864,42.2946],[-71.19125,42.28299],[-71.18316,42.27591],[-71.17497,42.276],[-71.17461,42.26837],[-71.15858,42.25516],[-71.14664,42.25576],[-71.14268,42.236],[-71.13075,42.22791],[-71.12459,42.23401],[-71.12638,42.23916],[-71.10935,42.24799],[-71.11146,42.26077],[-71.10367,42.25972],[-71.0894,42.26969],[-71.05384,42.2717],[-71.0498,42.2781],[-71.04159,42.2781],[-71.03813,42.28472],[-71.0437,42.2929],[-71.04762,42.30338],[-71.04483,42.30919],[-71.03689,42.31051],[-71.0331,42.31612],[-71.04743,42.32343],[-71.04233,42.33014],[-71.0347,42.32876],[-71.02415,42.33316],[-71.01566,42.33052],[-71.01018,42.33756],[-71.0139,42.34168],[-71.04967,42.3566],[-71.0506,42.37287],[-71.04466,42.37219],[-71.038,42.36375],[-71.02964,42.36335],[-71.0277,42.35863],[-71.00781,42.34715],[-71.00374,42.35604],[-70.99434,42.35391],[-70.98532,42.35832],[-70.98803,42.36188],[-70.99772,42.36056],[-71.00282,42.36595],[-71.00024,42.37242],[-70.98813,42.36851],[-70.97283,42.37193],[-70.97454,42.35925],[-70.96005,42.34651],[-70.95329,42.3497],[-70.9586,42.35551],[-70.96803,42.35759],[-70.96663,42.3676],[-70.97157,42.37738],[-70.97251,42.38504],[-70.97979,42.39056],[-70.98507,42.40204],[-70.99059,42.4071],[-70.98769,42.4167],[-70.97551,42.43158],[-70.9597,42.44067],[-70.96614,42.44349],[-70.97159,42.4427],[-70.98229,42.4313],[-70.99012,42.43488],[-70.99723,42.43105],[-71.01078,42.43457],[-71.01192,42.44216],[-71.01876,42.45012],[-71.02584,42.44471],[-71.02038,42.43825],[-71.04057,42.40198],[-71.04815,42.39663],[-71.05529,42.3871],[-71.0657,42.3866],[-71.0735,42.3918],[-71.0807,42.38104],[-71.07566,42.3802],[-71.07247,42.37266],[-71.06711,42.37182],[-71.07795,42.35874],[-71.09123,42.35434],[-71.10432,42.3524],[-71.11685,42.35539],[-71.11723,42.36737],[-71.1282,42.37357],[-71.13237,42.36889],[-71.14833,42.36112],[-71.16389,42.35852],[-71.16762,42.36007],[-71.1748,42.35027],[-71.1667,42.34001],[-71.16756,42.33344],[-71.15704,42.33039]]],[[[-70.9774,42.31229],[-70.96573,42.31347],[-70.95913,42.32457],[-70.96754,42.3229],[-70.97039,42.31625],[-70.9774,42.31229]]]]},"properties":{"STATEFP":"25","COUNTYFP":"025","COUNTYNS":"00606939","GEOIDFQ":"0500000US25025","GEOID":"25025","NAME":"Suffolk","NAMELSAD":"Suffolk County","STUSPS":"MA","STATE_NAME":"Massachusetts","LSAD":"06","ALAND":150885698,"AWATER":160491323}},
{"type":"Feature","geometry":{"type":"MultiPolygon","coordinates":[[[[-71.1647,42.30383],[-71.15211,42.29459],[-71.14013,42.30215],[-71.12371,42.32272],[-71.11654,42.32394],[-71.10552,42.34381],[-71.10657,42.34991],[-71.12285,42.35186],[-71.13515,42.34602],[-71.15704,42.33039],[-71.17893,42.31432],[-71.1647,42.30383]]],[[[-71.47812,42.15678],[-71.47852,42.13138],[-71.50139,42.11668],[-71.49969,42.10349],[-71.49553,42.09996],[-71.49813,42.09342],[-71.49826,42.01722],[-71.3814,42.0188],[-71.38147,41.98508],[-71.36434,41.98529],[-71.28826,42.01446],[-71.08048,42.09554],[-71.00197,42.12653],[-71.00215,42.1273],[-70.92488,42.15758],[-70.91474,42.22512],[-70.92239,42.2293],[-70.93129,42.2443],[-70.93243,42.25264],[-70.91708,42.2556],[-70.91739,42.2639],[-70.90829,42.26472],[-70.91824,42.27186],[-70.9259,42.26917],[-70.92723,42.25738],[-70.93616,42.25682],[-70.94317,42.2521],[-70.95949,42.24533],[-70.9624,42.24835],[-70.95727,42.25499],[-70.96581,42.25777],[-70.95936,42.2626],[-70.9518,42.26056],[-70.94928,42.27421],[-70.96488,42.26897],[-70.97336,42.26301],[-70.996,42.26684],[-70.99834,42.27241],[-71.01614,42.27984],[-71.02231,42.28819],[-71.00462,42.29448],[-71.00521,42.3006],[-71.01425,42.30057],[-71.02152,42.29435],[-71.02584,42.2997],[-71.03905,42.30014],[-71.03337,42.29004],[-71.03813,42.28472],[-71.04159,42.2781],[-71.0498,42.2781],[-71.05384,42.2717],[-71.0894,42.26969],[-71.10367,42.25972],[-71.11146,42.26077],[-71.10935,42.24799],[-71.12638,42.23916],[-71.12459,42.23401],[-71.13075,42.22791],[-71.14268,42.236],[-71.14664,42.25576],[-71.15858,42.25516],[-71.17461,42.26837],[-71.17497,42.276],[-71.18316,42.27591],[-71.19125,42.28299],[-71.20524,42.28957],[-71.21327,42.30616],[-71.22669,42.30825],[-71.22873,42.31928],[-71.23879,42.3218],[-71.2468,42.32106],[-71.26996,42.32809],[-71.32975,42.31299],[-71.32366,42.29742],[-71.30846,42.27071],[-71.30292,42.24827],[-71.3325,42.24908],[-71.32944,42.2453],[-71.32969,42.23333],[-71.34101,42.22447],[-71.33862,42.21689],[-71.34998,42.21395],[-71.35216,42.20737],[-71.34417,42.2007],[-71.36199,42.19576],[-71.40443,42.18843],[-71.40229,42.17879],[-71.42355,42.17813],[-71.43017,42.17939],[-71.44407,42.17489],[-71.464,42.1582],[-71.47812,42.15678]]],[[[-70.82466,42.26593],[-70.83624,42.26466],[-70.84463,42.26043],[-70.84928,42.24733],[-70.84115,42.24335],[-70.85338,42.23961],[-70.8408,42.21312],[-70.82701,42.20079],[-70.78914,42.22281],[-70.78662,42.23957],[-70.78146,42.24872],[-70.78872,42.25392],[-70.81174,42.26294],[-70.82466,42.26593]]]]},"properties":{"STATEFP":"25","COUNTYFP":"021","COUNTYNS":"00606937","GEOIDFQ":"0500000US25021","GEOID":"25021","NAME":"Norfolk","NAMELSAD":"Norfolk County","STUSPS":"MA","STATE_NAME":"Massachusetts","LSAD":"06","ALAND":1025902103,"AWATER":124954020}},
{"type":"Feature","geometry":{"type":"Polygon","coordinates":[[[-73.00028,42.3126],[-73.00185,42.25102],[-73.00429,42.25135],[-73.03492,42.14365],[-73.07111,42.14821],[-73.06983,42.13323],[-73.06138,42.11939],[-73.07267,42.11168],[-73.07484,42.10615],[-73.07309,42.09421],[-73.06181,42.07064],[-73.06174,42.06194],[-73.05465,42.0576],[-73.05655,42.04742],[-73.05329,42.03986],[-72.99955,42.03865],[-72.86362,42.03771],[-72.81354,42.03649],[-72.81674,41.9976],[-72.76674,42.003],[-72.76614,42.0077],[-72.75174,42.0302],[-72.75584,42.0362],[-72.69593,42.03679],[-72.64313,42.0324],[-72.60793,42.0308],[-72.60693,42.025],[-72.58233,42.0247],[-72.57323,42.03014],[-72.52813,42.0343],[-72.45668,42.034],[-72.31715,42.03191],[-72.24952,42.03163],[-72.13572,42.03025],[-72.13511,42.09067],[-72.13501,42.16178],[-72.19935,42.15371],[-72.20063,42.16129],[-72.26392,42.18383],[-72.26469,42.19673],[-72.26279,42.20253],[-72.22122,42.24525],[-72.24701,42.24209],[-72.25761,42.22987],[-72.26823,42.22931],[-72.27055,42.23713],[-72.28129,42.23502],[-72.33597,42.22016],[-72.34619,42.21598],[-72.34655,42.21079],[-72.35734,42.209],[-72.3646,42.20315],[-72.35986,42.19632],[-72.36016,42.19015],[-72.39548,42.18574],[-72.40395,42.23185],[-72.52429,42.21873],[-72.59345,42.21156],[-72.6038,42.21387],[-72.61075,42.21942],[-72.61513,42.22681],[-72.62246,42.23021],[-72.62403,42.23536],[-72.61801,42.24837],[-72.59882,42.2699],[-72.60121,42.28126],[-72.61314,42.28627],[-72.63458,42.27394],[-72.65654,42.22774],[-72.66777,42.22546],[-72.67003,42.2165],[-72.69052,42.21308],[-72.68624,42.18883],[-72.68686,42.18339],[-72.78104,42.19975],[-72.78211,42.21727],[-72.79199,42.2173],[-72.79341,42.23685],[-72.81258,42.23495],[-72.81342,42.245],[-72.85763,42.24048],[-72.86428,42.23227],[-72.87218,42.21644],[-72.9123,42.23913],[-72.8806,42.26538],[-72.88521,42.33261],[-72.89479,42.33149],[-72.89564,42.3407],[-72.95382,42.34386],[-73.00028,42.3126]]]},"properties":{"STATEFP":"25","COUNTYFP":"013","COUNTYNS":"00606933","GEOIDFQ":"0500000US25013","GEOID":"25013","NAME":"Hampden","NAMELSAD":"Hampden County","STUSPS":"MA","STATE_NAME":"Massachusetts","LSAD":"06","ALAND":1598035447,"AWATER":44416565}},
{"type":"Feature","geometry":{"type":"Polygon","coordinates":[[[-72.22122,42.24525],[-72.21046,42.24721],[-72.2111,42.25568],[-72.21609,42.2562],[-72.21765,42.27017],[-72.21278,42.26981],[-72.21204,42.28265],[-72.20328,42.29118],[-72.2108,42.29448],[-72.21277,42.30151],[-72.21079,42.31138],[-72.26154,42.30333],[-72.27464,42.30196],[-72.28423,42.35201],[-72.29133,42.35174],[-72.30375,42.34576],[-72.31425,42.34369],[-72.32605,42.32848],[-72.32722,42.32047],[-72.33525,42.31514],[-72.34209,42.31433],[-72.35421,42.30568],[-72.35733,42.31039],[-72.35118,42.32488],[-72.3512,42.33442],[-72.35899,42.3567],[-72.35803,42.3668],[-72.36666,42.38086],[-72.36596,42.38876],[-72.36936,42.40028],[-72.36658,42.40351],[-72.37353,42.41339],[-72.37502,42.42082],[-72.4837,42.40748],[-72.48989,42.43382],[-72.5811,42.42258],[-72.58558,42.42314],[-72.62231,42.41511],[-72.70439,42.40555],[-72.70088,42.45292],[-72.75776,42.44588],[-72.75829,42.46093],[-72.77333,42.46678],[-72.87114,42.48404],[-72.87516,42.50725],[-72.87032,42.52515],[-72.87546,42.5259],[-72.87685,42.5412],[-72.97541,42.55604],[-72.97904,42.54162],[-72.96858,42.54001],[-72.97928,42.49786],[-72.98647,42.46671],[-72.98813,42.46695],[-73.00908,42.38773],[-73.01168,42.37968],[-73.06577,42.38911],[-73.06851,42.38072],[-73.06289,42.32895],[-73.05266,42.32429],[-73.03128,42.3093],[-73.01686,42.31109],[-73.00661,42.30479],[-73.00028,42.3126],[-72.95382,42.34386],[-72.89564,42.3407],[-72.89479,42.33149],[-72.88521,42.33261],[-72.8806,42.26538],[-72.9123,42.23913],[-72.87218,42.21644],[-72.86428,42.23227],[-72.85763,42.24048],[-72.81342,42.245],[-72.81258,42.23495],[-72.79341,42.23685],[-72.79199,42.2173],[-72.78211,42.21727],[-72.78104,42.19975],[-72.68686,42.18339],[-72.68624,42.18883],[-72.69052,42.21308],[-72.67003,42.2165],[-72.66777,42.22546],[-72.65654,42.22774],[-72.63458,42.27394],[-72.61314,42.28627],[-72.60121,42.28126],[-72.59882,42.2699],[-72.61801,42.24837],[-72.62403,42.23536],[-72.62246,42.23021],[-72.61513,42.22681],[-72.61075,42.21942],[-72.6038,42.21387],[-72.59345,42.21156],[-72.52429,42.21873],[-72.40395,42.23185],[-72.39548,42.18574],[-72.36016,42.19015],[-72.35986,42.19632],[-72.3646,42.20315],[-72.35734,42.209],[-72.34655,42.21079],[-72.34619,42.21598],[-72.33597,42.22016],[-72.28129,42.23502],[-72.27055,42.23713],[-72.26823,42.22931],[-72.25761,42.22987],[-72.24701,42.24209],[-72.22122,42.24525]]]},"properties":{"STATEFP":"25","COUNTYFP":"015","COUNTYNS":"00606934","GEOIDFQ":"0500000US25015","GEOID":"25015","NAME":"Hampshire","NAMELSAD":"Hampshire County","STUSPS":"MA","STATE_NAME":"Massachusetts","LSAD":"06","ALAND":1365533874,"AWATER":46625894}},
{"type":"Feature","geometry":{"type":"Polygon","coordinates":[[[-72.31425,42.34369],[-72.3138,42.35779],[-72.31051,42.36429],[-72.31566,42.36948],[-72.31207,42.37643],[-72.31404,42.39918],[-72.30561,42.42036],[-72.29356,42.43002],[-72.28326,42.44119],[-72.29129,42.47953],[-72.24487,42.51344],[-72.26911,42.53343],[-72.27643,42.57737],[-72.26133,42.57592],[-72.26706,42.60081],[-72.26216,42.60025],[-72.25331,42.60534],[-72.25474,42.61161],[-72.23196,42.61395],[-72.22776,42.61622],[-72.2278,42.6265],[-72.22493,42.63894],[-72.22948,42.66267],[-72.24211,42.66164],[-72.24349,42.66925],[-72.25732,42.66794],[-72.25854,42.67542],[-72.27196,42.67467],[-72.28303,42.72156],[-72.45852,42.72685],[-72.61635,42.73123],[-72.80911,42.73658],[-73.02301,42.74114],[-73.02371,42.70269],[-72.99788,42.70126],[-72.94964,42.70511],[-72.95388,42.69816],[-72.95435,42.69028],[-72.9638,42.68749],[-72.97158,42.68906],[-72.9775,42.68591],[-72.97561,42.68042],[-72.98977,42.67822],[-72.99554,42.67316],[-72.98858,42.66738],[-72.97521,42.66082],[-72.96209,42.66702],[-72.95472,42.66562],[-72.95557,42.65451],[-72.95104,42.64101],[-72.97541,42.55604],[-72.87685,42.5412],[-72.87546,42.5259],[-72.87032,42.52515],[-72.87516,42.50725],[-72.87114,42.48404],[-72.77333,42.46678],[-72.75829,42.46093],[-72.75776,42.44588],[-72.70088,42.45292],[-72.70439,42.40555],[-72.62231,42.41511],[-72.58558,42.42314],[-72.5811,42.42258],[-72.48989,42.43382],[-72.4837,42.40748],[-72.37502,42.42082],[-72.37353,42.41339],[-72.36658,42.40351],[-72.36936,42.40028],[-72.36596,42.38876],[-72.36666,42.38086],[-72.35803,42.3668],[-72.35899,42.3567],[-72.3512,42.33442],[-72.35118,42.32488],[-72.35733,42.31039],[-72.35421,42.30568],[-72.34209,42.31433],[-72.33525,42.31514],[-72.32722,42.32047],[-72.32605,42.32848],[-72.31425,42.34369]]]},"properties":{"STATEFP":"25","COUNTYFP":"011","COUNTYNS":"00606932","GEOIDFQ":"0500000US25011","GEOID":"25011","NAME":"Franklin","NAMELSAD":"Franklin County","STUSPS":"MA","STATE_NAME":"Massachusetts","LSAD":"06","ALAND":1810943461,"AWATER":65594687}},
{"type":"Feature","geometry":{"type":"MultiPolygon","coordinates":[[[[-70.53729,41.81086],[-70.54317,41.82445],[-70.54206,41.83126],[-70.53255,41.84066],[-70.52557,41.85873],[-70.53049,41.86549],[-70.53208,41.88957],[-70.54595,41.90716],[-70.54639,41.91675],[-70.53787,41.92095],[-70.54397,41.92628],[-70.56597,41.93623],[-70.56777,41.9395],[-70.58357,41.95001],[-70.59808,41.94777],[-70.60817,41.9407],[-70.61649,41.9402],[-70.62395,41.94306],[-70.63157,41.95302],[-70.64555,41.9752],[-70.64869,41.97229],[-70.63847,41.95638],[-70.63032,41.94705],[-70.64678,41.94931],[-70.66448,41.96006],[-70.68136,41.97915],[-70.69099,41.9813],[-70.69898,41.9871],[-70.70002,41.99826],[-70.71003,41.99954],[-70.7122,42.00759],[-70.69581,42.01335],[-70.6868,42.01276],[-70.6788,42.00551],[-70.66751,42.01232],[-70.67167,42.02139],[-70.66936,42.03712],[-70.66437,42.04116],[-70.64434,42.0459],[-70.61779,42.01751],[-70.61422,42.01115],[-70.62986,42.00146],[-70.6412,42.00593],[-70.63914,41.9939],[-70.63192,41.99286],[-70.62254,42.00214],[-70.61405,42.00661],[-70.6027,42.00214],[-70.59789,42.00455],[-70.61098,42.01574],[-70.62028,42.02709],[-70.63086,42.03605],[-70.64321,42.05082],[-70.64819,42.06844],[-70.64735,42.07633],[-70.63848,42.08158],[-70.64017,42.08863],[-70.66393,42.10834],[-70.68531,42.13303],[-70.70626,42.16314],[-70.7143,42.16878],[-70.71476,42.17658],[-70.71871,42.18485],[-70.71299,42.20443],[-70.73056,42.21094],[-70.73914,42.21962],[-70.74723,42.22182],[-70.76016,42.23504],[-70.76476,42.24406],[-70.76277,42.25034],[-70.76634,42.25474],[-70.77394,42.25421],[-70.78146,42.24872],[-70.78662,42.23957],[-70.78914,42.22281],[-70.82701,42.20079],[-70.8408,42.21312],[-70.85338,42.23961],[-70.84115,42.24335],[-70.84928,42.24733],[-70.84463,42.26043],[-70.83624,42.26466],[-70.82466,42.26593],[-70.85109,42.26827],[-70.86181,42.27597],[-70.87087,42.28567],[-70.88124,42.30066],[-70.88268,42.31039],[-70.88946,42.31048],[-70.89586,42.30593],[-70.90756,42.30789],[-70.92392,42.30504],[-70.91037,42.29906],[-70.90395,42.3017],[-70.88732,42.29765],[-70.88684,42.29255],[-70.87829,42.27831],[-70.8847,42.27778],[-70.8828,42.26811],[-70.87553,42.25686],[-70.87775,42.24842],[-70.88427,42.24555],[-70.89789,42.256],[-70.89588,42.25985],[-70.90829,42.26472],[-70.91739,42.2639],[-70.91708,42.2556],[-70.93243,42.25264],[-70.93129,42.2443],[-70.92239,42.2293],[-70.91474,42.22512],[-70.92488,42.15758],[-71.00215,42.1273],[-71.00197,42.12653],[-71.08048,42.09554],[-71.04948,41.96309],[-71.01057,41.94008],[-70.99553,41.92505],[-70.99713,41.91668],[-70.99198,41.9156],[-70.98726,41.90581],[-70.97716,41.87515],[-70.97372,41.86088],[-70.9959,41.84702],[-71.03657,41.81653],[-71.01459,41.79957],[-71.02629,41.77889],[-70.92178,41.79124],[-70.90444,41.758],[-70.88644,41.76023],[-70.84524,41.64467],[-70.84318,41.62849],[-70.8353,41.62453],[-70.82207,41.62749],[-70.81768,41.62343],[-70.81028,41.62487],[-70.80021,41.63175],[-70.80466,41.64116],[-70.82326,41.64898],[-70.8216,41.65484],[-70.809,41.65839],[-70.79522,41.65093],[-70.79083,41.65323],[-70.77671,41.65076],[-70.76932,41.64115],[-70.76242,41.65271],[-70.75706,41.65289],[-70.75671,41.66691],[-70.76384,41.67686],[-70.75838,41.68058],[-70.74911,41.68041],[-70.75535,41.69433],[-70.74435,41.69798],[-70.7396,41.69177],[-70.72939,41.68814],[-70.72153,41.68147],[-70.71504,41.68101],[-70.71835,41.69016],[-70.72748,41.70241],[-70.71423,41.70173],[-70.71203,41.70703],[-70.7213,41.71297],[-70.72853,41.72288],[-70.72082,41.72761],[-70.72633,41.73273],[-70.71874,41.73574],[-70.70617,41.72898],[-70.69705,41.7292],[-70.68826,41.72371],[-70.67923,41.72743],[-70.664,41.7162],[-70.65621,41.71339],[-70.67614,41.69265],[-70.67406,41.69137],[-70.66045,41.70508],[-70.64307,41.7176],[-70.63939,41.72802],[-70.63271,41.73776],[-70.62078,41.74753],[-70.63255,41.7629],[-70.60294,41.7747],[-70.56536,41.78667],[-70.53729,41.81086]]],[[[-70.95108,42.28973],[-70.93733,42.28492],[-70.93531,42.29193],[-70.95108,42.28973]]]]},"properties":{"STATEFP":"25","COUNTYFP":"023","COUNTYNS":"00606938","GEOIDFQ":"0500000US25023","GEOID":"25023","NAME":"Plymouth","NAMELSAD":"Plymouth County","STUSPS":"MA","STATE_NAME":"Massachusetts","LSAD":"06","ALAND":1705513086,"AWATER":1126113558}},
{"type":"Feature","geometry":{"type":"MultiPolygon","coordinates":[[[[-71.38147,41.98508],[-71.3817,41.8932],[-71.3387,41.8984],[-71.3408,41.8816],[-71.334,41.8623],[-71.3422,41.8448],[-71.3352,41.8355],[-71.3449,41.828],[-71.3472,41.8231],[-71.3392,41.809],[-71.3408,41.8002],[-71.3339,41.7945],[-71.3279,41.7805],[-71.26139,41.7523],[-71.22579,41.7117],[-71.19569,41.6751],[-71.17599,41.6714],[-71.17609,41.6681],[-71.13289,41.6601],[-71.13569,41.6284],[-71.14047,41.62389],[-71.14059,41.6051],[-71.13131,41.59231],[-71.1224,41.52216],[-71.12057,41.49745],[-71.10681,41.50247],[-71.09305,41.50421],[-71.08566,41.50929],[-71.07069,41.50888],[-71.04859,41.50266],[-71.04101,41.49753],[-71.02234,41.50435],[-71.01935,41.50886],[-71.00327,41.51191],[-70.98396,41.5089],[-70.98156,41.51368],[-70.98465,41.52045],[-70.98013,41.52756],[-70.96658,41.53166],[-70.96135,41.5297],[-70.9566,41.51546],[-70.95262,41.51812],[-70.95488,41.52757],[-70.94793,41.5298],[-70.9463,41.53756],[-70.94178,41.54012],[-70.92852,41.53978],[-70.93456,41.54875],[-70.93783,41.56524],[-70.94701,41.57272],[-70.95024,41.5846],[-70.94389,41.58602],[-70.93762,41.57748],[-70.93134,41.5842],[-70.92739,41.59406],[-70.93117,41.60687],[-70.93046,41.61327],[-70.92237,41.61434],[-70.91658,41.60748],[-70.91081,41.59551],[-70.89861,41.59265],[-70.90452,41.61036],[-70.9132,41.61927],[-70.90883,41.62358],[-70.89544,41.6242],[-70.88876,41.63282],[-70.87266,41.62782],[-70.86836,41.62266],[-70.8689,41.61466],[-70.86295,41.60385],[-70.85672,41.58371],[-70.84741,41.5954],[-70.84964,41.61025],[-70.85513,41.62183],[-70.85252,41.62692],[-70.84318,41.62849],[-70.84524,41.64467],[-70.88644,41.76023],[-70.90444,41.758],[-70.92178,41.79124],[-71.02629,41.77889],[-71.01459,41.79957],[-71.03657,41.81653],[-70.9959,41.84702],[-70.97372,41.86088],[-70.97716,41.87515],[-70.98726,41.90581],[-70.99198,41.9156],[-70.99713,41.91668],[-70.99553,41.92505],[-71.01057,41.94008],[-71.04948,41.96309],[-71.08048,42.09554],[-71.28826,42.01446],[-71.36434,41.98529],[-71.38147,41.98508]]],[[[-70.83573,41.60235],[-70.83845,41.59646],[-70.82955,41.5846],[-70.82314,41.58287],[-70.82404,41.59955],[-70.83,41.60454],[-70.83573,41.60235]]]]},"properties":{"STATEFP":"25","COUNTYFP":"005","COUNTYNS":"00606929","GEOIDFQ":"0500000US25005","GEOID":"25005","NAME":"Bristol","NAMELSAD":"Bristol County","STUSPS":"MA","STATE_NAME":"Massachusetts","LSAD":"06","ALAND":1432555935,"AWATER":357450957}},
{"type":"Feature","geometry":{"type":"Polygon","coordinates":[[[-71.89877,42.71142],[-71.9814,42.71329],[-72.12453,42.71764],[-72.28303,42.72156],[-72.27196,42.67467],[-72.25854,42.67542],[-72.25732,42.66794],[-72.24349,42.66925],[-72.24211,42.66164],[-72.22948,42.66267],[-72.22493,42.63894],[-72.2278,42.6265],[-72.22776,42.61622],[-72.23196,42.61395],[-72.25474,42.61161],[-72.25331,42.60534],[-72.26216,42.60025],[-72.26706,42.60081],[-72.26133,42.57592],[-72.27643,42.57737],[-72.26911,42.53343],[-72.24487,42.51344],[-72.29129,42.47953],[-72.28326,42.44119],[-72.29356,42.43002],[-72.30561,42.42036],[-72.31404,42.39918],[-72.31207,42.37643],[-72.31566,42.36948],[-72.31051,42.36429],[-72.3138,42.35779],[-72.31425,42.34369],[-72.30375,42.34576],[-72.29133,42.35174],[-72.28423,42.35201],[-72.27464,42.30196],[-72.26154,42.30333],[-72.21079,42.31138],[-72.21277,42.30151],[-72.2108,42.29448],[-72.20328,42.29118],[-72.21204,42.28265],[-72.21278,42.26981],[-72.21765,42.27017],[-72.21609,42.2562],[-72.2111,42.25568],[-72.21046,42.24721],[-72.22122,42.24525],[-72.26279,42.20253],[-72.26469,42.19673],[-72.26392,42.18383],[-72.20063,42.16129],[-72.19935,42.15371],[-72.13501,42.16178],[-72.13511,42.09067],[-72.13572,42.03025],[-72.0635,42.02735],[-71.98733,42.02688],[-71.89078,42.02437],[-71.80065,42.02357],[-71.79924,42.00807],[-71.76601,42.00975],[-71.57691,42.0141],[-71.52761,42.015],[-71.49826,42.01722],[-71.49813,42.09342],[-71.49553,42.09996],[-71.49969,42.10349],[-71.50139,42.11668],[-71.47852,42.13138],[-71.47812,42.15678],[-71.47803,42.16587],[-71.49738,42.16664],[-71.50263,42.19142],[-71.50689,42.18893],[-71.53928,42.18973],[-71.55574,42.1825],[-71.55678,42.19245],[-71.57227,42.19273],[-71.58291,42.19556],[-71.60222,42.2181],[-71.58676,42.25955],[-71.56456,42.26687],[-71.55658,42.26813],[-71.53963,42.26279],[-71.53226,42.26611],[-71.51388,42.26759],[-71.50648,42.26428],[-71.50588,42.27294],[-71.48635,42.31045],[-71.48511,42.32316],[-71.4868,42.33019],[-71.50822,42.32793],[-71.51653,42.33034],[-71.55113,42.3264],[-71.56908,42.32037],[-71.58521,42.31095],[-71.59736,42.32102],[-71.60527,42.33016],[-71.6041,42.33677],[-71.61826,42.34259],[-71.62583,42.34972],[-71.61001,42.3574],[-71.60306,42.36727],[-71.60776,42.37002],[-71.58019,42.38698],[-71.60425,42.3977],[-71.58526,42.4071],[-71.5591,42.41194],[-71.54339,42.46645],[-71.56037,42.47435],[-71.53485,42.51333],[-71.53138,42.52035],[-71.53878,42.54303],[-71.58029,42.55047],[-71.59462,42.54338],[-71.60785,42.54538],[-71.61993,42.5525],[-71.62847,42.548],[-71.63588,42.54],[-71.63921,42.53096],[-71.63587,42.52402],[-71.67897,42.53043],[-71.6646,42.6116],[-71.77575,42.64423],[-71.77532,42.63666],[-71.84484,42.63799],[-71.85848,42.63382],[-71.85639,42.66764],[-71.85776,42.67498],[-71.8971,42.70373],[-71.89877,42.71142]]]},"properties":{"STATEFP":"25","COUNTYFP":"027","COUNTYNS":"00606940","GEOIDFQ":"0500000US25027","GEOID":"25027","NAME":"Worcester","NAMELSAD":"Worcester County","STUSPS":"MA","STATE_NAME":"Massachusetts","LSAD":"06","ALAND":3912636723,"AWATER":177350055}},
{"type":"Feature","geometry":{"type":"Polygon","coordinates":[[[-71.02584,42.44471],[-71.01876,42.45012],[-71.01192,42.44216],[-71.01078,42.43457],[-70.99723,42.43105],[-70.99012,42.43488],[-70.98229,42.4313],[-70.97159,42.4427],[-70.96614,42.44349],[-70.94366,42.45834],[-70.93853,42.45409],[-70.94048,42.44376],[-70.93555,42.43153],[-70.93639,42.4181],[-70.91993,42.42359],[-70.91085,42.41652],[-70.90287,42.42005],[-70.91319,42.4277],[-70.92863,42.42883],[-70.93748,42.44009],[-70.93499,42.4579],[-70.92199,42.4667],[-70.90809,42.4669],[-70.89429,42.4609],[-70.88729,42.4649],[-70.88649,42.4702],[-70.87969,42.4788],[-70.85779,42.4903],[-70.84739,42.4915],[-70.84159,42.4876],[-70.83599,42.4905],[-70.83381,42.50587],[-70.84739,42.49389],[-70.85166,42.5002],[-70.84239,42.50879],[-70.84562,42.51748],[-70.85712,42.52149],[-70.86402,42.5186],[-70.87472,42.50493],[-70.88637,42.50861],[-70.88518,42.51527],[-70.87757,42.5235],[-70.86632,42.52673],[-70.86759,42.53629],[-70.87892,42.53214],[-70.88256,42.53489],[-70.8752,42.54434],[-70.86865,42.54852],[-70.86111,42.54513],[-70.85013,42.55114],[-70.84548,42.5482],[-70.83659,42.55128],[-70.81539,42.5542],[-70.80409,42.5616],[-70.79442,42.5645],[-70.77748,42.55936],[-70.76372,42.56168],[-70.75728,42.57046],[-70.74014,42.57481],[-70.72969,42.57151],[-70.71035,42.57257],[-70.69857,42.57739],[-70.6808,42.59346],[-70.68434,42.59616],[-70.67649,42.60333],[-70.67673,42.60753],[-70.66556,42.6091],[-70.657,42.59826],[-70.66604,42.58408],[-70.65473,42.58223],[-70.64609,42.59221],[-70.63563,42.60024],[-70.63233,42.60788],[-70.63222,42.6168],[-70.62048,42.62303],[-70.61842,42.62864],[-70.60561,42.6349],[-70.59401,42.63503],[-70.59586,42.64251],[-70.59174,42.64851],[-70.5971,42.65147],[-70.59858,42.65988],[-70.60717,42.65856],[-70.62393,42.66164],[-70.62147,42.67274],[-70.62406,42.67691],[-70.62085,42.68684],[-70.63629,42.69029],[-70.64138,42.68505],[-70.64711,42.68786],[-70.65439,42.68169],[-70.66355,42.6776],[-70.66685,42.67172],[-70.67992,42.66034],[-70.68463,42.65181],[-70.69123,42.65579],[-70.70583,42.65825],[-70.73055,42.66656],[-70.7446,42.68131],[-70.76442,42.68565],[-70.77608,42.69126],[-70.77579,42.70067],[-70.77045,42.70482],[-70.77227,42.71106],[-70.79287,42.74712],[-70.80522,42.7818],[-70.80854,42.81494],[-70.81269,42.82287],[-70.81773,42.85061],[-70.8173,42.87229],[-70.83079,42.86892],[-70.84862,42.86094],[-70.88614,42.88261],[-70.90277,42.88653],[-70.9308,42.88459],[-70.9665,42.86899],[-71.0312,42.85909],[-71.0444,42.84879],[-71.0536,42.83309],[-71.0642,42.80629],[-71.1325,42.82139],[-71.1656,42.80869],[-71.1861,42.79069],[-71.1818,42.73759],[-71.2239,42.74669],[-71.2455,42.74259],[-71.2552,42.73664],[-71.23843,42.67076],[-71.24249,42.66235],[-71.25619,42.65715],[-71.17176,42.61655],[-71.18135,42.60837],[-71.16488,42.59802],[-71.15862,42.61295],[-71.14865,42.61317],[-71.1432,42.60404],[-71.13546,42.59912],[-71.07617,42.60414],[-71.05935,42.60633],[-71.034,42.58549],[-71.02831,42.57408],[-71.03546,42.57026],[-71.04153,42.57349],[-71.04975,42.57109],[-71.05704,42.57402],[-71.07098,42.55589],[-71.07515,42.53104],[-71.06727,42.52498],[-71.05751,42.52417],[-71.04098,42.52626],[-71.03948,42.51454],[-71.0349,42.50676],[-71.04377,42.5012],[-71.03991,42.49595],[-71.04521,42.48872],[-71.05263,42.48606],[-71.05421,42.4769],[-71.02584,42.44471]]]},"properties":{"STATEFP":"25","COUNTYFP":"009","COUNTYNS":"00606931","GEOIDFQ":"0500000US25009","GEOID":"25009","NAME":"Essex","NAMELSAD":"Essex County","STUSPS":"MA","STATE_NAME":"Massachusetts","LSAD":"06","ALAND":1275604956,"AWATER":870173087}},
{"type":"Feature","geometry":{"type":"MultiPolygon","coordinates":[[[[-70.23405,41.28565],[-70.22134,41.27704],[-70.17036,41.25743],[-70.11867,41.24235],[-70.10049,41.24055],[-70.08349,41.24477],[-70.05318,41.24403],[-70.01522,41.23796],[-70.0016,41.23992],[-69.97498,41.24653],[-69.96413,41.25538],[-69.96018,41.26455],[-69.96028,41.27873],[-70.02038,41.36901],[-70.04274,41.38931],[-70.04559,41.3836],[-70.03464,41.37899],[-70.02403,41.36861],[-70.02442,41.36062],[-70.03133,41.33933],[-70.04609,41.32165],[-70.06257,41.30873],[-70.08207,41.29909],[-70.10441,41.29733],[-70.12446,41.29385],[-70.18699,41.29451],[-70.19912,41.29619],[-70.19175,41.28655],[-70.19389,41.2803],[-70.20173,41.27654],[-70.21171,41.27565],[-70.21504,41.27958],[-70.23405,41.28565]]],[[[-70.27726,41.31051],[-70.26862,41.30177],[-70.25254,41.29303],[-70.24767,41.28864],[-70.23982,41.29582],[-70.24655,41.30619],[-70.26295,41.31145],[-70.27726,41.31051]]],[[[-70.30897,41.33606],[-70.307,41.33239],[-70.29086,41.33366],[-70.29203,41.33779],[-70.30432,41.33842],[-70.30897,41.33606]]]]},"properties":{"STATEFP":"25","COUNTYFP":"019","COUNTYNS":"00606936","GEOIDFQ":"0500000US25019","GEOID":"25019","NAME":"Nantucket","NAMELSAD":"Nantucket County","STUSPS":"MA","STATE_NAME":"Massachusetts","LSAD":"06","ALAND":119637317,"AWATER":666826385}},
{"type":"Feature","geometry":{"type":"MultiPolygon","coordinates":[[[[-70.8071,41.45858],[-70.8052,41.45038],[-70.8,41.44617],[-70.79039,41.44653],[-70.77631,41.45766],[-70.76788,41.45769],[-70.75566,41.46715],[-70.76099,41.473],[-70.75671,41.47906],[-70.7472,41.47781],[-70.73437,41.48689],[-70.71227,41.49063],[-70.70454,41.49681],[-70.70704,41.50149],[-70.69373,41.50683],[-70.68989,41.50453],[-70.67471,41.51235],[-70.67828,41.51733],[-70.68731,41.51235],[-70.69943,41.51359],[-70.70252,41.51964],[-70.71022,41.51892],[-70.73017,41.50318],[-70.7376,41.50426],[-70.74715,41.49989],[-70.7549,41.49102],[-70.76799,41.48779],[-70.77549,41.4771],[-70.78415,41.47796],[-70.79245,41.46929],[-70.79835,41.46881],[-70.8071,41.45858]]],[[[-70.83204,41.2595],[-70.82551,41.25228],[-70.80424,41.24946],[-70.80156,41.25841],[-70.81415,41.26228],[-70.83204,41.2595]]],[[[-70.83878,41.34721],[-70.81942,41.32721],[-70.80208,41.31421],[-70.77566,41.30098],[-70.76869,41.3037],[-70.76802,41.31196],[-70.76419,41.31871],[-70.74754,41.32995],[-70.73325,41.33623],[-70.70983,41.34172],[-70.69111,41.3443],[-70.6488,41.34697],[-70.57916,41.35001],[-70.49503,41.34751],[-70.48243,41.3484],[-70.46329,41.34748],[-70.45224,41.34983],[-70.44826,41.35365],[-70.44927,41.38042],[-70.44623,41.39648],[-70.45043,41.4207],[-70.46383,41.41915],[-70.47303,41.40876],[-70.47169,41.3962],[-70.4845,41.38629],[-70.49076,41.38363],[-70.50131,41.38539],[-70.50698,41.40024],[-70.52858,41.4051],[-70.5383,41.40924],[-70.54757,41.41583],[-70.55559,41.43088],[-70.55294,41.44339],[-70.55328,41.45296],[-70.56328,41.46913],[-70.57485,41.46826],[-70.592,41.4559],[-70.59913,41.45537],[-70.59984,41.46143],[-70.5958,41.46873],[-70.59844,41.48115],[-70.60355,41.48238],[-70.62002,41.47459],[-70.64215,41.46232],[-70.65965,41.46068],[-70.67186,41.44236],[-70.68688,41.44133],[-70.68992,41.43684],[-70.70096,41.43401],[-70.70656,41.4192],[-70.71149,41.41546],[-70.71243,41.40885],[-70.72437,41.39894],[-70.73186,41.3978],[-70.74043,41.38278],[-70.75864,41.36695],[-70.7689,41.35325],[-70.78329,41.34783],[-70.80029,41.3538],[-70.81231,41.35575],[-70.81985,41.35358],[-70.8338,41.35339],[-70.83878,41.34721]]],[[[-70.84037,41.45288],[-70.83687,41.44197],[-70.83087,41.44129],[-70.80829,41.44949],[-70.82059,41.45851],[-70.83251,41.45795],[-70.84037,41.45288]]],[[[-70.9036,41.43078],[-70.90235,41.42172],[-70.87122,41.42209],[-70.86266,41.42412],[-70.84856,41.43284],[-70.85582,41.44058],[-70.86367,41.44254],[-70.8803,41.43797],[-70.88221,41.43256],[-70.89457,41.43274],[-70.9036,41.43078]]],[[[-70.94918,41.41578],[-70.949,41.40955],[-70.92904,41.41559],[-70.92334,41.42246],[-70.92309,41.43025],[-70.9411,41.42174],[-70.94918,41.41578]]]]},"properties":{"STATEFP":"25","COUNTYFP":"007","COUNTYNS":"00606930","GEOIDFQ":"0500000US25007","GEOID":"25007","NAME":"Dukes","NAMELSAD":"Dukes County","STUSPS":"MA","STATE_NAME":"Massachusetts","LSAD":"06","ALAND":267292993,"AWATER":1004291415}},
{"type":"Feature","geometry":{"type":"Polygon","coordinates":[[[-73.00028,42.3126],[-73.00661,42.30479],[-73.01686,42.31109],[-73.03128,42.3093],[-73.05266,42.32429],[-73.06289,42.32895],[-73.06851,42.38072],[-73.06577,42.38911],[-73.01168,42.37968],[-73.00908,42.38773],[-72.98813,42.46695],[-72.98647,42.46671],[-72.97928,42.49786],[-72.96858,42.54001],[-72.97904,42.54162],[-72.97541,42.55604],[-72.95104,42.64101],[-72.95557,42.65451],[-72.95472,42.66562],[-72.96209,42.66702],[-72.97521,42.66082],[-72.98858,42.66738],[-72.99554,42.67316],[-72.98977,42.67822],[-72.97561,42.68042],[-72.9775,42.68591],[-72.97158,42.68906],[-72.9638,42.68749],[-72.95435,42.69028],[-72.95388,42.69816],[-72.94964,42.70511],[-72.99788,42.70126],[-73.02371,42.70269],[-73.02301,42.74114],[-73.26496,42.74594],[-73.307,42.63265],[-73.35253,42.51],[-73.38212,42.42941],[-73.44289,42.26394],[-73.50814,42.08626],[-73.49688,42.04968],[-73.43281,42.05059],[-73.29442,42.04698],[-73.2298,42.04488],[-73.05329,42.03986],[-73.05655,42.04742],[-73.05465,42.0576],[-73.06174,42.06194],[-73.06181,42.07064],[-73.07309,42.09421],[-73.07484,42.10615],[-73.07267,42.11168],[-73.06138,42.11939],[-73.06983,42.13323],[-73.07111,42.14821],[-73.03492,42.14365],[-73.00429,42.25135],[-73.00185,42.25102],[-73.00028,42.3126]]]},"properties":{"STATEFP":"25","COUNTYFP":"003","COUNTYNS":"00606928","GEOIDFQ":"0500000US25003","GEOID":"25003","NAME":"Berkshire","NAMELSAD":"Berkshire County","STUSPS":"MA","STATE_NAME":"Massachusetts","LSAD":"06","ALAND":2400592147,"AWATER":50709767}}
]}