{"type":"FeatureCollection", "features": [
{"type":"Feature","geometry":{"type":"Polygon","coordinates":[[[-116.58679,41.0004],[-116.5871,40.94702],[-116.59681,40.94646],[-116.59576,40.74991],[-116.59607,40.56289],[-116.59404,40.48069],[-116.59476,40.30479],[-116.59896,40.16694],[-116.60009,40.074],[-116.5904,40.07228],[-116.59044,39.95353],[-116.59105,39.63372],[-116.59288,39.63371],[-116.59285,39.37493],[-116.59683,39.37279],[-116.59711,39.17624],[-116.60095,39.16146],[-116.23508,39.16179],[-116.00227,39.16123],[-115.90707,39.16185],[-115.90722,39.4643],[-115.89478,39.46108],[-115.87589,39.46572],[-115.86657,39.47977],[-115.87026,39.48713],[-115.84215,39.51124],[-115.83174,39.53672],[-115.83817,39.55619],[-115.8316,39.57024],[-115.82174,39.57816],[-115.81348,39.59352],[-115.82457,39.62888],[-115.82751,39.64604],[-115.82311,39.65576],[-115.82401,39.68594],[-115.82962,39.69675],[-115.8331,39.72941],[-115.81005,39.76185],[-115.81392,39.77868],[-115.81011,39.79583],[-115.81247,39.82453],[-115.79872,39.83509],[-115.79486,39.8531],[-115.80483,39.87087],[-115.80099,39.87738],[-115.80779,39.89918],[-115.80236,39.91282],[-115.81806,39.93278],[-115.81477,39.9489],[-115.8275,39.98199],[-115.83565,39.99469],[-115.83148,40.00793],[-115.8353,40.01737],[-115.82718,40.0234],[-115.83325,40.0432],[-115.82726,40.06257],[-115.83907,40.08446],[-115.83973,40.09858],[-115.82536,40.10607],[-115.83064,40.11266],[-115.82406,40.1212],[-115.83497,40.12784],[-116.0009,40.12738],[-116.07268,40.37373],[-116.12257,40.54592],[-116.12594,40.55426],[-116.15783,40.66639],[-116.15772,40.70939],[-116.15815,40.99991],[-116.30168,41.00008],[-116.58679,41.0004]]]},"properties":{"STATEFP":"32","COUNTYFP":"011","COUNTYNS":"00858640","GEOIDFQ":"0500000US32011","GEOID":"32011","NAME":"Eureka","NAMELSAD":"Eureka County","STUSPS":"NV","STATE_NAME":"Nevada","LSAD":"06","ALAND":10814982420,"AWATER":11058701}},
{"type":"Feature","geometry":{"type":"Polygon","coordinates":[[[-115.90707,39.16185],[-115.86954,39.14262],[-115.75083,39.07964],[-115.74263,39.07465],[-115.60158,38.99993],[-115.59988,38.99993],[-115.12585,38.7446],[-115.00085,38.67732],[-114.83633,38.67734],[-114.62952,38.6774],[-114.16031,38.67746],[-114.04988,38.67737],[-114.04917,38.74995],[-114.04946,38.87495],[-114.0491,39.00551],[-114.04792,39.45577],[-114.04727,39.75941],[-114.04713,39.90604],[-114.04655,39.9969],[-114.04668,40.11694],[-114.12938,40.11676],[-114.36731,40.11754],[-114.52972,40.11909],[-114.72181,40.12103],[-114.75086,40.12073],[-114.86435,40.12245],[-114.88376,40.12145],[-115.00866,40.12228],[-115.24584,40.12233],[-115.49865,40.12705],[-115.50088,40.1279],[-115.62588,40.12784],[-115.77471,40.12855],[-115.83497,40.12784],[-115.82406,40.1212],[-115.83064,40.11266],[-115.82536,40.10607],[-115.83973,40.09858],[-115.83907,40.08446],[-115.82726,40.06257],[-115.83325,40.0432],[-115.82718,40.0234],[-115.8353,40.01737],[-115.83148,40.00793],[-115.83565,39.99469],[-115.8275,39.98199],[-115.81477,39.9489],[-115.81806,39.93278],[-115.80236,39.91282],[-115.80779,39.89918],[-115.80099,39.87738],[-115.80483,39.87087],[-115.79486,39.8531],[-115.79872,39.83509],[-115.81247,39.82453],[-115.81011,39.79583],[-115.81392,39.77868],[-115.81005,39.76185],[-115.8331,39.72941],[-115.82962,39.69675],[-115.82401,39.68594],[-115.82311,39.65576],[-115.82751,39.64604],[-115.82457,39.62888],[-115.81348,39.59352],[-115.82174,39.57816],[-115.8316,39.57024],[-115.83817,39.55619],[-115.83174,39.53672],[-115.84215,39.51124],[-115.87026,39.48713],[-115.86657,39.47977],[-115.87589,39.46572],[-115.89478,39.46108],[-115.90722,39.4643],[-115.90707,39.16185]]]},"properties":{"STATEFP":"32","COUNTYFP":"033","COUNTYNS":"00858615","GEOIDFQ":"0500000US32033","GEOID":"32033","NAME":"White Pine","NAMELSAD":"White Pine County","STUSPS":"NV","STATE_NAME":"Nevada","LSAD":"06","ALAND":23016356487,"AWATER":23426584}},
{"type":"Feature","geometry":{"type":"Polygon","coordinates":[[[-115.00085,38.67732],[-115.00084,38.49995],[-115.00085,38.08877],[-115.00085,38.05076],[-115.25376,38.05065],[-115.89386,38.05053],[-115.89499,37.71132],[-115.89631,37.37526],[-115.89482,37.2752],[-115.89629,37.24995],[-115.89596,37.01076],[-115.89446,36.86172],[-115.89692,36.84208],[-115.74075,36.8419],[-115.74085,36.85308],[-114.9561,36.85338],[-114.76251,36.85347],[-114.7623,36.84386],[-114.16881,36.84339],[-114.05062,36.84314],[-114.04999,36.95777],[-114.05175,37.08843],[-114.0514,37.23385],[-114.05176,37.41808],[-114.05245,37.43144],[-114.05296,37.59278],[-114.05173,37.746],[-114.04847,37.80986],[-114.04968,37.82365],[-114.05042,37.99996],[-114.0499,38.1486],[-114.05014,38.24996],[-114.04942,38.2647],[-114.05048,38.49996],[-114.04988,38.67737],[-114.16031,38.67746],[-114.62952,38.6774],[-114.83633,38.67734],[-115.00085,38.67732]]]},"properties":{"STATEFP":"32","COUNTYFP":"017","COUNTYNS":"00863992","GEOIDFQ":"0500000US32017","GEOID":"32017","NAME":"Lincoln","NAMELSAD":"Lincoln County","STUSPS":"NV","STATE_NAME":"Nevada","LSAD":"06","ALAND":27540342258,"AWATER":9802713}},
{"type":"Feature","geometry":{"type":"Polygon","coordinates":[[[-116.58679,41.0004],[-117.01842,41.00025],[-117.01822,40.78586],[-117.01866,40.64303],[-117.05156,40.64233],[-117.24679,40.64245],[-117.3006,40.52614],[-117.37593,40.36276],[-117.4803,40.136],[-117.54175,40.00103],[-117.52044,39.97952],[-117.51964,39.97252],[-117.50094,39.95157],[-117.47804,39.93962],[-117.46594,39.91072],[-117.46664,39.89772],[-117.46164,39.88682],[-117.46464,39.85822],[-117.47234,39.83922],[-117.48794,39.82682],[-117.48354,39.81182],[-117.48934,39.80592],[-117.48574,39.78652],[-117.49495,39.7742],[-117.49534,39.74836],[-117.47521,39.73585],[-117.48763,39.71412],[-117.48542,39.7001],[-117.46509,39.67597],[-117.47209,39.66155],[-117.48607,39.64497],[-117.47811,39.63729],[-117.46337,39.6331],[-117.46318,39.62483],[-117.48104,39.59902],[-117.47609,39.58364],[-117.48244,39.57363],[-117.48053,39.56352],[-117.48524,39.54562],[-117.50139,39.53082],[-117.52215,39.53397],[-117.53414,39.52832],[-117.56084,39.52592],[-117.56574,39.51922],[-117.59014,39.51802],[-117.58684,39.50302],[-117.6159,39.48882],[-117.62324,39.47621],[-117.65665,39.46791],[-117.65387,39.45962],[-117.63723,39.45182],[-117.63843,39.43967],[-117.64601,39.4266],[-117.67559,39.42247],[-117.67639,39.41363],[-117.6963,39.38593],[-117.7319,39.38022],[-117.75016,39.38379],[-117.76259,39.35837],[-117.75746,39.3448],[-117.75987,39.33406],[-117.75209,39.32398],[-117.75267,39.31178],[-117.73955,39.2963],[-117.74359,39.28779],[-117.73298,39.28135],[-117.7228,39.25078],[-117.71406,39.24556],[-117.71995,39.23682],[-117.72239,39.21781],[-117.73461,39.21007],[-117.74423,39.19143],[-117.76025,39.18568],[-117.77099,39.17416],[-117.78241,39.17585],[-117.79305,39.1611],[-117.78464,39.15104],[-117.80385,39.14571],[-117.79136,39.12876],[-117.79338,39.10825],[-117.78309,39.10609],[-117.77547,39.09343],[-117.62332,39.11873],[-117.33186,39.16343],[-117.17724,39.16327],[-117.01413,39.16336],[-116.75084,39.16153],[-116.73906,39.16227],[-116.60095,39.16146],[-116.59711,39.17624],[-116.59683,39.37279],[-116.59285,39.37493],[-116.59288,39.63371],[-116.59105,39.63372],[-116.59044,39.95353],[-116.5904,40.07228],[-116.60009,40.074],[-116.59896,40.16694],[-116.59476,40.30479],[-116.59404,40.48069],[-116.59607,40.56289],[-116.59576,40.74991],[-116.59681,40.94646],[-116.5871,40.94702],[-116.58679,41.0004]]]},"properties":{"STATEFP":"32","COUNTYFP":"015","COUNTYNS":"00863368","GEOIDFQ":"0500000US32015","GEOID":"32015","NAME":"Lander","NAMELSAD":"Lander County","STUSPS":"NV","STATE_NAME":"Nevada","LSAD":"06","ALAND":14294783207,"AWATER":662270}},
{"type":"Feature","geometry":{"type":"Polygon","coordinates":[[[-115.89692,36.84208],[-115.89574,36.68403],[-115.89508,36.42107],[-115.89575,36.17223],[-115.84576,36.17076],[-115.84598,35.96421],[-115.75084,35.88929],[-115.669,35.82652],[-115.62584,35.79201],[-115.50083,35.69338],[-115.41291,35.62498],[-115.40454,35.6176],[-115.27134,35.51266],[-115.1649,35.42787],[-115.10326,35.37753],[-115.084,35.36339],[-114.92548,35.23705],[-114.78788,35.12725],[-114.63349,35.00186],[-114.63689,35.02837],[-114.62712,35.04472],[-114.60669,35.05894],[-114.60474,35.07483],[-114.62252,35.0887],[-114.64283,35.0965],[-114.64676,35.10187],[-114.63228,35.11709],[-114.62136,35.12115],[-114.59779,35.12174],[-114.57826,35.12881],[-114.56953,35.16232],[-114.56924,35.18348],[-114.57212,35.20059],[-114.57996,35.20964],[-114.58713,35.26238],[-114.5975,35.29695],[-114.59516,35.32424],[-114.60575,35.35845],[-114.6177,35.38013],[-114.62676,35.40964],[-114.65275,35.43082],[-114.66354,35.4478],[-114.66599,35.46799],[-114.67871,35.49875],[-114.67716,35.51287],[-114.66398,35.52216],[-114.65716,35.5323],[-114.66323,35.56516],[-114.67497,35.58066],[-114.65924,35.58748],[-114.65341,35.61079],[-114.6661,35.62239],[-114.67761,35.64177],[-114.689,35.65028],[-114.69021,35.66516],[-114.68221,35.67819],[-114.68266,35.68857],[-114.70142,35.70108],[-114.70545,35.71176],[-114.69731,35.73369],[-114.69571,35.75599],[-114.70141,35.76909],[-114.69891,35.79019],[-114.71211,35.80619],[-114.70371,35.81459],[-114.69525,35.83229],[-114.70653,35.84903],[-114.68201,35.86328],[-114.66969,35.86508],[-114.66321,35.87369],[-114.70027,35.90177],[-114.70852,35.91231],[-114.70753,35.92806],[-114.71254,35.93186],[-114.74059,35.97566],[-114.74052,36.01334],[-114.72286,36.02716],[-114.74249,36.04556],[-114.7357,36.05339],[-114.74334,36.07054],[-114.7548,36.0847],[-114.74708,36.09701],[-114.73616,36.10437],[-114.70374,36.10835],[-114.69365,36.11248],[-114.68267,36.10915],[-114.66434,36.1163],[-114.65813,36.12413],[-114.63047,36.14222],[-114.6206,36.13176],[-114.61064,36.13156],[-114.59647,36.14154],[-114.57109,36.1511],[-114.53923,36.15176],[-114.52885,36.14775],[-114.5081,36.14971],[-114.50034,36.1407],[-114.50847,36.12991],[-114.49885,36.12661],[-114.48383,36.12972],[-114.46867,36.13889],[-114.45649,36.13803],[-114.44374,36.12559],[-114.42311,36.13735],[-114.41525,36.14512],[-114.39837,36.1458],[-114.38148,36.14135],[-114.37018,36.14262],[-114.35897,36.1278],[-114.32878,36.1055],[-114.30694,36.08249],[-114.30417,36.07558],[-114.31242,36.06612],[-114.3119,36.05766],[-114.29975,36.05736],[-114.29087,36.05051],[-114.27086,36.04552],[-114.2614,36.02545],[-114.23344,36.01284],[-114.21193,36.01483],[-114.17327,36.02675],[-114.15139,36.02313],[-114.13484,36.04387],[-114.13121,36.06577],[-114.1119,36.09584],[-114.12103,36.10389],[-114.11702,36.11485],[-114.09699,36.12082],[-114.0917,36.1373],[-114.08123,36.15021],[-114.06822,36.17769],[-114.05779,36.18863],[-114.04394,36.19335],[-114.04396,36.24699],[-114.04546,36.27328],[-114.0432,36.37941],[-114.04313,36.46972],[-114.0449,36.49608],[-114.0494,36.68886],[-114.05062,36.84314],[-114.16881,36.84339],[-114.7623,36.84386],[-114.76251,36.85347],[-114.9561,36.85338],[-115.74085,36.85308],[-115.74075,36.8419],[-115.89692,36.84208]]]},"properties":{"STATEFP":"32","COUNTYFP":"003","COUNTYNS":"00863600","GEOIDFQ":"0500000US32003","GEOID":"32003","NAME":"Clark","NAMELSAD":"Clark County","STUSPS":"NV","STATE_NAME":"Nevada","LSAD":"06","ALAND":20439308560,"AWATER":438384090}},
{"type":"Feature","geometry":{"type":"Polygon","coordinates":[[[-117.69102,38.4738],[-117.99848,38.20599],[-118.07776,38.13768],[-118.12595,38.09368],[-118.23443,37.99993],[-118.25095,37.98306],[-118.35148,37.8937],[-118.41503,37.89389],[-118.4278,37.89623],[-118.25095,37.76862],[-118.05219,37.62493],[-117.97578,37.56929],[-117.90462,37.51584],[-117.87593,37.49727],[-117.71236,37.37493],[-117.68061,37.3534],[-117.58142,37.27894],[-117.50012,37.22038],[-117.3759,37.12684],[-117.26605,37.04491],[-117.24492,37.03024],[-117.166,36.97122],[-117.16519,37.42959],[-117.16599,37.49993],[-117.1659,37.72619],[-117.16544,37.74993],[-117.16518,37.99993],[-117.16561,38.00169],[-117.21926,38.05035],[-117.24106,38.05012],[-117.24091,38.0699],[-117.25091,38.07839],[-117.40248,38.21429],[-117.62593,38.41612],[-117.69102,38.4738]]]},"properties":{"STATEFP":"32","COUNTYFP":"009","COUNTYNS":"00858641","GEOIDFQ":"0500000US32009","GEOID":"32009","NAME":"Esmeralda","NAMELSAD":"Esmeralda County","STUSPS":"NV","STATE_NAME":"Nevada","LSAD":"06","ALAND":9277050177,"AWATER":18552010}},
{"type":"Feature","geometry":{"type":"Polygon","coordinates":[[[-119.32418,41.99421],[-119.4446,41.99548],[-119.72573,41.9963],[-119.79009,41.99754],[-119.87605,41.9972],[-119.99923,41.99494],[-119.99934,41.8753],[-119.99829,41.74989],[-119.99885,41.62489],[-119.99828,41.61877],[-119.99947,41.49989],[-119.99987,41.18397],[-119.9996,41.02184],[-119.99936,40.8731],[-119.99848,40.7499],[-119.99753,40.72099],[-119.99593,40.4999],[-119.99618,40.26246],[-119.99712,40.12636],[-119.99763,39.95651],[-119.99973,39.85141],[-120.00132,39.72242],[-120.00174,39.53885],[-120.00624,39.3415],[-120.00645,39.27219],[-120.0045,39.1656],[-119.88079,39.16551],[-119.8621,39.17115],[-119.86252,39.18564],[-119.84393,39.20078],[-119.82672,39.20082],[-119.82673,39.20799],[-119.79886,39.20804],[-119.79886,39.21524],[-119.77087,39.21529],[-119.77087,39.22983],[-119.75217,39.22989],[-119.75209,39.24439],[-119.7153,39.24428],[-119.71264,39.25087],[-119.71407,39.25918],[-119.69652,39.25914],[-119.69596,39.2809],[-119.67748,39.28087],[-119.67741,39.33166],[-119.6585,39.33154],[-119.65882,39.34609],[-119.66813,39.34622],[-119.6681,39.3608],[-119.67753,39.36065],[-119.67753,39.3751],[-119.68541,39.37506],[-119.68546,39.38958],[-119.67727,39.38958],[-119.677,39.40447],[-119.65714,39.40411],[-119.65507,39.44748],[-119.69609,39.44746],[-119.69564,39.52002],[-119.68826,39.52003],[-119.66493,39.50852],[-119.64246,39.51282],[-119.61946,39.51387],[-119.59615,39.54262],[-119.55059,39.56087],[-119.53102,39.56597],[-119.51174,39.56228],[-119.46933,39.56991],[-119.46784,39.58402],[-119.45681,39.58914],[-119.44448,39.58512],[-119.41345,39.59065],[-119.39231,39.58576],[-119.3706,39.58688],[-119.35787,39.59786],[-119.33953,39.59661],[-119.31013,39.61142],[-119.28312,39.62232],[-119.27687,39.62232],[-119.25734,39.65132],[-119.18934,39.65142],[-119.18933,39.68048],[-119.17064,39.68045],[-119.1709,39.78829],[-119.18971,39.78822],[-119.18976,39.80999],[-119.20854,39.80997],[-119.20863,39.89946],[-119.22614,39.89945],[-119.22527,39.91409],[-119.22518,39.99938],[-119.3393,39.99861],[-119.3387,40.1576],[-119.33821,40.31159],[-119.3385,40.51781],[-119.31304,40.51831],[-119.3119,40.74402],[-119.31137,40.7499],[-119.3096,40.96038],[-119.32979,40.96039],[-119.33099,41.12559],[-119.33107,41.23512],[-119.30571,41.23454],[-119.30463,41.4147],[-119.32395,41.41452],[-119.32111,41.59092],[-119.32703,41.59058],[-119.32696,41.8569],[-119.32482,41.8569],[-119.32418,41.99421]]]},"properties":{"STATEFP":"32","COUNTYFP":"031","COUNTYNS":"00858608","GEOIDFQ":"0500000US32031","GEOID":"32031","NAME":"Washoe","NAMELSAD":"Washoe County","STUSPS":"NV","STATE_NAME":"Nevada","LSAD":"06","ALAND":16358036307,"AWATER":582745905}},
{"type":"Feature","geometry":{"type":"Polygon","coordinates":[[[-119.28312,39.62232],[-119.38872,39.46923],[-119.47879,39.33785],[-119.64731,39.26679],[-119.71211,39.25105],[-119.68226,39.20923],[-119.64794,39.19506],[-119.56148,39.19442],[-119.56068,39.1785],[-119.57116,39.15787],[-119.57216,39.14653],[-119.5611,39.13638],[-119.55659,39.10284],[-119.55039,39.08626],[-119.43773,39.08505],[-119.31084,39.08468],[-119.31054,38.99092],[-119.34339,38.99098],[-119.34853,38.98293],[-119.40185,38.98365],[-119.40228,38.95475],[-119.42023,38.95471],[-119.42172,38.88216],[-119.4398,38.88209],[-119.44015,38.85296],[-119.42177,38.85295],[-119.42157,38.82387],[-119.41234,38.82387],[-119.41216,38.80935],[-119.40303,38.80928],[-119.40303,38.7657],[-119.40597,38.73354],[-119.38748,38.73657],[-119.34989,38.73623],[-119.3478,38.64878],[-119.3299,38.64872],[-119.33006,38.53595],[-119.27926,38.49991],[-119.15557,38.41376],[-118.90624,38.41536],[-118.9065,38.51631],[-118.90747,38.76465],[-118.90212,38.76466],[-118.90214,38.85192],[-119.0145,38.85195],[-119.01486,38.94414],[-119.001,38.96576],[-118.91868,39.07519],[-118.75506,39.0747],[-118.75507,39.11281],[-118.79221,39.11285],[-118.79222,39.14183],[-118.81082,39.14182],[-118.81081,39.15633],[-118.82943,39.15633],[-118.82944,39.17114],[-118.84809,39.17123],[-118.8481,39.18531],[-118.86674,39.18534],[-118.86676,39.19821],[-118.89083,39.19822],[-118.89066,39.2272],[-118.90903,39.22719],[-118.90915,39.24168],[-118.92768,39.24168],[-118.92784,39.25617],[-118.94633,39.25617],[-118.94644,39.27066],[-118.965,39.27068],[-118.96502,39.28548],[-118.98772,39.28547],[-118.98782,39.29998],[-119.00679,39.29997],[-119.00679,39.31557],[-119.02548,39.3156],[-119.0255,39.33008],[-119.04421,39.33011],[-119.04426,39.34457],[-119.06227,39.34461],[-119.06228,39.35929],[-119.08093,39.35938],[-119.08121,39.37358],[-119.09955,39.3738],[-119.09968,39.3879],[-119.11771,39.38866],[-119.11764,39.51895],[-119.09053,39.51887],[-119.08915,39.63683],[-119.07715,39.6368],[-119.07714,39.72264],[-119.09984,39.70347],[-119.11286,39.68906],[-119.15799,39.65806],[-119.18934,39.65142],[-119.25734,39.65132],[-119.27687,39.62232],[-119.28312,39.62232]]]},"properties":{"STATEFP":"32","COUNTYFP":"019","COUNTYNS":"00858645","GEOIDFQ":"0500000US32019","GEOID":"32019","NAME":"Lyon","NAMELSAD":"Lyon County","STUSPS":"NV","STATE_NAME":"Nevada","LSAD":"06","ALAND":5187884841,"AWATER":59489121}},
{"type":"Feature","geometry":{"type":"Polygon","coordinates":[[[-115.83497,40.12784],[-115.77471,40.12855],[-115.62588,40.12784],[-115.50088,40.1279],[-115.49865,40.12705],[-115.24584,40.12233],[-115.00866,40.12228],[-114.88376,40.12145],[-114.86435,40.12245],[-114.75086,40.12073],[-114.72181,40.12103],[-114.52972,40.11909],[-114.36731,40.11754],[-114.12938,40.11676],[-114.04668,40.11694],[-114.04615,40.23197],[-114.04618,40.39831],[-114.04522,40.43028],[-114.04528,40.50659],[-114.04318,40.77168],[-114.04214,40.99993],[-114.0414,41.21996],[-114.04023,41.49169],[-114.04094,41.49992],[-114.03997,41.62492],[-114.0399,41.75378],[-114.04115,41.8506],[-114.03965,41.88482],[-114.04148,41.99387],[-114.28185,41.99421],[-114.46758,41.99549],[-114.49826,41.9946],[-114.59827,41.99451],[-114.72071,41.99823],[-114.80638,42.00182],[-114.87588,42.00132],[-115.03178,41.99601],[-115.31388,41.9961],[-115.56998,41.99684],[-115.62591,41.99742],[-115.94163,41.9965],[-116.04714,41.99634],[-116.06599,41.99746],[-116.33276,41.99728],[-116.36848,41.99628],[-116.49819,41.99744],[-116.62677,41.99775],[-116.96916,41.99899],[-117.01821,41.99935],[-117.01806,41.87607],[-117.01952,41.76381],[-117.01863,41.74989],[-117.01826,41.4999],[-117.01803,41.42246],[-117.01841,41.2499],[-117.0179,41.1249],[-117.01842,41.00025],[-116.58679,41.0004],[-116.30168,41.00008],[-116.15815,40.99991],[-116.15772,40.70939],[-116.15783,40.66639],[-116.12594,40.55426],[-116.12257,40.54592],[-116.07268,40.37373],[-116.0009,40.12738],[-115.83497,40.12784]]]},"properties":{"STATEFP":"32","COUNTYFP":"007","COUNTYNS":"00857664","GEOIDFQ":"0500000US32007","GEOID":"32007","NAME":"Elko","NAMELSAD":"Elko County","STUSPS":"NV","STATE_NAME":"Nevada","LSAD":"06","ALAND":44478647073,"AWATER":75156805}},
{"type":"Feature","geometry":{"type":"Polygon","coordinates":[[[-117.01842,41.00025],[-117.0179,41.1249],[-117.01841,41.2499],[-117.01803,41.42246],[-117.01826,41.4999],[-117.01863,41.74989],[-117.01952,41.76381],[-117.01806,41.87607],[-117.01821,41.99935],[-117.1978,42.00038],[-117.21755,41.99989],[-117.40361,41.99929],[-117.44306,41.99966],[-117.62597,41.9981],[-117.87347,41.99834],[-118.19737,41.99699],[-118.501,41.99545],[-118.69641,41.99179],[-119.00102,41.99379],[-119.20828,41.99318],[-119.32418,41.99421],[-119.32482,41.8569],[-119.32696,41.8569],[-119.32703,41.59058],[-119.32111,41.59092],[-119.32395,41.41452],[-119.30463,41.4147],[-119.30571,41.23454],[-119.33107,41.23512],[-119.33099,41.12559],[-119.32979,40.96039],[-119.3096,40.96038],[-118.87429,40.96103],[-118.7867,40.96085],[-118.78674,40.85593],[-118.25098,40.85701],[-118.00032,40.8579],[-117.8045,40.85761],[-117.64422,40.85782],[-117.6444,40.68434],[-117.30944,40.68354],[-117.29997,40.67626],[-117.3006,40.52614],[-117.24679,40.64245],[-117.05156,40.64233],[-117.01866,40.64303],[-117.01822,40.78586],[-117.01842,41.00025]]]},"properties":{"STATEFP":"32","COUNTYFP":"013","COUNTYNS":"00863310","GEOIDFQ":"0500000US32013","GEOID":"32013","NAME":"Humboldt","NAMELSAD":"Humboldt County","STUSPS":"NV","STATE_NAME":"Nevada","LSAD":"06","ALAND":24969535383,"AWATER":44194899}},
{"type":"Feature","geometry":{"type":"Polygon","coordinates":[[[-117.54175,40.00103],[-117.62595,40.00198],[-117.92771,40.0026],[-118.11929,40.00188],[-118.187,40.00209],[-118.68029,39.9985],[-119.22518,39.99938],[-119.22527,39.91409],[-119.22614,39.89945],[-119.20863,39.89946],[-119.20854,39.80997],[-119.18976,39.80999],[-119.18971,39.78822],[-119.1709,39.78829],[-119.17064,39.68045],[-119.18933,39.68048],[-119.18934,39.65142],[-119.15799,39.65806],[-119.11286,39.68906],[-119.09984,39.70347],[-119.07714,39.72264],[-119.07715,39.6368],[-119.08915,39.63683],[-119.09053,39.51887],[-119.11764,39.51895],[-119.11771,39.38866],[-119.09968,39.3879],[-119.09955,39.3738],[-119.08121,39.37358],[-119.08093,39.35938],[-119.06228,39.35929],[-119.06227,39.34461],[-119.04426,39.34457],[-119.04421,39.33011],[-119.0255,39.33008],[-119.02548,39.3156],[-119.00679,39.31557],[-119.00679,39.29997],[-118.98782,39.29998],[-118.98772,39.28547],[-118.96502,39.28548],[-118.965,39.27068],[-118.94644,39.27066],[-118.94633,39.25617],[-118.92784,39.25617],[-118.92768,39.24168],[-118.90915,39.24168],[-118.90903,39.22719],[-118.89066,39.2272],[-118.89083,39.19822],[-118.86676,39.19821],[-118.86674,39.18534],[-118.8481,39.18531],[-118.84809,39.17123],[-118.82944,39.17114],[-118.82943,39.15633],[-118.81081,39.15633],[-118.81082,39.14182],[-118.79222,39.14183],[-118.79221,39.11285],[-118.75507,39.11281],[-118.75506,39.0747],[-118.62096,39.07395],[-118.4775,39.07368],[-118.25096,39.07375],[-118.24357,39.07335],[-117.99681,39.07362],[-117.86512,39.07365],[-117.77547,39.09343],[-117.78309,39.10609],[-117.79338,39.10825],[-117.79136,39.12876],[-117.80385,39.14571],[-117.78464,39.15104],[-117.79305,39.1611],[-117.78241,39.17585],[-117.77099,39.17416],[-117.76025,39.18568],[-117.74423,39.19143],[-117.73461,39.21007],[-117.72239,39.21781],[-117.71995,39.23682],[-117.71406,39.24556],[-117.7228,39.25078],[-117.73298,39.28135],[-117.74359,39.28779],[-117.73955,39.2963],[-117.75267,39.31178],[-117.75209,39.32398],[-117.75987,39.33406],[-117.75746,39.3448],[-117.76259,39.35837],[-117.75016,39.38379],[-117.7319,39.38022],[-117.6963,39.38593],[-117.67639,39.41363],[-117.67559,39.42247],[-117.64601,39.4266],[-117.63843,39.43967],[-117.63723,39.45182],[-117.65387,39.45962],[-117.65665,39.46791],[-117.62324,39.47621],[-117.6159,39.48882],[-117.58684,39.50302],[-117.59014,39.51802],[-117.56574,39.51922],[-117.56084,39.52592],[-117.53414,39.52832],[-117.52215,39.53397],[-117.50139,39.53082],[-117.48524,39.54562],[-117.48053,39.56352],[-117.48244,39.57363],[-117.47609,39.58364],[-117.48104,39.59902],[-117.46318,39.62483],[-117.46337,39.6331],[-117.47811,39.63729],[-117.48607,39.64497],[-117.47209,39.66155],[-117.46509,39.67597],[-117.48542,39.7001],[-117.48763,39.71412],[-117.47521,39.73585],[-117.49534,39.74836],[-117.49495,39.7742],[-117.48574,39.78652],[-117.48934,39.80592],[-117.48354,39.81182],[-117.48794,39.82682],[-117.47234,39.83922],[-117.46464,39.85822],[-117.46164,39.88682],[-117.46664,39.89772],[-117.46594,39.91072],[-117.47804,39.93962],[-117.50094,39.95157],[-117.51964,39.97252],[-117.52044,39.97952],[-117.54175,40.00103]]]},"properties":{"STATEFP":"32","COUNTYFP":"001","COUNTYNS":"00858638","GEOIDFQ":"0500000US32001","GEOID":"32001","NAME":"Churchill","NAMELSAD":"Churchill County","STUSPS":"NV","STATE_NAME":"Nevada","LSAD":"06","ALAND":12820847800,"AWATER":190742991}},
{"type":"Feature","geometry":{"type":"Polygon","coordinates":[[[-120.0045,39.1656],[-120.0034,39.11269],[-119.88443,39.11287],[-119.76121,39.11401],[-119.76121,39.09951],[-119.75219,39.09953],[-119.75212,39.0849],[-119.67741,39.08481],[-119.65911,39.08611],[-119.55039,39.08626],[-119.55659,39.10284],[-119.5611,39.13638],[-119.57216,39.14653],[-119.57116,39.15787],[-119.56068,39.1785],[-119.56148,39.19442],[-119.64794,39.19506],[-119.68226,39.20923],[-119.71211,39.25105],[-119.71264,39.25087],[-119.7153,39.24428],[-119.75209,39.24439],[-119.75217,39.22989],[-119.77087,39.22983],[-119.77087,39.21529],[-119.79886,39.21524],[-119.79886,39.20804],[-119.82673,39.20799],[-119.82672,39.20082],[-119.84393,39.20078],[-119.86252,39.18564],[-119.8621,39.17115],[-119.88079,39.16551],[-120.0045,39.1656]]]},"properties":{"STATEFP":"32","COUNTYFP":"510","COUNTYNS":"00863219","GEOIDFQ":"0500000US32510","GEOID":"32510","NAME":"Carson City","NAMELSAD":"Carson City","STUSPS":"NV","STATE_NAME":"Nevada","LSAD":"00","ALAND":374341370,"AWATER":32594082}},
{"type":"Feature","geometry":{"type":"Polygon","coordinates":[[[-119.71264,39.25087],[-119.71211,39.25105],[-119.64731,39.26679],[-119.47879,39.33785],[-119.38872,39.46923],[-119.28312,39.62232],[-119.31013,39.61142],[-119.33953,39.59661],[-119.35787,39.59786],[-119.3706,39.58688],[-119.39231,39.58576],[-119.41345,39.59065],[-119.44448,39.58512],[-119.45681,39.58914],[-119.46784,39.58402],[-119.46933,39.56991],[-119.51174,39.56228],[-119.53102,39.56597],[-119.55059,39.56087],[-119.59615,39.54262],[-119.61946,39.51387],[-119.64246,39.51282],[-119.66493,39.50852],[-119.68826,39.52003],[-119.69564,39.52002],[-119.69609,39.44746],[-119.65507,39.44748],[-119.65714,39.40411],[-119.677,39.40447],[-119.67727,39.38958],[-119.68546,39.38958],[-119.68541,39.37506],[-119.67753,39.3751],[-119.67753,39.36065],[-119.6681,39.3608],[-119.66813,39.34622],[-119.65882,39.34609],[-119.6585,39.33154],[-119.67741,39.33166],[-119.67748,39.28087],[-119.69596,39.2809],[-119.69652,39.25914],[-119.71407,39.25918],[-119.71264,39.25087]]]},"properties":{"STATEFP":"32","COUNTYFP":"029","COUNTYNS":"00858642","GEOIDFQ":"0500000US32029","GEOID":"32029","NAME":"Storey","NAMELSAD":"Storey County","STUSPS":"NV","STATE_NAME":"Nevada","LSAD":"06","ALAND":683238145,"AWATER":1881143}},
{"type":"Feature","geometry":{"type":"Polygon","coordinates":[[[-116.60095,39.16146],[-116.73906,39.16227],[-116.75084,39.16153],[-117.01413,39.16336],[-117.17724,39.16327],[-117.33186,39.16343],[-117.62332,39.11873],[-117.77547,39.09343],[-117.86512,39.07365],[-118.19627,38.99993],[-118.19623,38.91906],[-118.02096,38.76512],[-117.7212,38.49992],[-117.69102,38.4738],[-117.62593,38.41612],[-117.40248,38.21429],[-117.25091,38.07839],[-117.24091,38.0699],[-117.24106,38.05012],[-117.21926,38.05035],[-117.16561,38.00169],[-117.16518,37.99993],[-117.16544,37.74993],[-117.1659,37.72619],[-117.16599,37.49993],[-117.16519,37.42959],[-117.166,36.97122],[-117.06673,36.89635],[-117.00089,36.84769],[-116.88936,36.76318],[-116.71029,36.62748],[-116.48823,36.4591],[-116.38034,36.37496],[-116.37587,36.37256],[-116.25087,36.27698],[-116.09722,36.15835],[-115.89297,35.99997],[-115.84598,35.96421],[-115.84576,36.17076],[-115.89575,36.17223],[-115.89508,36.42107],[-115.89574,36.68403],[-115.89692,36.84208],[-115.89446,36.86172],[-115.89596,37.01076],[-115.89629,37.24995],[-115.89482,37.2752],[-115.89631,37.37526],[-115.89499,37.71132],[-115.89386,38.05053],[-115.25376,38.05065],[-115.00085,38.05076],[-115.00085,38.08877],[-115.00084,38.49995],[-115.00085,38.67732],[-115.12585,38.7446],[-115.59988,38.99993],[-115.60158,38.99993],[-115.74263,39.07465],[-115.75083,39.07964],[-115.86954,39.14262],[-115.90707,39.16185],[-116.00227,39.16123],[-116.23508,39.16179],[-116.60095,39.16146]]]},"properties":{"STATEFP":"32","COUNTYFP":"023","COUNTYNS":"00863599","GEOIDFQ":"0500000US32023","GEOID":"32023","NAME":"Nye","NAMELSAD":"Nye County","STUSPS":"NV","STATE_NAME":"Nevada","LSAD":"06","ALAND":47090939240,"AWATER":43207981}},
{"type":"Feature","geometry":{"type":"Polygon","coordinates":[[[-117.3006,40.52614],[-117.29997,40.67626],[-117.30944,40.68354],[-117.6444,40.68434],[-117.64422,40.85782],[-117.8045,40.85761],[-118.00032,40.8579],[-118.25098,40.85701],[-118.78674,40.85593],[-118.7867,40.96085],[-118.87429,40.96103],[-119.3096,40.96038],[-119.31137,40.7499],[-119.3119,40.74402],[-119.31304,40.51831],[-119.3385,40.51781],[-119.33821,40.31159],[-119.3387,40.1576],[-119.3393,39.99861],[-119.22518,39.99938],[-118.68029,39.9985],[-118.187,40.00209],[-118.11929,40.00188],[-117.92771,40.0026],[-117.62595,40.00198],[-117.54175,40.00103],[-117.4803,40.136],[-117.37593,40.36276],[-117.3006,40.52614]]]},"properties":{"STATEFP":"32","COUNTYFP":"027","COUNTYNS":"00858646","GEOIDFQ":"0500000US32027","GEOID":"32027","NAME":"Pershing","NAMELSAD":"Pershing County","STUSPS":"NV","STATE_NAME":"Nevada","LSAD":"06","ALAND":15634691981,"AWATER":79934815}},
{"type":"Feature","geometry":{"type":"Polygon","coordinates":[[[-119.55039,39.08626],[-119.65911,39.08611],[-119.67741,39.08481],[-119.75212,39.0849],[-119.75219,39.09953],[-119.76121,39.09951],[-119.76121,39.11401],[-119.88443,39.11287],[-120.0034,39.11269],[-120.00101,38.99957],[-119.77916,38.84693],[-119.58544,38.71321],[-119.45062,38.61997],[-119.37599,38.56679],[-119.33006,38.53595],[-119.3299,38.64872],[-119.3478,38.64878],[-119.34989,38.73623],[-119.38748,38.73657],[-119.40597,38.73354],[-119.40303,38.7657],[-119.40303,38.80928],[-119.41216,38.80935],[-119.41234,38.82387],[-119.42157,38.82387],[-119.42177,38.85295],[-119.44015,38.85296],[-119.4398,38.88209],[-119.42172,38.88216],[-119.42023,38.95471],[-119.40228,38.95475],[-119.40185,38.98365],[-119.34853,38.98293],[-119.34339,38.99098],[-119.31054,38.99092],[-119.31084,39.08468],[-119.43773,39.08505],[-119.55039,39.08626]]]},"properties":{"STATEFP":"32","COUNTYFP":"005","COUNTYNS":"00858643","GEOIDFQ":"0500000US32005","GEOID":"32005","NAME":"Douglas","NAMELSAD":"Douglas County","STUSPS":"NV","STATE_NAME":"Nevada","LSAD":"06","ALAND":1840283025,"AWATER":72182210}},
{"type":"Feature","geometry":{"type":"Polygon","coordinates":[[[-117.69102,38.4738],[-117.7212,38.49992],[-118.02096,38.76512],[-118.19623,38.91906],[-118.19627,38.99993],[-117.86512,39.07365],[-117.99681,39.07362],[-118.24357,39.07335],[-118.25096,39.07375],[-118.4775,39.07368],[-118.62096,39.07395],[-118.75506,39.0747],[-118.91868,39.07519],[-119.001,38.96576],[-119.01486,38.94414],[-119.0145,38.85195],[-118.90214,38.85192],[-118.90212,38.76466],[-118.90747,38.76465],[-118.9065,38.51631],[-118.90624,38.41536],[-119.15557,38.41376],[-119.09716,38.37285],[-119.08236,38.36127],[-119.03008,38.32518],[-119.00097,38.30368],[-118.94967,38.26894],[-118.85909,38.20481],[-118.77187,38.14187],[-118.71431,38.10219],[-118.62159,38.03439],[-118.57196,37.99993],[-118.4278,37.89623],[-118.41503,37.89389],[-118.35148,37.8937],[-118.25095,37.98306],[-118.23443,37.99993],[-118.12595,38.09368],[-118.07776,38.13768],[-117.99848,38.20599],[-117.69102,38.4738]]]},"properties":{"STATEFP":"32","COUNTYFP":"021","COUNTYNS":"00858644","GEOIDFQ":"0500000US32021","GEOID":"32021","NAME":"Mineral","NAMELSAD":"Mineral County","STUSPS":"NV","STATE_NAME":"Nevada","LSAD":"06","ALAND":9715777469,"AWATER":155864513}}
]}