{"type":"FeatureCollection", "features": [
{"type":"Feature","geometry":{"type":"Polygon","coordinates":[[[-71.23601,43.28499],[-71.24734,43.27523],[-71.20627,43.25006],[-71.12795,43.20007],[-71.02669,43.13795],[-71.07294,43.08168],[-70.9808,43.08237],[-70.93406,43.09011],[-70.89224,43.08393],[-70.87544,43.08042],[-70.86278,43.08857],[-70.86094,43.09462],[-70.86196,43.11144],[-70.85978,43.11559],[-70.86245,43.12436],[-70.8469,43.12609],[-70.83783,43.11948],[-70.82578,43.11803],[-70.82,43.12259],[-70.8268,43.12709],[-70.8338,43.14689],[-70.8291,43.15789],[-70.8283,43.16899],[-70.8235,43.17459],[-70.8283,43.18669],[-70.8207,43.19166],[-70.82076,43.19978],[-70.8169,43.2146],[-70.80967,43.22456],[-70.81545,43.22902],[-70.81786,43.23791],[-70.83868,43.24293],[-70.8433,43.25432],[-70.85961,43.25734],[-70.86323,43.26511],[-70.87029,43.26631],[-70.8743,43.27187],[-70.8817,43.27248],[-70.8865,43.28278],[-70.8963,43.28528],[-70.90139,43.29876],[-70.91162,43.30995],[-70.912,43.31982],[-70.91642,43.32028],[-70.93078,43.32957],[-70.93711,43.33737],[-70.95653,43.33469],[-70.96044,43.34105],[-70.96723,43.34378],[-70.97486,43.35797],[-70.97641,43.36727],[-70.98433,43.37613],[-70.98739,43.39346],[-70.98282,43.39931],[-70.98668,43.40354],[-70.98681,43.41426],[-70.96836,43.42928],[-70.96878,43.43489],[-70.96115,43.43832],[-70.9669,43.45046],[-70.96045,43.46659],[-70.96957,43.4862],[-70.95919,43.49935],[-70.95404,43.5188],[-70.95822,43.53159],[-70.96334,43.53525],[-70.96216,43.54103],[-70.96919,43.53555],[-70.99931,43.50727],[-71.02424,43.48291],[-71.03793,43.52983],[-71.04452,43.5248],[-71.06309,43.52418],[-71.06756,43.52724],[-71.08484,43.50669],[-71.08948,43.51269],[-71.09694,43.51168],[-71.10208,43.50688],[-71.1115,43.50671],[-71.12781,43.57279],[-71.15268,43.54762],[-71.16267,43.53896],[-71.1908,43.51503],[-71.17412,43.42317],[-71.16241,43.36644],[-71.15936,43.35512],[-71.19322,43.32416],[-71.20757,43.308],[-71.23601,43.28499]]]},"properties":{"STATEFP":"33","COUNTYFP":"017","COUNTYNS":"00873182","GEOIDFQ":"0500000US33017","GEOID":"33017","NAME":"Strafford","NAMELSAD":"Strafford County","STUSPS":"NH","STATE_NAME":"New Hampshire","LSAD":"06","ALAND":951724112,"AWATER":39173382}},
{"type":"Feature","geometry":{"type":"Polygon","coordinates":[[[-71.76569,44.40631],[-71.77861,44.3998],[-71.79069,44.40026],[-71.80235,44.39338],[-71.7999,44.38595],[-71.81439,44.38193],[-71.81629,44.3674],[-71.81241,44.35733],[-71.81884,44.35294],[-71.83326,44.35014],[-71.85263,44.34087],[-71.87247,44.33663],[-71.90233,44.3475],[-71.91743,44.34654],[-71.92911,44.33758],[-71.93539,44.33577],[-71.94516,44.33774],[-71.96313,44.33656],[-71.98112,44.3375],[-71.98648,44.33122],[-72.00388,44.32409],[-72.0189,44.32022],[-72.02906,44.3224],[-72.0319,44.31565],[-72.03272,44.30247],[-72.03951,44.29594],[-72.05335,44.2905],[-72.05888,44.28624],[-72.06843,44.2713],[-72.05856,44.26908],[-72.05978,44.25689],[-72.04789,44.23849],[-72.05358,44.22604],[-72.0525,44.21888],[-72.05954,44.21032],[-72.06007,44.20045],[-72.06617,44.18977],[-72.0575,44.17944],[-72.05302,44.1679],[-72.04107,44.15428],[-72.04188,44.13762],[-72.03341,44.1311],[-72.03692,44.12527],[-72.04643,44.12391],[-72.05234,44.11989],[-72.05514,44.11042],[-72.05239,44.10109],[-72.04313,44.09724],[-72.04005,44.10335],[-72.0309,44.09972],[-72.03236,44.09153],[-72.04438,44.086],[-72.03324,44.08151],[-72.05249,44.07672],[-72.04893,44.06901],[-72.05729,44.05834],[-72.06761,44.05803],[-72.06562,44.04915],[-72.07832,44.04338],[-72.07484,44.03299],[-72.08548,44.02126],[-72.09326,44.02402],[-72.09519,44.01667],[-72.10573,44.0111],[-72.10358,44.00423],[-72.11698,43.99448],[-72.11218,43.98685],[-72.11473,43.96833],[-72.10515,43.96989],[-72.09909,43.95738],[-72.10444,43.95089],[-72.11691,43.94749],[-72.1192,43.94341],[-72.11693,43.93439],[-72.11815,43.92361],[-72.12394,43.91704],[-72.13548,43.90957],[-72.15132,43.9017],[-72.16164,43.88676],[-72.17056,43.88618],[-72.17358,43.87967],[-72.16791,43.86911],[-72.18285,43.86552],[-72.18792,43.85613],[-72.18286,43.84511],[-72.1822,43.83403],[-72.18852,43.82329],[-72.18418,43.81252],[-72.18485,43.8047],[-72.19075,43.80081],[-72.19508,43.79233],[-72.20554,43.78458],[-72.20514,43.77114],[-72.22012,43.76363],[-72.23418,43.74597],[-72.24507,43.74309],[-72.26447,43.7339],[-72.27178,43.73341],[-72.27527,43.72753],[-72.28481,43.72036],[-72.29221,43.71133],[-72.29956,43.70628],[-72.30513,43.69532],[-72.30602,43.68306],[-72.30309,43.67808],[-72.30577,43.66654],[-72.31402,43.65616],[-72.31525,43.64116],[-72.32739,43.63677],[-72.32724,43.63053],[-72.33236,43.62507],[-72.33474,43.61452],[-72.32823,43.60684],[-72.32968,43.60018],[-72.27469,43.59284],[-72.20831,43.58521],[-72.17119,43.57399],[-72.10641,43.55349],[-72.12018,43.5383],[-72.09089,43.52886],[-72.06952,43.55317],[-72.06716,43.54397],[-71.93531,43.52888],[-71.90518,43.55968],[-71.89211,43.57462],[-71.8492,43.6112],[-71.8181,43.54814],[-71.80428,43.55275],[-71.79749,43.55941],[-71.78557,43.56156],[-71.7775,43.5525],[-71.76102,43.56773],[-71.75548,43.56545],[-71.74162,43.56857],[-71.73055,43.56773],[-71.72757,43.56341],[-71.72481,43.57059],[-71.71571,43.5779],[-71.72029,43.5828],[-71.73149,43.5885],[-71.73062,43.59262],[-71.72014,43.59523],[-71.71329,43.60054],[-71.70458,43.59536],[-71.6881,43.59495],[-71.66304,43.60804],[-71.66505,43.61357],[-71.65115,43.62112],[-71.65675,43.63197],[-71.65222,43.63667],[-71.65074,43.64505],[-71.65512,43.66126],[-71.64882,43.67325],[-71.65121,43.68022],[-71.64835,43.68451],[-71.62145,43.6878],[-71.52147,43.69799],[-71.53166,43.76098],[-71.53802,43.79648],[-71.54381,43.79604],[-71.5646,43.89317],[-71.36196,43.91594],[-71.38361,44.02261],[-71.37641,44.02971],[-71.34666,44.06882],[-71.36635,44.06852],[-71.38163,44.09787],[-71.37649,44.10407],[-71.37652,44.11887],[-71.38714,44.1552],[-71.41317,44.16746],[-71.42651,44.2109],[-71.4159,44.21217],[-71.44334,44.24917],[-71.46971,44.25994],[-71.50584,44.25556],[-71.50741,44.2629],[-71.57582,44.2546],[-71.587,44.30476],[-71.68692,44.33658],[-71.69688,44.33212],[-71.73725,44.37507],[-71.76569,44.40631]]]},"properties":{"STATEFP":"33","COUNTYFP":"009","COUNTYNS":"00873178","GEOIDFQ":"0500000US33009","GEOID":"33009","NAME":"Grafton","NAMELSAD":"Grafton County","STUSPS":"NH","STATE_NAME":"New Hampshire","LSAD":"06","ALAND":4425249955,"AWATER":106463890}},
{"type":"Feature","geometry":{"type":"Polygon","coordinates":[[[-71.4159,44.21217],[-71.39487,44.21468],[-71.38424,44.17884],[-71.35648,44.16584],[-71.34322,44.12347],[-71.34359,44.09205],[-71.33588,44.08575],[-71.3241,44.0916],[-71.31176,44.09176],[-71.30245,44.1374],[-71.30604,44.13727],[-71.25196,44.24427],[-71.09843,44.23545],[-71.07036,44.23754],[-71.04228,44.23751],[-71.04211,44.27494],[-71.04439,44.28378],[-71.01027,44.28489],[-71.01275,44.34078],[-71.01536,44.37811],[-71.02077,44.47374],[-71.02299,44.50006],[-71.02666,44.55815],[-71.03104,44.65546],[-71.0367,44.7365],[-71.03752,44.75561],[-71.04465,44.84504],[-71.05271,44.93084],[-71.05786,45.00005],[-71.059,45.00492],[-71.06939,45.14404],[-71.0726,45.18094],[-71.07691,45.24691],[-71.08392,45.30545],[-71.09777,45.30191],[-71.10515,45.29464],[-71.11074,45.28458],[-71.10734,45.27861],[-71.11588,45.27456],[-71.11991,45.26229],[-71.13399,45.24417],[-71.14817,45.24241],[-71.16284,45.25033],[-71.17337,45.24635],[-71.17858,45.24139],[-71.18744,45.2477],[-71.20303,45.2543],[-71.2118,45.25046],[-71.22805,45.24969],[-71.23536,45.26035],[-71.26304,45.2774],[-71.26494,45.29345],[-71.27232,45.29669],[-71.27922,45.29498],[-71.28368,45.30198],[-71.30111,45.29656],[-71.30901,45.28724],[-71.33173,45.27997],[-71.33639,45.27307],[-71.36322,45.26643],[-71.35683,45.25718],[-71.36301,45.24821],[-71.37669,45.24491],[-71.38317,45.2349],[-71.40264,45.24259],[-71.42033,45.23272],[-71.43855,45.23277],[-71.41723,45.22129],[-71.41555,45.218],[-71.40327,45.21535],[-71.39781,45.20355],[-71.40564,45.19814],[-71.40528,45.19302],[-71.41906,45.17049],[-71.42462,45.16587],[-71.42675,45.15326],[-71.43318,45.14917],[-71.43579,45.13966],[-71.42887,45.1357],[-71.42883,45.12388],[-71.4481,45.11211],[-71.44926,45.10452],[-71.46484,45.09302],[-71.4683,45.08409],[-71.47732,45.08295],[-71.48634,45.0785],[-71.48915,45.07357],[-71.4984,45.06963],[-71.4961,45.06508],[-71.49774,45.05475],[-71.50522,45.04879],[-71.49115,45.04177],[-71.49994,45.02632],[-71.50109,45.01335],[-71.46455,45.01364],[-71.47846,45.00749],[-71.48055,45.00233],[-71.48968,45.00114],[-71.50425,45.00822],[-71.52479,45.00192],[-71.53619,44.99459],[-71.53865,44.98726],[-71.52661,44.97127],[-71.51625,44.96409],[-71.51493,44.94416],[-71.51708,44.93588],[-71.51544,44.92692],[-71.50448,44.91906],[-71.49602,44.9089],[-71.51409,44.89315],[-71.51874,44.88481],[-71.53433,44.86947],[-71.54552,44.86613],[-71.54752,44.85675],[-71.55548,44.84701],[-71.55065,44.8385],[-71.55692,44.8342],[-71.56235,44.82328],[-71.57346,44.82064],[-71.57605,44.81243],[-71.56867,44.80746],[-71.57313,44.79795],[-71.57131,44.79334],[-71.57972,44.78473],[-71.59249,44.78267],[-71.5951,44.77541],[-71.61177,44.76435],[-71.61667,44.7563],[-71.63188,44.75246],[-71.62515,44.74275],[-71.62625,44.72904],[-71.61704,44.72825],[-71.61873,44.72247],[-71.59879,44.70327],[-71.59414,44.69693],[-71.59795,44.69177],[-71.59422,44.68382],[-71.59609,44.67764],[-71.58616,44.67435],[-71.58575,44.6579],[-71.57881,44.65098],[-71.56281,44.65236],[-71.55787,44.64122],[-71.56328,44.63665],[-71.55214,44.63008],[-71.55653,44.61958],[-71.55362,44.6083],[-71.56042,44.59977],[-71.55337,44.59317],[-71.53988,44.58997],[-71.53718,44.58526],[-71.54653,44.57782],[-71.54937,44.56964],[-71.55784,44.57027],[-71.55905,44.56445],[-71.5696,44.56278],[-71.58766,44.5658],[-71.59614,44.5609],[-71.59713,44.55385],[-71.57444,44.54064],[-71.57453,44.53175],[-71.58295,44.52335],[-71.59426,44.52168],[-71.58285,44.50818],[-71.57681,44.50408],[-71.59521,44.49341],[-71.59933,44.48628],[-71.60953,44.4842],[-71.61784,44.48584],[-71.62456,44.47518],[-71.63344,44.47821],[-71.6449,44.4752],[-71.64556,44.46893],[-71.63899,44.46441],[-71.64352,44.46059],[-71.65255,44.46052],[-71.65637,44.45516],[-71.65971,44.44147],[-71.66345,44.43779],[-71.67928,44.43434],[-71.67599,44.42871],[-71.70219,44.41383],[-71.71461,44.40956],[-71.72262,44.41087],[-71.73662,44.40945],[-71.74232,44.40141],[-71.75609,44.4064],[-71.76569,44.40631],[-71.73725,44.37507],[-71.69688,44.33212],[-71.68692,44.33658],[-71.587,44.30476],[-71.57582,44.2546],[-71.50741,44.2629],[-71.50584,44.25556],[-71.46971,44.25994],[-71.44334,44.24917],[-71.4159,44.21217]]]},"properties":{"STATEFP":"33","COUNTYFP":"007","COUNTYNS":"00873177","GEOIDFQ":"0500000US33007","GEOID":"33007","NAME":"Coos","NAMELSAD":"Coos County","STUSPS":"NH","STATE_NAME":"New Hampshire","LSAD":"06","ALAND":4647924493,"AWATER":92541532}},
{"type":"Feature","geometry":{"type":"Polygon","coordinates":[[[-71.24734,43.27523],[-71.25208,43.26398],[-71.2628,43.25007],[-71.27615,43.22611],[-71.31551,43.16206],[-71.31771,43.1624],[-71.32927,43.14095],[-71.35612,43.10204],[-71.39223,43.03929],[-71.40296,43.04105],[-71.39239,43.00931],[-71.37543,42.93932],[-71.44979,42.93109],[-71.45123,42.93044],[-71.44365,42.89617],[-71.42707,42.82484],[-71.3872,42.82356],[-71.36068,42.79896],[-71.36504,42.79179],[-71.36442,42.78524],[-71.35154,42.78061],[-71.35103,42.77218],[-71.26009,42.75573],[-71.24554,42.74257],[-71.2239,42.74669],[-71.1818,42.73759],[-71.1861,42.79069],[-71.1656,42.80869],[-71.1325,42.82139],[-71.0642,42.80629],[-71.0536,42.83309],[-71.0444,42.84879],[-71.0312,42.85909],[-70.9665,42.86899],[-70.9308,42.88459],[-70.90277,42.88653],[-70.88614,42.88261],[-70.84862,42.86094],[-70.83079,42.86892],[-70.8173,42.87229],[-70.81574,42.88453],[-70.811,42.89238],[-70.81068,42.90689],[-70.80597,42.91655],[-70.79815,42.92093],[-70.79781,42.93004],[-70.794,42.93989],[-70.78616,42.94404],[-70.78513,42.95079],[-70.7756,42.95721],[-70.76967,42.96442],[-70.7718,42.96806],[-70.76432,42.97375],[-70.76457,42.9802],[-70.7567,42.99134],[-70.74997,42.99169],[-70.74301,43.00167],[-70.74036,43.01117],[-70.73548,43.0122],[-70.72844,43.0276],[-70.71894,43.03235],[-70.71208,43.04373],[-70.71153,43.05798],[-70.7038,43.05957],[-70.7065,43.07533],[-70.73808,43.07382],[-70.7419,43.07739],[-70.7564,43.07999],[-70.768,43.09359],[-70.7791,43.09589],[-70.78388,43.10087],[-70.80871,43.11707],[-70.82,43.12259],[-70.82578,43.11803],[-70.83783,43.11948],[-70.8469,43.12609],[-70.86245,43.12436],[-70.85978,43.11559],[-70.86196,43.11144],[-70.86094,43.09462],[-70.86278,43.08857],[-70.87544,43.08042],[-70.89224,43.08393],[-70.93406,43.09011],[-70.9808,43.08237],[-71.07294,43.08168],[-71.02669,43.13795],[-71.12795,43.20007],[-71.20627,43.25006],[-71.24734,43.27523]]]},"properties":{"STATEFP":"33","COUNTYFP":"015","COUNTYNS":"00873181","GEOIDFQ":"0500000US33015","GEOID":"33015","NAME":"Rockingham","NAMELSAD":"Rockingham County","STUSPS":"NH","STATE_NAME":"New Hampshire","LSAD":"06","ALAND":1801152748,"AWATER":258528921}},
{"type":"Feature","geometry":{"type":"Polygon","coordinates":[[[-71.23601,43.28499],[-71.34905,43.34658],[-71.47145,43.4113],[-71.48892,43.42095],[-71.54942,43.45239],[-71.56115,43.4548],[-71.57043,43.45177],[-71.5753,43.44655],[-71.58467,43.44458],[-71.60108,43.43501],[-71.60309,43.43996],[-71.61189,43.43782],[-71.61998,43.44387],[-71.62815,43.45856],[-71.63002,43.47736],[-71.63807,43.49175],[-71.65347,43.48762],[-71.65486,43.492],[-71.67729,43.50049],[-71.68031,43.50589],[-71.69145,43.51614],[-71.68866,43.52927],[-71.70635,43.53762],[-71.71561,43.55124],[-71.7222,43.55296],[-71.72757,43.56341],[-71.73055,43.56773],[-71.74162,43.56857],[-71.75548,43.56545],[-71.76102,43.56773],[-71.7775,43.5525],[-71.78557,43.56156],[-71.79749,43.55941],[-71.80428,43.55275],[-71.8181,43.54814],[-71.8492,43.6112],[-71.89211,43.57462],[-71.90518,43.55968],[-71.93531,43.52888],[-71.99031,43.46492],[-72.01136,43.43687],[-72.05375,43.4411],[-72.05804,43.42325],[-72.04681,43.41086],[-72.04875,43.38575],[-72.05159,43.37612],[-72.09015,43.32255],[-72.06544,43.25508],[-72.04528,43.25477],[-72.04154,43.22272],[-72.00907,43.18788],[-71.99953,43.19009],[-71.91321,43.2071],[-71.8561,43.11514],[-71.79618,43.12758],[-71.66777,43.15253],[-71.65256,43.09732],[-71.64129,43.05417],[-71.51747,43.06891],[-71.51277,43.04962],[-71.48911,43.05178],[-71.48358,43.04171],[-71.47398,43.03527],[-71.45478,43.044],[-71.44996,43.02007],[-71.39239,43.00931],[-71.40296,43.04105],[-71.39223,43.03929],[-71.35612,43.10204],[-71.32927,43.14095],[-71.31771,43.1624],[-71.31551,43.16206],[-71.27615,43.22611],[-71.2628,43.25007],[-71.25208,43.26398],[-71.24734,43.27523],[-71.23601,43.28499]]]},"properties":{"STATEFP":"33","COUNTYFP":"013","COUNTYNS":"00873180","GEOIDFQ":"0500000US33013","GEOID":"33013","NAME":"Merrimack","NAMELSAD":"Merrimack County","STUSPS":"NH","STATE_NAME":"New Hampshire","LSAD":"06","ALAND":2416176927,"AWATER":57199007}},
{"type":"Feature","geometry":{"type":"Polygon","coordinates":[[[-72.45209,43.16134],[-72.45155,43.15516],[-72.45689,43.14656],[-72.45199,43.13892],[-72.4409,43.13579],[-72.44293,43.13019],[-72.43297,43.11966],[-72.43484,43.10992],[-72.44305,43.10084],[-72.43519,43.08662],[-72.43619,43.08173],[-72.4452,43.07135],[-72.46381,43.0574],[-72.46736,43.05265],[-72.46025,43.04067],[-72.46299,43.02853],[-72.45704,43.01729],[-72.44464,43.01057],[-72.44871,43.00117],[-72.45995,43.00008],[-72.46533,42.98956],[-72.46163,42.98291],[-72.47383,42.97205],[-72.48171,42.97399],[-72.4926,42.96765],[-72.51842,42.96317],[-72.53219,42.95495],[-72.53455,42.94989],[-72.52662,42.9399],[-72.5271,42.92858],[-72.52424,42.9185],[-72.53022,42.91158],[-72.53147,42.89795],[-72.54071,42.88938],[-72.55283,42.88497],[-72.55621,42.86695],[-72.55423,42.86004],[-72.55725,42.85302],[-72.54855,42.84202],[-72.54477,42.82047],[-72.5396,42.80483],[-72.51835,42.79065],[-72.50886,42.77992],[-72.50837,42.77461],[-72.51673,42.76867],[-72.5131,42.76382],[-72.49112,42.77247],[-72.47594,42.7577],[-72.47307,42.74592],[-72.461,42.73321],[-72.45852,42.72685],[-72.28595,42.72163],[-72.12453,42.71764],[-71.9814,42.71329],[-71.92902,42.71224],[-71.94105,42.77607],[-71.94428,42.78841],[-71.97471,42.7894],[-71.99502,42.88455],[-72.00619,42.94379],[-72.06222,42.9448],[-72.05795,43.01892],[-72.04197,43.08224],[-72.0435,43.08199],[-72.03408,43.12875],[-72.03815,43.12881],[-72.12315,43.12972],[-72.1785,43.13187],[-72.1732,43.14896],[-72.15666,43.18197],[-72.27039,43.16892],[-72.33214,43.16284],[-72.33033,43.15517],[-72.37644,43.15768],[-72.37204,43.13212],[-72.43163,43.13564],[-72.43209,43.15982],[-72.45209,43.16134]]]},"properties":{"STATEFP":"33","COUNTYFP":"005","COUNTYNS":"00873176","GEOIDFQ":"0500000US33005","GEOID":"33005","NAME":"Cheshire","NAMELSAD":"Cheshire County","STUSPS":"NH","STATE_NAME":"New Hampshire","LSAD":"06","ALAND":1830367239,"AWATER":57589060}},
{"type":"Feature","geometry":{"type":"Polygon","coordinates":[[[-70.96216,43.54103],[-70.95343,43.54438],[-70.95084,43.55103],[-70.95586,43.55979],[-70.97272,43.57026],[-70.97571,43.62508],[-70.98195,43.70096],[-70.98208,43.71504],[-70.9849,43.75298],[-70.98907,43.79244],[-70.98993,43.83924],[-70.99265,43.89624],[-70.99284,43.91627],[-70.99844,44.0411],[-71.00137,44.09293],[-71.00857,44.24549],[-71.01027,44.28489],[-71.04439,44.28378],[-71.04211,44.27494],[-71.04228,44.23751],[-71.07036,44.23754],[-71.09843,44.23545],[-71.25196,44.24427],[-71.30604,44.13727],[-71.30245,44.1374],[-71.31176,44.09176],[-71.3241,44.0916],[-71.33588,44.08575],[-71.34359,44.09205],[-71.34322,44.12347],[-71.35648,44.16584],[-71.38424,44.17884],[-71.39487,44.21468],[-71.4159,44.21217],[-71.42651,44.2109],[-71.41317,44.16746],[-71.38714,44.1552],[-71.37652,44.11887],[-71.37649,44.10407],[-71.38163,44.09787],[-71.36635,44.06852],[-71.34666,44.06882],[-71.37641,44.02971],[-71.38361,44.02261],[-71.36196,43.91594],[-71.5646,43.89317],[-71.54381,43.79604],[-71.53802,43.79648],[-71.53166,43.76098],[-71.46039,43.70972],[-71.3306,43.62007],[-71.25795,43.57129],[-71.22768,43.56459],[-71.20894,43.55052],[-71.19946,43.55913],[-71.16267,43.53896],[-71.15268,43.54762],[-71.12781,43.57279],[-71.1115,43.50671],[-71.10208,43.50688],[-71.09694,43.51168],[-71.08948,43.51269],[-71.08484,43.50669],[-71.06756,43.52724],[-71.06309,43.52418],[-71.04452,43.5248],[-71.03793,43.52983],[-71.02424,43.48291],[-70.99931,43.50727],[-70.96919,43.53555],[-70.96216,43.54103]]]},"properties":{"STATEFP":"33","COUNTYFP":"003","COUNTYNS":"00873175","GEOIDFQ":"0500000US33003","GEOID":"33003","NAME":"Carroll","NAMELSAD":"Carroll County","STUSPS":"NH","STATE_NAME":"New Hampshire","LSAD":"06","ALAND":2413516774,"AWATER":159618928}},
{"type":"Feature","geometry":{"type":"Polygon","coordinates":[[[-72.32968,43.60018],[-72.34993,43.58773],[-72.37337,43.57967],[-72.38015,43.57362],[-72.38262,43.56413],[-72.38038,43.54088],[-72.3891,43.52827],[-72.39422,43.5274],[-72.39856,43.51344],[-72.3963,43.50806],[-72.38477,43.50026],[-72.38089,43.49339],[-72.38172,43.48009],[-72.39263,43.46508],[-72.39057,43.45123],[-72.39566,43.43854],[-72.40381,43.39194],[-72.41315,43.3843],[-72.41598,43.37653],[-72.41338,43.36274],[-72.40395,43.3581],[-72.39092,43.35498],[-72.40098,43.34578],[-72.41035,43.33168],[-72.4087,43.32767],[-72.39546,43.31299],[-72.40167,43.3034],[-72.40784,43.28289],[-72.42158,43.26344],[-72.43522,43.25848],[-72.43869,43.25291],[-72.43894,43.24424],[-72.43368,43.23343],[-72.4405,43.21905],[-72.43772,43.20275],[-72.45028,43.19249],[-72.44375,43.18222],[-72.45256,43.17212],[-72.45209,43.16134],[-72.43209,43.15982],[-72.43163,43.13564],[-72.37204,43.13212],[-72.37644,43.15768],[-72.33033,43.15517],[-72.33214,43.16284],[-72.27039,43.16892],[-72.15666,43.18197],[-72.1732,43.14896],[-72.1785,43.13187],[-72.12315,43.12972],[-72.03815,43.12881],[-72.02348,43.16013],[-72.03684,43.18247],[-72.00907,43.18788],[-72.04154,43.22272],[-72.04528,43.25477],[-72.06544,43.25508],[-72.09015,43.32255],[-72.05159,43.37612],[-72.04875,43.38575],[-72.04681,43.41086],[-72.05804,43.42325],[-72.05375,43.4411],[-72.01136,43.43687],[-71.99031,43.46492],[-71.93531,43.52888],[-72.06716,43.54397],[-72.06952,43.55317],[-72.09089,43.52886],[-72.12018,43.5383],[-72.10641,43.55349],[-72.17119,43.57399],[-72.20831,43.58521],[-72.27469,43.59284],[-72.32968,43.60018]]]},"properties":{"STATEFP":"33","COUNTYFP":"019","COUNTYNS":"00873183","GEOIDFQ":"0500000US33019","GEOID":"33019","NAME":"Sullivan","NAMELSAD":"Sullivan County","STUSPS":"NH","STATE_NAME":"New Hampshire","LSAD":"06","ALAND":1393091317,"AWATER":36932078}},
{"type":"Feature","geometry":{"type":"Polygon","coordinates":[[[-71.39239,43.00931],[-71.44996,43.02007],[-71.45478,43.044],[-71.47398,43.03527],[-71.48358,43.04171],[-71.48911,43.05178],[-71.51277,43.04962],[-71.51747,43.06891],[-71.64129,43.05417],[-71.65256,43.09732],[-71.66777,43.15253],[-71.79618,43.12758],[-71.8561,43.11514],[-71.91321,43.2071],[-71.99953,43.19009],[-72.00907,43.18788],[-72.03684,43.18247],[-72.02348,43.16013],[-72.03815,43.12881],[-72.03408,43.12875],[-72.0435,43.08199],[-72.04197,43.08224],[-72.05795,43.01892],[-72.06222,42.9448],[-72.00619,42.94379],[-71.99502,42.88455],[-71.97471,42.7894],[-71.94428,42.78841],[-71.94105,42.77607],[-71.92902,42.71224],[-71.74582,42.70729],[-71.56731,42.70326],[-71.35187,42.69815],[-71.33021,42.69719],[-71.29421,42.69699],[-71.27893,42.71126],[-71.2679,42.72589],[-71.2556,42.73639],[-71.24554,42.74257],[-71.26009,42.75573],[-71.35103,42.77218],[-71.35154,42.78061],[-71.36442,42.78524],[-71.36504,42.79179],[-71.36068,42.79896],[-71.3872,42.82356],[-71.42707,42.82484],[-71.44365,42.89617],[-71.45123,42.93044],[-71.44979,42.93109],[-71.37543,42.93932],[-71.39239,43.00931]]]},"properties":{"STATEFP":"33","COUNTYFP":"011","COUNTYNS":"00873179","GEOIDFQ":"0500000US33011","GEOID":"33011","NAME":"Hillsborough","NAMELSAD":"Hillsborough County","STUSPS":"NH","STATE_NAME":"New Hampshire","LSAD":"06","ALAND":2270221473,"AWATER":41290396}},
{"type":"Feature","geometry":{"type":"Polygon","coordinates":[[[-71.16267,43.53896],[-71.19946,43.55913],[-71.20894,43.55052],[-71.22768,43.56459],[-71.25795,43.57129],[-71.3306,43.62007],[-71.46039,43.70972],[-71.53166,43.76098],[-71.52147,43.69799],[-71.62145,43.6878],[-71.64835,43.68451],[-71.65121,43.68022],[-71.64882,43.67325],[-71.65512,43.66126],[-71.65074,43.64505],[-71.65222,43.63667],[-71.65675,43.63197],[-71.65115,43.62112],[-71.66505,43.61357],[-71.66304,43.60804],[-71.6881,43.59495],[-71.70458,43.59536],[-71.71329,43.60054],[-71.72014,43.59523],[-71.73062,43.59262],[-71.73149,43.5885],[-71.72029,43.5828],[-71.71571,43.5779],[-71.72481,43.57059],[-71.72757,43.56341],[-71.7222,43.55296],[-71.71561,43.55124],[-71.70635,43.53762],[-71.68866,43.52927],[-71.69145,43.51614],[-71.68031,43.50589],[-71.67729,43.50049],[-71.65486,43.492],[-71.65347,43.48762],[-71.63807,43.49175],[-71.63002,43.47736],[-71.62815,43.45856],[-71.61998,43.44387],[-71.61189,43.43782],[-71.60309,43.43996],[-71.60108,43.43501],[-71.58467,43.44458],[-71.5753,43.44655],[-71.57043,43.45177],[-71.56115,43.4548],[-71.54942,43.45239],[-71.48892,43.42095],[-71.47145,43.4113],[-71.34905,43.34658],[-71.23601,43.28499],[-71.20757,43.308],[-71.19322,43.32416],[-71.15936,43.35512],[-71.16241,43.36644],[-71.17412,43.42317],[-71.1908,43.51503],[-71.16267,43.53896]]]},"properties":{"STATEFP":"33","COUNTYFP":"001","COUNTYNS":"00873174","GEOIDFQ":"0500000US33001","GEOID":"33001","NAME":"Belknap","NAMELSAD":"Belknap County","STUSPS":"NH","STATE_NAME":"New Hampshire","LSAD":"06","ALAND":1040786578,"AWATER":176534288}}
]}