{"type":"FeatureCollection", "features": [
{"type":"Feature","geometry":{"type":"Polygon","coordinates":[[[-74.98527,39.51497],[-74.89679,39.45266],[-74.87174,39.43578],[-74.85698,39.42497],[-74.85311,39.41554],[-74.85324,39.40807],[-74.85729,39.40301],[-74.85794,39.39485],[-74.85188,39.38304],[-74.85341,39.37232],[-74.85866,39.36439],[-74.85924,39.35903],[-74.86491,39.33847],[-74.86417,39.3284],[-74.86129,39.32382],[-74.86061,39.31945],[-74.851,39.31622],[-74.83755,39.31488],[-74.82526,39.30539],[-74.82041,39.30704],[-74.80943,39.30608],[-74.80064,39.30845],[-74.79297,39.30489],[-74.79008,39.30741],[-74.78378,39.3072],[-74.77364,39.30098],[-74.76222,39.2968],[-74.75437,39.29915],[-74.75228,39.29502],[-74.74093,39.29555],[-74.73159,39.29864],[-74.72844,39.29645],[-74.72167,39.29826],[-74.71969,39.29421],[-74.70936,39.29149],[-74.70151,39.29387],[-74.69957,39.28935],[-74.69039,39.29102],[-74.68656,39.29416],[-74.68076,39.29391],[-74.67561,39.29682],[-74.66173,39.29783],[-74.65798,39.29566],[-74.65817,39.28966],[-74.64918,39.28991],[-74.64341,39.29549],[-74.63278,39.29513],[-74.6246,39.29243],[-74.618,39.29352],[-74.59177,39.30934],[-74.58369,39.30886],[-74.56811,39.29908],[-74.55686,39.29882],[-74.54882,39.30175],[-74.54866,39.3011],[-74.53591,39.30358],[-74.51549,39.31756],[-74.49212,39.32976],[-74.45989,39.34502],[-74.43884,39.35265],[-74.42363,39.3554],[-74.41269,39.36082],[-74.40824,39.36507],[-74.40557,39.37281],[-74.38859,39.3863],[-74.36699,39.40202],[-74.33397,39.43511],[-74.33099,39.43979],[-74.33501,39.44564],[-74.33417,39.45096],[-74.32805,39.45435],[-74.31921,39.46452],[-74.31311,39.47366],[-74.31216,39.48356],[-74.32333,39.49989],[-74.32638,39.50633],[-74.33859,39.50686],[-74.35421,39.50557],[-74.36097,39.50203],[-74.3808,39.49854],[-74.40168,39.53792],[-74.40953,39.54711],[-74.41622,39.5498],[-74.41739,39.55726],[-74.42785,39.55316],[-74.43393,39.55563],[-74.43835,39.55131],[-74.43425,39.54658],[-74.43445,39.54196],[-74.44088,39.54211],[-74.44573,39.54635],[-74.44357,39.55476],[-74.44556,39.55857],[-74.45261,39.55691],[-74.45345,39.54857],[-74.45958,39.54858],[-74.46216,39.55609],[-74.46776,39.55567],[-74.47566,39.55146],[-74.48247,39.55839],[-74.4919,39.55559],[-74.49615,39.5625],[-74.50592,39.56965],[-74.51223,39.56995],[-74.51702,39.57415],[-74.52171,39.57025],[-74.52863,39.56999],[-74.53239,39.57337],[-74.54056,39.57561],[-74.54264,39.57912],[-74.54198,39.58582],[-74.54905,39.59031],[-74.55429,39.59848],[-74.56333,39.59672],[-74.57575,39.59839],[-74.58513,39.60495],[-74.58872,39.6118],[-74.59726,39.61468],[-74.61153,39.623],[-74.62427,39.62628],[-74.62761,39.62039],[-74.63204,39.62214],[-74.63481,39.62797],[-74.64022,39.62556],[-74.64796,39.62507],[-74.65921,39.63114],[-74.65998,39.63912],[-74.65826,39.65685],[-74.66048,39.6688],[-74.66494,39.67478],[-74.66797,39.6837],[-74.67332,39.68651],[-74.67614,39.69162],[-74.73622,39.72977],[-74.87726,39.60835],[-74.98527,39.51497]]]},"properties":{"STATEFP":"34","COUNTYFP":"001","COUNTYNS":"00882270","GEOIDFQ":"0500000US34001","GEOID":"34001","NAME":"Atlantic","NAMELSAD":"Atlantic County","STUSPS":"NJ","STATE_NAME":"New Jersey","LSAD":"06","ALAND":1438939255,"AWATER":301106094}},
{"type":"Feature","geometry":{"type":"Polygon","coordinates":[[[-74.86129,39.32382],[-74.86457,39.32438],[-74.86824,39.31806],[-74.87374,39.3126],[-74.88215,39.30838],[-74.89638,39.23505],[-74.91282,39.22697],[-74.92152,39.225],[-74.92576,39.21881],[-74.92539,39.21256],[-74.92253,39.20422],[-74.92573,39.2013],[-74.92253,39.18882],[-74.91669,39.1888],[-74.91219,39.17864],[-74.91478,39.17762],[-74.9043,39.17566],[-74.89985,39.17331],[-74.88717,39.15883],[-74.88591,39.14363],[-74.88956,39.14038],[-74.88934,39.12789],[-74.89145,39.12713],[-74.89255,39.11318],[-74.89778,39.09881],[-74.90366,39.08744],[-74.93832,39.03519],[-74.94947,39.01564],[-74.95536,39.00126],[-74.9642,38.96893],[-74.9631,38.9622],[-74.972,38.94037],[-74.96727,38.93341],[-74.95725,38.93064],[-74.94724,38.93201],[-74.93726,38.93126],[-74.93357,38.92852],[-74.92041,38.92914],[-74.90705,38.93199],[-74.88394,38.94241],[-74.8705,38.94354],[-74.86446,38.94041],[-74.85075,38.95454],[-74.82269,38.9745],[-74.79367,38.99414],[-74.78718,39.00096],[-74.78988,39.00905],[-74.79375,39.01378],[-74.7947,39.02169],[-74.79849,39.02623],[-74.78743,39.03347],[-74.77788,39.02966],[-74.77125,39.03255],[-74.75162,39.05575],[-74.73736,39.07495],[-74.70588,39.10294],[-74.70441,39.10786],[-74.71413,39.11463],[-74.71434,39.1198],[-74.70941,39.12342],[-74.69487,39.14789],[-74.67143,39.1798],[-74.6603,39.19246],[-74.65484,39.19607],[-74.64658,39.21013],[-74.6193,39.24038],[-74.59737,39.25848],[-74.58002,39.27063],[-74.56361,39.2777],[-74.55402,39.28588],[-74.55252,39.29272],[-74.5526,39.30014],[-74.54866,39.3011],[-74.54882,39.30175],[-74.55686,39.29882],[-74.56811,39.29908],[-74.58369,39.30886],[-74.59177,39.30934],[-74.618,39.29352],[-74.6246,39.29243],[-74.63278,39.29513],[-74.64341,39.29549],[-74.64918,39.28991],[-74.65817,39.28966],[-74.65798,39.29566],[-74.66173,39.29783],[-74.67561,39.29682],[-74.68076,39.29391],[-74.68656,39.29416],[-74.69039,39.29102],[-74.69957,39.28935],[-74.70151,39.29387],[-74.70936,39.29149],[-74.71969,39.29421],[-74.72167,39.29826],[-74.72844,39.29645],[-74.73159,39.29864],[-74.74093,39.29555],[-74.75228,39.29502],[-74.75437,39.29915],[-74.76222,39.2968],[-74.77364,39.30098],[-74.78378,39.3072],[-74.79008,39.30741],[-74.79297,39.30489],[-74.80064,39.30845],[-74.80943,39.30608],[-74.82041,39.30704],[-74.82526,39.30539],[-74.83755,39.31488],[-74.851,39.31622],[-74.86061,39.31945],[-74.86129,39.32382]]]},"properties":{"STATEFP":"34","COUNTYFP":"009","COUNTYNS":"00882274","GEOIDFQ":"0500000US34009","GEOID":"34009","NAME":"Cape May","NAMELSAD":"Cape May County","STUSPS":"NJ","STATE_NAME":"New Jersey","LSAD":"06","ALAND":651437187,"AWATER":955149827}},
{"type":"Feature","geometry":{"type":"Polygon","coordinates":[[[-74.9671,41.09434],[-74.96839,41.0878],[-74.98259,41.07917],[-74.98933,41.07832],[-74.99962,41.07394],[-75.00638,41.06755],[-75.0131,41.06649],[-75.01707,41.05677],[-75.0264,41.04644],[-75.0271,41.03953],[-75.036,41.03622],[-75.04179,41.0317],[-75.075,41.01713],[-75.0811,41.01684],[-75.09263,41.00992],[-75.10911,41.0041],[-75.11059,41.00217],[-75.12342,40.99613],[-75.13057,40.99109],[-75.13309,40.98018],[-75.13552,40.97686],[-75.13378,40.97097],[-75.12907,40.96898],[-75.1226,40.97015],[-75.11955,40.96626],[-75.12069,40.96253],[-75.11776,40.95302],[-75.11168,40.94811],[-75.10552,40.93629],[-75.09553,40.92415],[-75.07928,40.91389],[-75.07609,40.90704],[-75.07596,40.89569],[-75.07392,40.89218],[-75.06544,40.88568],[-75.05366,40.87366],[-75.05084,40.86807],[-75.05157,40.86404],[-75.05889,40.86039],[-75.06392,40.85542],[-75.0635,40.84946],[-75.07083,40.84739],[-75.07668,40.84987],[-75.09096,40.84919],[-75.09578,40.84708],[-75.09757,40.84097],[-75.09494,40.8371],[-75.08552,40.83008],[-75.08393,40.82447],[-75.09052,40.81591],[-75.10028,40.80758],[-75.1008,40.7998],[-75.1085,40.79109],[-75.12309,40.78675],[-75.1344,40.77376],[-75.14938,40.77479],[-75.16365,40.77839],[-75.17159,40.77775],[-75.17562,40.77292],[-75.17748,40.76423],[-75.18304,40.75934],[-75.1918,40.75583],[-75.19653,40.75163],[-75.19535,40.74547],[-75.18578,40.73727],[-75.1825,40.72992],[-75.18559,40.72637],[-75.18637,40.72027],[-75.19442,40.71402],[-75.19872,40.7053],[-75.20392,40.6915],[-75.19692,40.6813],[-75.19058,40.67938],[-75.18452,40.67997],[-75.17759,40.67773],[-75.17749,40.6726],[-75.18276,40.66597],[-75.19085,40.66194],[-75.19668,40.65512],[-75.20047,40.6469],[-75.19539,40.64308],[-75.19069,40.63589],[-75.18858,40.62463],[-75.19069,40.61996],[-75.19789,40.61933],[-75.20135,40.61463],[-75.19229,40.60268],[-75.19037,40.59164],[-75.18099,40.5942],[-75.17489,40.59893],[-75.17369,40.60321],[-75.16306,40.61097],[-75.1612,40.6182],[-75.15442,40.62169],[-75.14967,40.6205],[-75.14531,40.62898],[-75.13633,40.63015],[-75.12748,40.63444],[-75.11417,40.63717],[-75.10881,40.63949],[-75.10552,40.64491],[-75.09578,40.64825],[-75.08942,40.65517],[-75.07964,40.65927],[-75.07702,40.66355],[-75.06825,40.66861],[-75.06209,40.66974],[-75.0602,40.67303],[-75.04916,40.67946],[-75.04405,40.67871],[-75.03766,40.68363],[-75.03403,40.68357],[-75.01694,40.69461],[-75.01264,40.693],[-75.00245,40.69383],[-74.99146,40.7029],[-74.98131,40.706],[-74.98023,40.71025],[-74.97063,40.70977],[-74.96795,40.71158],[-74.96351,40.72047],[-74.95832,40.72543],[-74.95173,40.72774],[-74.94652,40.73481],[-74.9308,40.74904],[-74.92726,40.75457],[-74.91523,40.76244],[-74.9133,40.76655],[-74.90272,40.77184],[-74.90462,40.78056],[-74.89553,40.78399],[-74.88982,40.78773],[-74.88414,40.79144],[-74.8806,40.79071],[-74.86696,40.79682],[-74.86439,40.80316],[-74.85875,40.80143],[-74.85026,40.80417],[-74.84686,40.8108],[-74.84282,40.81139],[-74.8346,40.82218],[-74.82999,40.82553],[-74.83102,40.829],[-74.81843,40.83695],[-74.82383,40.84411],[-74.82083,40.84965],[-74.81411,40.85122],[-74.80995,40.85448],[-74.80924,40.86021],[-74.802,40.86373],[-74.80829,40.86949],[-74.80589,40.87608],[-74.80678,40.88208],[-74.80383,40.88577],[-74.79165,40.89067],[-74.7903,40.89642],[-74.77606,40.90534],[-74.76942,40.91093],[-74.82269,40.96014],[-74.8603,40.99564],[-74.88665,41.01993],[-74.93933,41.06918],[-74.9671,41.09434]]]},"properties":{"STATEFP":"34","COUNTYFP":"041","COUNTYNS":"00882237","GEOIDFQ":"0500000US34041","GEOID":"34041","NAME":"Warren","NAMELSAD":"Warren County","STUSPS":"NJ","STATE_NAME":"New Jersey","LSAD":"06","ALAND":923435920,"AWATER":15825325}},
{"type":"Feature","geometry":{"type":"Polygon","coordinates":[[[-75.19037,40.59164],[-75.1908,40.58684],[-75.19466,40.58194],[-75.19405,40.57626],[-75.18674,40.56941],[-75.17531,40.565],[-75.16287,40.5641],[-75.15845,40.56529],[-75.14737,40.57315],[-75.13675,40.57573],[-75.11729,40.57321],[-75.10032,40.56781],[-75.0957,40.5644],[-75.0785,40.5483],[-75.06861,40.54222],[-75.0664,40.53653],[-75.06509,40.52615],[-75.06585,40.5195],[-75.06484,40.5035],[-75.06327,40.49936],[-75.06287,40.48164],[-75.06772,40.47367],[-75.06702,40.46531],[-75.07057,40.45517],[-75.06651,40.44718],[-75.06292,40.43341],[-75.06149,40.42285],[-75.05885,40.41807],[-75.04616,40.41397],[-75.03443,40.40607],[-75.02478,40.40346],[-74.99638,40.41053],[-74.9889,40.40877],[-74.97687,40.40185],[-74.96813,40.39913],[-74.964,40.39525],[-74.94872,40.36477],[-74.94295,40.34164],[-74.93228,40.33943],[-74.85626,40.3467],[-74.86968,40.37777],[-74.80202,40.38497],[-74.80847,40.41666],[-74.74815,40.42416],[-74.78249,40.48779],[-74.79788,40.51567],[-74.78572,40.51086],[-74.78139,40.505],[-74.77534,40.50455],[-74.74308,40.55326],[-74.7307,40.56358],[-74.7246,40.56618],[-74.71296,40.58423],[-74.72494,40.58876],[-74.71858,40.59966],[-74.72175,40.6007],[-74.7133,40.6121],[-74.71148,40.61153],[-74.7027,40.62112],[-74.71154,40.62504],[-74.71328,40.63062],[-74.72654,40.63241],[-74.72766,40.63623],[-74.72202,40.64143],[-74.72395,40.64686],[-74.71958,40.65182],[-74.72136,40.65555],[-74.72755,40.65861],[-74.73078,40.66556],[-74.7227,40.67009],[-74.72162,40.67675],[-74.71774,40.68399],[-74.72394,40.68784],[-74.72073,40.69683],[-74.71663,40.69869],[-74.71699,40.70494],[-74.72215,40.71601],[-74.72567,40.71953],[-74.73733,40.72162],[-74.7529,40.73113],[-74.77099,40.73605],[-74.79368,40.74034],[-74.79801,40.74219],[-74.80823,40.74114],[-74.82748,40.74407],[-74.84302,40.75602],[-74.84407,40.75858],[-74.88982,40.78773],[-74.89553,40.78399],[-74.90462,40.78056],[-74.90272,40.77184],[-74.9133,40.76655],[-74.91523,40.76244],[-74.92726,40.75457],[-74.9308,40.74904],[-74.94652,40.73481],[-74.95173,40.72774],[-74.95832,40.72543],[-74.96351,40.72047],[-74.96795,40.71158],[-74.97063,40.70977],[-74.98023,40.71025],[-74.98131,40.706],[-74.99146,40.7029],[-75.00245,40.69383],[-75.01264,40.693],[-75.01694,40.69461],[-75.03403,40.68357],[-75.03766,40.68363],[-75.04405,40.67871],[-75.04916,40.67946],[-75.0602,40.67303],[-75.06209,40.66974],[-75.06825,40.66861],[-75.07702,40.66355],[-75.07964,40.65927],[-75.08942,40.65517],[-75.09578,40.64825],[-75.10552,40.64491],[-75.10881,40.63949],[-75.11417,40.63717],[-75.12748,40.63444],[-75.13633,40.63015],[-75.14531,40.62898],[-75.14967,40.6205],[-75.15442,40.62169],[-75.1612,40.6182],[-75.16306,40.61097],[-75.17369,40.60321],[-75.17489,40.59893],[-75.18099,40.5942],[-75.19037,40.59164]]]},"properties":{"STATEFP":"34","COUNTYFP":"019","COUNTYNS":"00882228","GEOIDFQ":"0500000US34019","GEOID":"34019","NAME":"Hunterdon","NAMELSAD":"Hunterdon County","STUSPS":"NJ","STATE_NAME":"New Jersey","LSAD":"06","ALAND":1108086283,"AWATER":24761599}},
{"type":"Feature","geometry":{"type":"Polygon","coordinates":[[[-74.48496,40.25332],[-74.48566,40.24882],[-74.48148,40.24289],[-74.54327,40.21669],[-74.5486,40.20769],[-74.55741,40.19942],[-74.56208,40.19051],[-74.57043,40.18572],[-74.57429,40.18704],[-74.58364,40.18479],[-74.59367,40.17942],[-74.59964,40.18679],[-74.61458,40.18238],[-74.60929,40.17201],[-74.60408,40.16547],[-74.58783,40.13825],[-74.5531,40.07913],[-74.52732,40.09028],[-74.46955,40.12859],[-74.40671,40.1724],[-74.26145,40.16703],[-74.2585,40.16037],[-74.25981,40.14905],[-74.25355,40.14768],[-74.249,40.1438],[-74.24643,40.13566],[-74.24183,40.13096],[-74.24458,40.11814],[-74.2396,40.11238],[-74.22441,40.10898],[-74.21224,40.1101],[-74.20198,40.11248],[-74.18306,40.11017],[-74.17946,40.11093],[-74.1719,40.10771],[-74.16031,40.10702],[-74.1544,40.09972],[-74.15032,40.09888],[-74.10767,40.13701],[-74.10334,40.13441],[-74.09904,40.12778],[-74.09465,40.11375],[-74.09422,40.10751],[-74.08351,40.09556],[-74.07025,40.08941],[-74.05758,40.09731],[-74.05609,40.10084],[-74.04572,40.1053],[-74.03373,40.10198],[-74.03053,40.12267],[-74.00931,40.18668],[-74.00795,40.19612],[-73.99329,40.23767],[-73.98168,40.27941],[-73.97744,40.29937],[-73.97182,40.35427],[-73.97414,40.38471],[-73.97628,40.40604],[-73.98205,40.41999],[-73.98363,40.44242],[-73.98606,40.45443],[-74.00251,40.47631],[-74.011,40.47811],[-74.01945,40.47468],[-74.01762,40.47049],[-74.01172,40.46896],[-74.00608,40.46463],[-74.00238,40.44927],[-73.99467,40.44717],[-73.99168,40.44291],[-73.99549,40.41947],[-74.00079,40.41155],[-74.00638,40.41111],[-74.04788,40.41891],[-74.05898,40.42271],[-74.08809,40.43841],[-74.11123,40.44347],[-74.13532,40.45545],[-74.14271,40.45042],[-74.1582,40.44662],[-74.16525,40.44831],[-74.17739,40.4572],[-74.18103,40.45748],[-74.18556,40.45292],[-74.18779,40.44741],[-74.19391,40.441],[-74.20591,40.43929],[-74.20979,40.44741],[-74.22248,40.45188],[-74.22643,40.44467],[-74.23633,40.44344],[-74.24748,40.43153],[-74.24789,40.40661],[-74.2604,40.39667],[-74.37754,40.30543],[-74.39423,40.28839],[-74.39338,40.27964],[-74.46078,40.25136],[-74.48496,40.25332]]]},"properties":{"STATEFP":"34","COUNTYFP":"025","COUNTYNS":"00882910","GEOIDFQ":"0500000US34025","GEOID":"34025","NAME":"Monmouth","NAMELSAD":"Monmouth County","STUSPS":"NJ","STATE_NAME":"New Jersey","LSAD":"06","ALAND":1212642640,"AWATER":500373881}},
{"type":"Feature","geometry":{"type":"Polygon","coordinates":[[[-74.22248,40.45188],[-74.23141,40.4524],[-74.23736,40.45772],[-74.24494,40.45802],[-74.25012,40.46148],[-74.26189,40.46471],[-74.26609,40.47113],[-74.26699,40.47914],[-74.27269,40.48841],[-74.26676,40.4989],[-74.26224,40.5036],[-74.25933,40.51116],[-74.24917,40.5233],[-74.25274,40.53558],[-74.25464,40.54859],[-74.25226,40.55274],[-74.23871,40.5578],[-74.23182,40.56231],[-74.22041,40.55888],[-74.21447,40.56502],[-74.21162,40.57802],[-74.20694,40.59284],[-74.20515,40.59388],[-74.2115,40.59832],[-74.21247,40.60282],[-74.22974,40.59883],[-74.23564,40.60252],[-74.24239,40.59947],[-74.25769,40.60228],[-74.25956,40.59731],[-74.29085,40.59195],[-74.30533,40.60059],[-74.30292,40.60868],[-74.4569,40.5958],[-74.46329,40.59919],[-74.47008,40.59834],[-74.4765,40.59514],[-74.48322,40.58943],[-74.50972,40.58422],[-74.52071,40.57425],[-74.52589,40.56823],[-74.5235,40.55856],[-74.51759,40.55252],[-74.51587,40.54498],[-74.51175,40.53981],[-74.49519,40.52907],[-74.48168,40.51186],[-74.46695,40.5089],[-74.46699,40.50293],[-74.45904,40.49607],[-74.45986,40.49105],[-74.46821,40.48685],[-74.4785,40.48392],[-74.48494,40.47959],[-74.49532,40.46894],[-74.50781,40.46099],[-74.52034,40.45128],[-74.52657,40.44485],[-74.53619,40.43833],[-74.55411,40.43034],[-74.57616,40.4223],[-74.58417,40.41869],[-74.58598,40.41561],[-74.58579,40.4034],[-74.58786,40.39414],[-74.59184,40.39203],[-74.59584,40.38573],[-74.60257,40.38072],[-74.61298,40.37576],[-74.62024,40.37375],[-74.62522,40.36312],[-74.62586,40.35623],[-74.63101,40.34011],[-74.62327,40.33443],[-74.62447,40.32884],[-74.62246,40.3248],[-74.61585,40.32494],[-74.60332,40.3214],[-74.59776,40.31456],[-74.59352,40.31587],[-74.58408,40.3119],[-74.58407,40.30819],[-74.57952,40.30381],[-74.56777,40.29997],[-74.55949,40.29601],[-74.5576,40.29213],[-74.55171,40.29055],[-74.54234,40.29181],[-74.53992,40.28833],[-74.53188,40.29326],[-74.52605,40.29306],[-74.51837,40.2865],[-74.51485,40.28714],[-74.50266,40.27953],[-74.48897,40.27708],[-74.48203,40.27392],[-74.48496,40.25332],[-74.46078,40.25136],[-74.39338,40.27964],[-74.39423,40.28839],[-74.37754,40.30543],[-74.2604,40.39667],[-74.24789,40.40661],[-74.24748,40.43153],[-74.23633,40.44344],[-74.22643,40.44467],[-74.22248,40.45188]]]},"properties":{"STATEFP":"34","COUNTYFP":"023","COUNTYNS":"00882230","GEOIDFQ":"0500000US34023","GEOID":"34023","NAME":"Middlesex","NAMELSAD":"Middlesex County","STUSPS":"NJ","STATE_NAME":"New Jersey","LSAD":"06","ALAND":800957688,"AWATER":35286675}},
{"type":"Feature","geometry":{"type":"Polygon","coordinates":[[[-74.36738,41.20349],[-74.39001,41.1858],[-74.42126,41.16053],[-74.47676,41.10966],[-74.50321,41.08587],[-74.49169,41.07814],[-74.48694,41.07675],[-74.48907,41.07191],[-74.48846,41.06486],[-74.4957,41.05996],[-74.49864,41.0484],[-74.50169,41.0421],[-74.49715,41.03517],[-74.48738,41.0393],[-74.485,41.04276],[-74.47588,41.0479],[-74.47013,41.04776],[-74.46122,41.05203],[-74.44702,41.05443],[-74.44197,41.0505],[-74.44107,41.04499],[-74.43281,41.03805],[-74.42755,41.0369],[-74.42769,41.03189],[-74.43253,41.02636],[-74.43504,41.02002],[-74.42815,41.02067],[-74.42359,41.02768],[-74.41517,41.02797],[-74.4062,41.02418],[-74.39986,41.01735],[-74.39108,41.01582],[-74.38913,41.0122],[-74.37674,41.01386],[-74.37231,41.01143],[-74.36213,41.01383],[-74.3554,41.0139],[-74.35123,41.01063],[-74.35019,41.00397],[-74.34062,41.00579],[-74.32676,41.00091],[-74.31555,41.00237],[-74.30949,40.99841],[-74.30143,40.99925],[-74.29555,40.9947],[-74.29283,40.98796],[-74.29745,40.98358],[-74.29742,40.97962],[-74.2852,40.97879],[-74.27886,40.97547],[-74.28189,40.97127],[-74.27936,40.96521],[-74.28055,40.95777],[-74.27752,40.95507],[-74.28059,40.93971],[-74.2851,40.93138],[-74.28925,40.92879],[-74.28264,40.91688],[-74.27168,40.91543],[-74.26669,40.90773],[-74.27091,40.90319],[-74.27197,40.89732],[-74.26664,40.89453],[-74.26464,40.88736],[-74.25308,40.88156],[-74.24029,40.88044],[-74.19787,40.85705],[-74.13002,40.81994],[-74.12372,40.82281],[-74.12107,40.83306],[-74.12404,40.83872],[-74.11939,40.85103],[-74.12125,40.8576],[-74.11388,40.8597],[-74.10679,40.8593],[-74.11585,40.87519],[-74.1215,40.88095],[-74.13008,40.88512],[-74.12856,40.89455],[-74.13282,40.89707],[-74.13164,40.90569],[-74.13345,40.91291],[-74.12941,40.92021],[-74.13887,40.9232],[-74.14243,40.92956],[-74.14047,40.93601],[-74.14816,40.94234],[-74.14105,40.96635],[-74.17027,40.9839],[-74.17114,40.97707],[-74.22453,40.9813],[-74.24853,40.99209],[-74.26433,41.01199],[-74.27223,41.01794],[-74.25046,41.06082],[-74.21133,41.13352],[-74.24317,41.14687],[-74.30199,41.17259],[-74.34493,41.19205],[-74.36738,41.20349]]]},"properties":{"STATEFP":"34","COUNTYFP":"031","COUNTYNS":"00882232","GEOIDFQ":"0500000US34031","GEOID":"34031","NAME":"Passaic","NAMELSAD":"Passaic County","STUSPS":"NJ","STATE_NAME":"New Jersey","LSAD":"06","ALAND":482078672,"AWATER":32001148}},
{"type":"Feature","geometry":{"type":"Polygon","coordinates":[[[-74.74815,40.42416],[-74.72206,40.37521],[-74.70786,40.37936],[-74.67374,40.38447],[-74.65415,40.39098],[-74.62268,40.38434],[-74.61748,40.3776],[-74.62024,40.37375],[-74.61298,40.37576],[-74.60257,40.38072],[-74.59584,40.38573],[-74.59184,40.39203],[-74.58786,40.39414],[-74.58579,40.4034],[-74.58598,40.41561],[-74.58417,40.41869],[-74.57616,40.4223],[-74.55411,40.43034],[-74.53619,40.43833],[-74.52657,40.44485],[-74.52034,40.45128],[-74.50781,40.46099],[-74.49532,40.46894],[-74.48494,40.47959],[-74.4785,40.48392],[-74.46821,40.48685],[-74.45986,40.49105],[-74.45904,40.49607],[-74.46699,40.50293],[-74.46695,40.5089],[-74.48168,40.51186],[-74.49519,40.52907],[-74.51175,40.53981],[-74.51587,40.54498],[-74.51759,40.55252],[-74.5235,40.55856],[-74.52589,40.56823],[-74.52071,40.57425],[-74.50972,40.58422],[-74.48322,40.58943],[-74.4765,40.59514],[-74.47008,40.59834],[-74.46329,40.59919],[-74.454,40.60402],[-74.45068,40.60401],[-74.44546,40.60907],[-74.43821,40.60971],[-74.42346,40.62088],[-74.42269,40.62522],[-74.41765,40.62754],[-74.41528,40.63166],[-74.41442,40.64065],[-74.40853,40.64435],[-74.40274,40.65643],[-74.40175,40.66428],[-74.405,40.66773],[-74.41978,40.65772],[-74.42976,40.66497],[-74.43592,40.66346],[-74.44308,40.65765],[-74.45085,40.65415],[-74.46103,40.6735],[-74.46966,40.66793],[-74.48481,40.66545],[-74.49193,40.66143],[-74.5037,40.65963],[-74.5077,40.65258],[-74.51309,40.64956],[-74.52323,40.64916],[-74.52985,40.66757],[-74.52598,40.67021],[-74.52874,40.68008],[-74.52448,40.68914],[-74.51487,40.69484],[-74.51387,40.70106],[-74.51871,40.7063],[-74.52598,40.70933],[-74.52419,40.71337],[-74.53123,40.71968],[-74.52977,40.72651],[-74.53996,40.73379],[-74.54768,40.73699],[-74.54911,40.74705],[-74.55264,40.75591],[-74.55602,40.75829],[-74.72567,40.71953],[-74.72215,40.71601],[-74.71699,40.70494],[-74.71663,40.69869],[-74.72073,40.69683],[-74.72394,40.68784],[-74.71774,40.68399],[-74.72162,40.67675],[-74.7227,40.67009],[-74.73078,40.66556],[-74.72755,40.65861],[-74.72136,40.65555],[-74.71958,40.65182],[-74.72395,40.64686],[-74.72202,40.64143],[-74.72766,40.63623],[-74.72654,40.63241],[-74.71328,40.63062],[-74.71154,40.62504],[-74.7027,40.62112],[-74.71148,40.61153],[-74.7133,40.6121],[-74.72175,40.6007],[-74.71858,40.59966],[-74.72494,40.58876],[-74.71296,40.58423],[-74.7246,40.56618],[-74.7307,40.56358],[-74.74308,40.55326],[-74.77534,40.50455],[-74.78139,40.505],[-74.78572,40.51086],[-74.79788,40.51567],[-74.78249,40.48779],[-74.74815,40.42416]]]},"properties":{"STATEFP":"34","COUNTYFP":"035","COUNTYNS":"00882234","GEOIDFQ":"0500000US34035","GEOID":"34035","NAME":"Somerset","NAMELSAD":"Somerset County","STUSPS":"NJ","STATE_NAME":"New Jersey","LSAD":"06","ALAND":781832066,"AWATER":7993021}},
{"type":"Feature","geometry":{"type":"Polygon","coordinates":[[[-75.40549,39.79637],[-75.4383,39.7844],[-75.45069,39.77506],[-75.45234,39.76901],[-75.45944,39.76581],[-75.46392,39.76076],[-75.46355,39.75701],[-75.46924,39.74361],[-75.47417,39.73547],[-75.47724,39.72471],[-75.47689,39.71834],[-75.47894,39.71381],[-75.48524,39.71581],[-75.49134,39.71111],[-75.49624,39.70141],[-75.50716,39.69696],[-75.50904,39.69451],[-75.50934,39.68531],[-75.51174,39.67431],[-75.51464,39.66861],[-75.52674,39.65511],[-75.53514,39.64721],[-75.54204,39.64601],[-75.5472,39.64053],[-75.55625,39.63491],[-75.55945,39.62981],[-75.5587,39.61793],[-75.55617,39.60639],[-75.5535,39.602],[-75.53954,39.59425],[-75.52616,39.58537],[-75.51963,39.58325],[-75.51153,39.57718],[-75.51103,39.56813],[-75.51903,39.5554],[-75.53234,39.54328],[-75.53401,39.5407],[-75.52768,39.53528],[-75.52655,39.51707],[-75.52998,39.51082],[-75.52783,39.49813],[-75.54269,39.49657],[-75.54437,39.4796],[-75.54289,39.47045],[-75.53643,39.46056],[-75.50838,39.45913],[-75.50567,39.45293],[-75.49892,39.44882],[-75.48843,39.44797],[-75.48821,39.44336],[-75.47278,39.43713],[-75.46521,39.43893],[-75.45673,39.42267],[-75.45103,39.41633],[-75.44239,39.40229],[-75.42783,39.38779],[-75.41684,39.38738],[-75.4148,39.39079],[-75.41686,39.39586],[-75.40936,39.39491],[-75.41167,39.40545],[-75.41891,39.41042],[-75.4183,39.41545],[-75.41119,39.42042],[-75.40828,39.4251],[-75.41369,39.42903],[-75.41599,39.43436],[-75.40921,39.44306],[-75.41027,39.45002],[-75.41469,39.45226],[-75.40768,39.45878],[-75.39983,39.46227],[-75.38656,39.45784],[-75.3731,39.45578],[-75.36811,39.4568],[-75.35682,39.47033],[-75.35142,39.4716],[-75.34991,39.47986],[-75.34386,39.48595],[-75.3423,39.49061],[-75.33525,39.48843],[-75.32609,39.48849],[-75.31802,39.49204],[-75.30509,39.50344],[-75.29391,39.51155],[-75.27006,39.53124],[-75.23843,39.55904],[-75.17361,39.51821],[-75.11275,39.47675],[-75.08382,39.45735],[-75.08035,39.47202],[-75.0733,39.48513],[-75.0739,39.49219],[-75.0797,39.50143],[-75.07685,39.5049],[-75.07801,39.51198],[-75.07222,39.52428],[-75.07264,39.53607],[-75.07102,39.54009],[-75.07446,39.54456],[-75.06185,39.56875],[-75.13403,39.62039],[-75.19998,39.66703],[-75.21306,39.66444],[-75.21937,39.66182],[-75.22393,39.66308],[-75.23322,39.66145],[-75.24531,39.66411],[-75.2507,39.66862],[-75.2514,39.67678],[-75.26197,39.68172],[-75.26847,39.68226],[-75.2868,39.67984],[-75.29515,39.68615],[-75.315,39.69139],[-75.32681,39.69073],[-75.3267,39.69629],[-75.33524,39.70024],[-75.33605,39.70388],[-75.34743,39.70711],[-75.35025,39.71125],[-75.36035,39.71325],[-75.36098,39.71622],[-75.37659,39.72642],[-75.37481,39.73715],[-75.37676,39.74494],[-75.38047,39.74827],[-75.38585,39.74697],[-75.39184,39.75001],[-75.39431,39.75555],[-75.38995,39.76051],[-75.4032,39.76125],[-75.40596,39.76348],[-75.40492,39.76904],[-75.39737,39.76923],[-75.40248,39.78258],[-75.40811,39.78769],[-75.41351,39.78501],[-75.41933,39.78972],[-75.40549,39.79637]]]},"properties":{"STATEFP":"34","COUNTYFP":"033","COUNTYNS":"00882233","GEOIDFQ":"0500000US34033","GEOID":"34033","NAME":"Salem","NAMELSAD":"Salem County","STUSPS":"NJ","STATE_NAME":"New Jersey","LSAD":"06","ALAND":859515221,"AWATER":105389623}},
{"type":"Feature","geometry":{"type":"Polygon","coordinates":[[[-74.73622,39.72977],[-74.75578,39.74221],[-74.76638,39.74656],[-74.77209,39.75044],[-74.77694,39.75779],[-74.7812,39.75859],[-74.78514,39.76562],[-74.79072,39.7713],[-74.80686,39.78346],[-74.81798,39.78602],[-74.81942,39.788],[-74.84321,39.78992],[-74.85402,39.78706],[-74.86948,39.78433],[-74.87619,39.78146],[-74.88975,39.78197],[-74.89493,39.78342],[-74.89863,39.78969],[-74.90296,39.79111],[-74.9154,39.83434],[-74.93074,39.88591],[-74.94957,39.89829],[-74.9559,39.91322],[-74.96297,39.92028],[-74.9751,39.92165],[-74.9839,39.92683],[-74.97508,39.93781],[-74.97571,39.93976],[-74.99443,39.93937],[-75.00426,39.94149],[-75.01508,39.94681],[-75.01581,39.95114],[-75.01307,39.95648],[-75.01759,39.95946],[-75.01987,39.96936],[-75.01604,39.97033],[-75.01384,39.98031],[-75.01839,39.98895],[-75.03523,39.99586],[-75.04789,39.99408],[-75.04942,39.99126],[-75.06011,39.99152],[-75.06418,39.98603],[-75.0756,39.97804],[-75.08583,39.9751],[-75.10229,39.97238],[-75.11922,39.96541],[-75.13012,39.95871],[-75.13385,39.95422],[-75.13572,39.94711],[-75.13612,39.93391],[-75.13502,39.92731],[-75.12792,39.91181],[-75.13082,39.90021],[-75.1394,39.88843],[-75.1288,39.88294],[-75.13139,39.87734],[-75.12527,39.87414],[-75.1219,39.86625],[-75.11306,39.86394],[-75.09412,39.85195],[-75.08909,39.84424],[-75.08327,39.84209],[-75.08693,39.83846],[-75.08311,39.83364],[-75.08278,39.82706],[-75.08856,39.82045],[-75.0853,39.8126],[-75.07388,39.8031],[-75.07642,39.79894],[-75.07437,39.79505],[-75.07674,39.79006],[-75.08194,39.79133],[-75.08707,39.77958],[-75.07799,39.78086],[-75.07441,39.77396],[-75.0697,39.7761],[-75.072,39.77978],[-75.06426,39.78468],[-75.05652,39.78241],[-75.04932,39.77848],[-75.04932,39.772],[-75.04427,39.76698],[-75.03503,39.75485],[-75.02216,39.7464],[-75.02203,39.73801],[-75.02425,39.73058],[-75.01567,39.72604],[-74.99956,39.71998],[-74.99439,39.71602],[-74.99366,39.71041],[-74.98755,39.7067],[-74.9718,39.70224],[-74.95934,39.70306],[-74.95308,39.69908],[-74.94368,39.69836],[-74.93652,39.69493],[-74.92709,39.68497],[-74.91856,39.67779],[-74.91007,39.66294],[-74.90716,39.64568],[-74.90744,39.64075],[-74.90256,39.63168],[-74.89244,39.625],[-74.89216,39.61856],[-74.88402,39.61421],[-74.87726,39.60835],[-74.73622,39.72977]]]},"properties":{"STATEFP":"34","COUNTYFP":"007","COUNTYNS":"00882273","GEOIDFQ":"0500000US34007","GEOID":"34007","NAME":"Camden","NAMELSAD":"Camden County","STUSPS":"NJ","STATE_NAME":"New Jersey","LSAD":"06","ALAND":573329867,"AWATER":15919264}},
{"type":"Feature","geometry":{"type":"Polygon","coordinates":[[[-74.87726,39.60835],[-74.88402,39.61421],[-74.89216,39.61856],[-74.89244,39.625],[-74.90256,39.63168],[-74.90744,39.64075],[-74.90716,39.64568],[-74.91007,39.66294],[-74.91856,39.67779],[-74.92709,39.68497],[-74.93652,39.69493],[-74.94368,39.69836],[-74.95308,39.69908],[-74.95934,39.70306],[-74.9718,39.70224],[-74.98755,39.7067],[-74.99366,39.71041],[-74.99439,39.71602],[-74.99956,39.71998],[-75.01567,39.72604],[-75.02425,39.73058],[-75.02203,39.73801],[-75.02216,39.7464],[-75.03503,39.75485],[-75.04427,39.76698],[-75.04932,39.772],[-75.04932,39.77848],[-75.05652,39.78241],[-75.06426,39.78468],[-75.072,39.77978],[-75.0697,39.7761],[-75.07441,39.77396],[-75.07799,39.78086],[-75.08707,39.77958],[-75.08194,39.79133],[-75.07674,39.79006],[-75.07437,39.79505],[-75.07642,39.79894],[-75.07388,39.8031],[-75.0853,39.8126],[-75.08856,39.82045],[-75.08278,39.82706],[-75.08311,39.83364],[-75.08693,39.83846],[-75.08327,39.84209],[-75.08909,39.84424],[-75.09412,39.85195],[-75.11306,39.86394],[-75.1219,39.86625],[-75.12527,39.87414],[-75.13139,39.87734],[-75.1288,39.88294],[-75.1394,39.88843],[-75.14889,39.88373],[-75.18302,39.88201],[-75.18932,39.88071],[-75.19986,39.87322],[-75.22137,39.86154],[-75.23503,39.85661],[-75.27214,39.84909],[-75.29338,39.84878],[-75.30967,39.85018],[-75.33043,39.84901],[-75.34176,39.84608],[-75.3544,39.83992],[-75.37183,39.82761],[-75.39054,39.81531],[-75.40374,39.80751],[-75.41506,39.80192],[-75.40549,39.79637],[-75.41933,39.78972],[-75.41351,39.78501],[-75.40811,39.78769],[-75.40248,39.78258],[-75.39737,39.76923],[-75.40492,39.76904],[-75.40596,39.76348],[-75.4032,39.76125],[-75.38995,39.76051],[-75.39431,39.75555],[-75.39184,39.75001],[-75.38585,39.74697],[-75.38047,39.74827],[-75.37676,39.74494],[-75.37481,39.73715],[-75.37659,39.72642],[-75.36098,39.71622],[-75.36035,39.71325],[-75.35025,39.71125],[-75.34743,39.70711],[-75.33605,39.70388],[-75.33524,39.70024],[-75.3267,39.69629],[-75.32681,39.69073],[-75.315,39.69139],[-75.29515,39.68615],[-75.2868,39.67984],[-75.26847,39.68226],[-75.26197,39.68172],[-75.2514,39.67678],[-75.2507,39.66862],[-75.24531,39.66411],[-75.23322,39.66145],[-75.22393,39.66308],[-75.21937,39.66182],[-75.21306,39.66444],[-75.19998,39.66703],[-75.13403,39.62039],[-75.06185,39.56875],[-74.98527,39.51497],[-74.87726,39.60835]]]},"properties":{"STATEFP":"34","COUNTYFP":"015","COUNTYNS":"00882277","GEOIDFQ":"0500000US34015","GEOID":"34015","NAME":"Gloucester","NAMELSAD":"Gloucester County","STUSPS":"NJ","STATE_NAME":"New Jersey","LSAD":"06","ALAND":833999181,"AWATER":38137129}},
{"type":"Feature","geometry":{"type":"Polygon","coordinates":[[[-74.98527,39.51497],[-75.06185,39.56875],[-75.07446,39.54456],[-75.07102,39.54009],[-75.07264,39.53607],[-75.07222,39.52428],[-75.07801,39.51198],[-75.07685,39.5049],[-75.0797,39.50143],[-75.0739,39.49219],[-75.0733,39.48513],[-75.08035,39.47202],[-75.08382,39.45735],[-75.11275,39.47675],[-75.17361,39.51821],[-75.23843,39.55904],[-75.27006,39.53124],[-75.29391,39.51155],[-75.30509,39.50344],[-75.31802,39.49204],[-75.32609,39.48849],[-75.33525,39.48843],[-75.3423,39.49061],[-75.34386,39.48595],[-75.34991,39.47986],[-75.35142,39.4716],[-75.35682,39.47033],[-75.36811,39.4568],[-75.3731,39.45578],[-75.38656,39.45784],[-75.39983,39.46227],[-75.40768,39.45878],[-75.41469,39.45226],[-75.41027,39.45002],[-75.40921,39.44306],[-75.41599,39.43436],[-75.41369,39.42903],[-75.40828,39.4251],[-75.41119,39.42042],[-75.4183,39.41545],[-75.41891,39.41042],[-75.41167,39.40545],[-75.40936,39.39491],[-75.41686,39.39586],[-75.4148,39.39079],[-75.41684,39.38738],[-75.41272,39.38437],[-75.40705,39.38111],[-75.39817,39.37903],[-75.39442,39.37277],[-75.39374,39.36514],[-75.39024,39.35882],[-75.38266,39.35448],[-75.37633,39.35445],[-75.36828,39.35076],[-75.36439,39.34157],[-75.35764,39.34171],[-75.35675,39.34775],[-75.3501,39.34989],[-75.34197,39.3487],[-75.33374,39.34534],[-75.32683,39.33962],[-75.32609,39.33254],[-75.3152,39.31059],[-75.29741,39.2968],[-75.28831,39.2916],[-75.28533,39.29221],[-75.2839,39.29857],[-75.28658,39.30064],[-75.28301,39.30547],[-75.27649,39.30495],[-75.2517,39.30034],[-75.25271,39.29643],[-75.24816,39.29296],[-75.24335,39.2859],[-75.24164,39.2741],[-75.21251,39.26276],[-75.20586,39.26262],[-75.19914,39.25669],[-75.19077,39.24628],[-75.182,39.24617],[-75.1719,39.23784],[-75.16301,39.21433],[-75.167,39.20788],[-75.16735,39.2033],[-75.15663,39.19754],[-75.1514,39.19],[-75.14246,39.1867],[-75.1339,39.18757],[-75.12784,39.19036],[-75.12974,39.20042],[-75.12504,39.20143],[-75.11863,39.21216],[-75.11084,39.21433],[-75.10743,39.21835],[-75.10015,39.21702],[-75.09406,39.21208],[-75.0825,39.21239],[-75.07368,39.21412],[-75.04849,39.21522],[-75.0435,39.22093],[-75.03192,39.22042],[-75.02979,39.22547],[-75.02356,39.22224],[-75.02133,39.21875],[-75.02638,39.2132],[-75.02359,39.20259],[-75.02782,39.19948],[-75.02618,39.19362],[-75.00728,39.19243],[-75.00365,39.19091],[-74.97627,39.19227],[-74.96316,39.19202],[-74.95413,39.19017],[-74.9489,39.18741],[-74.92703,39.18188],[-74.918,39.17672],[-74.91478,39.17762],[-74.91219,39.17864],[-74.91669,39.1888],[-74.92253,39.18882],[-74.92573,39.2013],[-74.92253,39.20422],[-74.92539,39.21256],[-74.92576,39.21881],[-74.92152,39.225],[-74.91282,39.22697],[-74.89638,39.23505],[-74.88215,39.30838],[-74.87374,39.3126],[-74.86824,39.31806],[-74.86457,39.32438],[-74.86129,39.32382],[-74.86417,39.3284],[-74.86491,39.33847],[-74.85924,39.35903],[-74.85866,39.36439],[-74.85341,39.37232],[-74.85188,39.38304],[-74.85794,39.39485],[-74.85729,39.40301],[-74.85324,39.40807],[-74.85311,39.41554],[-74.85698,39.42497],[-74.87174,39.43578],[-74.89679,39.45266],[-74.98527,39.51497]]]},"properties":{"STATEFP":"34","COUNTYFP":"011","COUNTYNS":"00882275","GEOIDFQ":"0500000US34011","GEOID":"34011","NAME":"Cumberland","NAMELSAD":"Cumberland County","STUSPS":"NJ","STATE_NAME":"New Jersey","LSAD":"06","ALAND":1251948171,"AWATER":503663195}},
{"type":"Feature","geometry":{"type":"Polygon","coordinates":[[[-74.94295,40.34164],[-74.93971,40.33801],[-74.91741,40.32241],[-74.90831,40.31691],[-74.89641,40.31511],[-74.88711,40.31031],[-74.86821,40.29521],[-74.86049,40.28458],[-74.85311,40.26971],[-74.84231,40.25051],[-74.83631,40.24621],[-74.82391,40.24151],[-74.81951,40.23851],[-74.79531,40.22941],[-74.77172,40.21529],[-74.76768,40.20775],[-74.7595,40.19691],[-74.7556,40.18671],[-74.7517,40.18331],[-74.74411,40.18101],[-74.7338,40.17451],[-74.7223,40.16061],[-74.72213,40.15032],[-74.71387,40.15265],[-74.71292,40.1561],[-74.70627,40.16179],[-74.70842,40.17185],[-74.71281,40.17519],[-74.70828,40.1819],[-74.69623,40.18276],[-74.69057,40.17688],[-74.68449,40.17795],[-74.67432,40.16998],[-74.66202,40.16493],[-74.66148,40.16219],[-74.65199,40.15897],[-74.64784,40.15557],[-74.63852,40.15436],[-74.63308,40.1491],[-74.62316,40.14864],[-74.62338,40.14271],[-74.60992,40.13968],[-74.59738,40.1379],[-74.58783,40.13825],[-74.60408,40.16547],[-74.60929,40.17201],[-74.61458,40.18238],[-74.59964,40.18679],[-74.59367,40.17942],[-74.58364,40.18479],[-74.57429,40.18704],[-74.57043,40.18572],[-74.56208,40.19051],[-74.55741,40.19942],[-74.5486,40.20769],[-74.54327,40.21669],[-74.48148,40.24289],[-74.48566,40.24882],[-74.48496,40.25332],[-74.48203,40.27392],[-74.48897,40.27708],[-74.50266,40.27953],[-74.51485,40.28714],[-74.51837,40.2865],[-74.52605,40.29306],[-74.53188,40.29326],[-74.53992,40.28833],[-74.54234,40.29181],[-74.55171,40.29055],[-74.5576,40.29213],[-74.55949,40.29601],[-74.56777,40.29997],[-74.57952,40.30381],[-74.58407,40.30819],[-74.58408,40.3119],[-74.59352,40.31587],[-74.59776,40.31456],[-74.60332,40.3214],[-74.61585,40.32494],[-74.62246,40.3248],[-74.62447,40.32884],[-74.62327,40.33443],[-74.63101,40.34011],[-74.62586,40.35623],[-74.62522,40.36312],[-74.62024,40.37375],[-74.61748,40.3776],[-74.62268,40.38434],[-74.65415,40.39098],[-74.67374,40.38447],[-74.70786,40.37936],[-74.72206,40.37521],[-74.74815,40.42416],[-74.80847,40.41666],[-74.80202,40.38497],[-74.86968,40.37777],[-74.85626,40.3467],[-74.93228,40.33943],[-74.94295,40.34164]]]},"properties":{"STATEFP":"34","COUNTYFP":"021","COUNTYNS":"00882229","GEOIDFQ":"0500000US34021","GEOID":"34021","NAME":"Mercer","NAMELSAD":"Mercer County","STUSPS":"NJ","STATE_NAME":"New Jersey","LSAD":"06","ALAND":581404579,"AWATER":11327997}},
{"type":"Feature","geometry":{"type":"Polygon","coordinates":[[[-74.27197,40.89732],[-74.28035,40.89789],[-74.28287,40.90127],[-74.2923,40.90062],[-74.29242,40.9058],[-74.30305,40.90433],[-74.31865,40.90759],[-74.32795,40.90535],[-74.33429,40.90546],[-74.33763,40.89879],[-74.33985,40.88891],[-74.34014,40.87957],[-74.33819,40.87004],[-74.32209,40.86404],[-74.328,40.84995],[-74.3299,40.83022],[-74.3349,40.82781],[-74.3322,40.8217],[-74.33842,40.81303],[-74.34979,40.81161],[-74.35072,40.80743],[-74.35985,40.79985],[-74.364,40.79928],[-74.36706,40.79329],[-74.36681,40.78049],[-74.37178,40.77684],[-74.36955,40.77139],[-74.37114,40.76404],[-74.37583,40.76084],[-74.3577,40.755],[-74.35947,40.75122],[-74.37174,40.73964],[-74.35894,40.73598],[-74.34866,40.73022],[-74.34144,40.72444],[-74.3256,40.71708],[-74.31657,40.71927],[-74.30403,40.71328],[-74.29721,40.71519],[-74.29373,40.71996],[-74.28519,40.72215],[-74.25602,40.71342],[-74.22195,40.70734],[-74.21297,40.70081],[-74.20925,40.69071],[-74.2018,40.68681],[-74.16927,40.68862],[-74.16505,40.69016],[-74.15786,40.68595],[-74.15386,40.68592],[-74.14372,40.6795],[-74.13611,40.68901],[-74.13032,40.6902],[-74.12066,40.70448],[-74.12319,40.71222],[-74.12057,40.71713],[-74.12139,40.721],[-74.11699,40.73713],[-74.12279,40.7421],[-74.1368,40.74146],[-74.14269,40.7393],[-74.14719,40.7344],[-74.15998,40.73449],[-74.16379,40.7392],[-74.16608,40.74724],[-74.16453,40.7563],[-74.1558,40.77082],[-74.14899,40.778],[-74.14753,40.78649],[-74.13832,40.79822],[-74.13959,40.80532],[-74.13847,40.81326],[-74.13597,40.8183],[-74.13002,40.81994],[-74.19787,40.85705],[-74.24029,40.88044],[-74.25308,40.88156],[-74.26464,40.88736],[-74.26664,40.89453],[-74.27197,40.89732]]]},"properties":{"STATEFP":"34","COUNTYFP":"013","COUNTYNS":"00882276","GEOIDFQ":"0500000US34013","GEOID":"34013","NAME":"Essex","NAMELSAD":"Essex County","STUSPS":"NJ","STATE_NAME":"New Jersey","LSAD":"06","ALAND":326552231,"AWATER":8653266}},
{"type":"Feature","geometry":{"type":"Polygon","coordinates":[[[-74.13002,40.81994],[-74.13597,40.8183],[-74.13847,40.81326],[-74.13959,40.80532],[-74.13832,40.79822],[-74.14753,40.78649],[-74.13036,40.77756],[-74.12719,40.77134],[-74.11921,40.77237],[-74.10923,40.77783],[-74.09844,40.77252],[-74.0987,40.76774],[-74.09584,40.76286],[-74.08798,40.76444],[-74.09003,40.77801],[-74.07985,40.78973],[-74.07527,40.79663],[-74.06893,40.79842],[-74.06384,40.80415],[-74.05918,40.80618],[-74.03783,40.80759],[-74.02816,40.81565],[-74.02041,40.81864],[-74.01782,40.82334],[-74.01138,40.82084],[-74.01248,40.8167],[-73.99316,40.80576],[-73.99331,40.80129],[-73.9848,40.79769],[-73.96318,40.8269],[-73.95283,40.85111],[-73.92982,40.88868],[-73.91425,40.92796],[-73.90728,40.9515],[-73.89614,40.98187],[-73.89363,40.99717],[-73.90268,40.9973],[-73.97653,41.03046],[-74.09306,41.08223],[-74.18236,41.12138],[-74.21133,41.13352],[-74.25046,41.06082],[-74.27223,41.01794],[-74.26433,41.01199],[-74.24853,40.99209],[-74.22453,40.9813],[-74.17114,40.97707],[-74.17027,40.9839],[-74.14105,40.96635],[-74.14816,40.94234],[-74.14047,40.93601],[-74.14243,40.92956],[-74.13887,40.9232],[-74.12941,40.92021],[-74.13345,40.91291],[-74.13164,40.90569],[-74.13282,40.89707],[-74.12856,40.89455],[-74.13008,40.88512],[-74.1215,40.88095],[-74.11585,40.87519],[-74.10679,40.8593],[-74.11388,40.8597],[-74.12125,40.8576],[-74.11939,40.85103],[-74.12404,40.83872],[-74.12107,40.83306],[-74.12372,40.82281],[-74.13002,40.81994]]]},"properties":{"STATEFP":"34","COUNTYFP":"003","COUNTYNS":"00882271","GEOIDFQ":"0500000US34003","GEOID":"34003","NAME":"Bergen","NAMELSAD":"Bergen County","STUSPS":"NJ","STATE_NAME":"New Jersey","LSAD":"06","ALAND":602934378,"AWATER":35371524}},
{"type":"Feature","geometry":{"type":"Polygon","coordinates":[[[-74.88982,40.78773],[-74.84407,40.75858],[-74.84302,40.75602],[-74.82748,40.74407],[-74.80823,40.74114],[-74.79801,40.74219],[-74.79368,40.74034],[-74.77099,40.73605],[-74.7529,40.73113],[-74.73733,40.72162],[-74.72567,40.71953],[-74.55602,40.75829],[-74.55264,40.75591],[-74.54911,40.74705],[-74.54768,40.73699],[-74.53996,40.73379],[-74.52977,40.72651],[-74.53123,40.71968],[-74.52419,40.71337],[-74.52598,40.70933],[-74.51871,40.7063],[-74.51387,40.70106],[-74.51487,40.69484],[-74.52448,40.68914],[-74.52874,40.68008],[-74.52598,40.67021],[-74.52985,40.66757],[-74.52323,40.64916],[-74.51309,40.64956],[-74.5077,40.65258],[-74.5037,40.65963],[-74.49193,40.66143],[-74.48481,40.66545],[-74.46966,40.66793],[-74.46103,40.6735],[-74.45418,40.67409],[-74.45156,40.67968],[-74.4519,40.6854],[-74.43964,40.6897],[-74.42351,40.70305],[-74.41575,40.70557],[-74.4132,40.70981],[-74.40176,40.71814],[-74.39075,40.71845],[-74.39078,40.72539],[-74.38427,40.72449],[-74.37113,40.73458],[-74.37174,40.73964],[-74.35947,40.75122],[-74.3577,40.755],[-74.37583,40.76084],[-74.37114,40.76404],[-74.36955,40.77139],[-74.37178,40.77684],[-74.36681,40.78049],[-74.36706,40.79329],[-74.364,40.79928],[-74.35985,40.79985],[-74.35072,40.80743],[-74.34979,40.81161],[-74.33842,40.81303],[-74.3322,40.8217],[-74.3349,40.82781],[-74.3299,40.83022],[-74.328,40.84995],[-74.32209,40.86404],[-74.33819,40.87004],[-74.34014,40.87957],[-74.33985,40.88891],[-74.33763,40.89879],[-74.33429,40.90546],[-74.32795,40.90535],[-74.31865,40.90759],[-74.30305,40.90433],[-74.29242,40.9058],[-74.2923,40.90062],[-74.28287,40.90127],[-74.28035,40.89789],[-74.27197,40.89732],[-74.27091,40.90319],[-74.26669,40.90773],[-74.27168,40.91543],[-74.28264,40.91688],[-74.28925,40.92879],[-74.2851,40.93138],[-74.28059,40.93971],[-74.27752,40.95507],[-74.28055,40.95777],[-74.27936,40.96521],[-74.28189,40.97127],[-74.27886,40.97547],[-74.2852,40.97879],[-74.29742,40.97962],[-74.29745,40.98358],[-74.29283,40.98796],[-74.29555,40.9947],[-74.30143,40.99925],[-74.30949,40.99841],[-74.31555,41.00237],[-74.32676,41.00091],[-74.34062,41.00579],[-74.35019,41.00397],[-74.35123,41.01063],[-74.3554,41.0139],[-74.36213,41.01383],[-74.37231,41.01143],[-74.37674,41.01386],[-74.38913,41.0122],[-74.39108,41.01582],[-74.39986,41.01735],[-74.4062,41.02418],[-74.41517,41.02797],[-74.42359,41.02768],[-74.42815,41.02067],[-74.43504,41.02002],[-74.43253,41.02636],[-74.42769,41.03189],[-74.42755,41.0369],[-74.43281,41.03805],[-74.44107,41.04499],[-74.44197,41.0505],[-74.44702,41.05443],[-74.46122,41.05203],[-74.47013,41.04776],[-74.47588,41.0479],[-74.485,41.04276],[-74.48738,41.0393],[-74.49715,41.03517],[-74.50169,41.0421],[-74.49864,41.0484],[-74.4957,41.05996],[-74.48846,41.06486],[-74.48907,41.07191],[-74.48694,41.07675],[-74.49169,41.07814],[-74.50321,41.08587],[-74.52936,41.06436],[-74.54777,41.04802],[-74.60667,40.99809],[-74.63238,40.97372],[-74.63952,40.96499],[-74.64135,40.95939],[-74.63507,40.95065],[-74.63644,40.94264],[-74.64158,40.93365],[-74.65156,40.93089],[-74.65159,40.92375],[-74.65796,40.91841],[-74.66531,40.91747],[-74.6795,40.90916],[-74.6861,40.91],[-74.68953,40.90732],[-74.69688,40.90742],[-74.70335,40.90179],[-74.71134,40.89918],[-74.71419,40.90115],[-74.71287,40.90767],[-74.71842,40.9124],[-74.72866,40.91638],[-74.73189,40.92083],[-74.73754,40.91892],[-74.74801,40.91982],[-74.75553,40.91365],[-74.76339,40.91329],[-74.76942,40.91093],[-74.77606,40.90534],[-74.7903,40.89642],[-74.79165,40.89067],[-74.80383,40.88577],[-74.80678,40.88208],[-74.80589,40.87608],[-74.80829,40.86949],[-74.802,40.86373],[-74.80924,40.86021],[-74.80995,40.85448],[-74.81411,40.85122],[-74.82083,40.84965],[-74.82383,40.84411],[-74.81843,40.83695],[-74.83102,40.829],[-74.82999,40.82553],[-74.8346,40.82218],[-74.84282,40.81139],[-74.84686,40.8108],[-74.85026,40.80417],[-74.85875,40.80143],[-74.86439,40.80316],[-74.86696,40.79682],[-74.8806,40.79071],[-74.88414,40.79144],[-74.88982,40.78773]]]},"properties":{"STATEFP":"34","COUNTYFP":"027","COUNTYNS":"00882231","GEOIDFQ":"0500000US34027","GEOID":"34027","NAME":"Morris","NAMELSAD":"Morris County","STUSPS":"NJ","STATE_NAME":"New Jersey","LSAD":"06","ALAND":1194051047,"AWATER":53100988}},
{"type":"Feature","geometry":{"type":"Polygon","coordinates":[[[-74.41739,39.55726],[-74.4144,39.56098],[-74.41909,39.56783],[-74.41599,39.57046],[-74.40516,39.56959],[-74.40082,39.57224],[-74.3923,39.59456],[-74.3904,39.5962],[-74.39034,39.62946],[-74.38971,39.77328],[-74.42942,39.8454],[-74.43422,39.85516],[-74.47024,39.92253],[-74.50641,39.9913],[-74.52832,40.03668],[-74.5531,40.07913],[-74.58783,40.13825],[-74.59738,40.1379],[-74.60992,40.13968],[-74.62338,40.14271],[-74.62316,40.14864],[-74.63308,40.1491],[-74.63852,40.15436],[-74.64784,40.15557],[-74.65199,40.15897],[-74.66148,40.16219],[-74.66202,40.16493],[-74.67432,40.16998],[-74.68449,40.17795],[-74.69057,40.17688],[-74.69623,40.18276],[-74.70828,40.1819],[-74.71281,40.17519],[-74.70842,40.17185],[-74.70627,40.16179],[-74.71292,40.1561],[-74.71387,40.15265],[-74.72213,40.15032],[-74.72436,40.14644],[-74.74055,40.13549],[-74.75888,40.13404],[-74.76949,40.12915],[-74.78211,40.12081],[-74.78871,40.12041],[-74.80061,40.12281],[-74.81612,40.12774],[-74.82623,40.12407],[-74.8331,40.11197],[-74.83511,40.10391],[-74.83801,40.10091],[-74.85461,40.09327],[-74.85981,40.08491],[-74.86675,40.08193],[-74.87465,40.08066],[-74.90901,40.07021],[-74.92087,40.0714],[-74.93258,40.06881],[-74.96689,40.05272],[-75.00857,40.02388],[-75.01221,40.0207],[-75.03422,40.01522],[-75.04709,40.00994],[-75.0534,40.00457],[-75.06011,39.99152],[-75.04942,39.99126],[-75.04789,39.99408],[-75.03523,39.99586],[-75.01839,39.98895],[-75.01384,39.98031],[-75.01604,39.97033],[-75.01987,39.96936],[-75.01759,39.95946],[-75.01307,39.95648],[-75.01581,39.95114],[-75.01508,39.94681],[-75.00426,39.94149],[-74.99443,39.93937],[-74.97571,39.93976],[-74.97508,39.93781],[-74.9839,39.92683],[-74.9751,39.92165],[-74.96297,39.92028],[-74.9559,39.91322],[-74.94957,39.89829],[-74.93074,39.88591],[-74.9154,39.83434],[-74.90296,39.79111],[-74.89863,39.78969],[-74.89493,39.78342],[-74.88975,39.78197],[-74.87619,39.78146],[-74.86948,39.78433],[-74.85402,39.78706],[-74.84321,39.78992],[-74.81942,39.788],[-74.81798,39.78602],[-74.80686,39.78346],[-74.79072,39.7713],[-74.78514,39.76562],[-74.7812,39.75859],[-74.77694,39.75779],[-74.77209,39.75044],[-74.76638,39.74656],[-74.75578,39.74221],[-74.73622,39.72977],[-74.67614,39.69162],[-74.67332,39.68651],[-74.66797,39.6837],[-74.66494,39.67478],[-74.66048,39.6688],[-74.65826,39.65685],[-74.65998,39.63912],[-74.65921,39.63114],[-74.64796,39.62507],[-74.64022,39.62556],[-74.63481,39.62797],[-74.63204,39.62214],[-74.62761,39.62039],[-74.62427,39.62628],[-74.61153,39.623],[-74.59726,39.61468],[-74.58872,39.6118],[-74.58513,39.60495],[-74.57575,39.59839],[-74.56333,39.59672],[-74.55429,39.59848],[-74.54905,39.59031],[-74.54198,39.58582],[-74.54264,39.57912],[-74.54056,39.57561],[-74.53239,39.57337],[-74.52863,39.56999],[-74.52171,39.57025],[-74.51702,39.57415],[-74.51223,39.56995],[-74.50592,39.56965],[-74.49615,39.5625],[-74.4919,39.55559],[-74.48247,39.55839],[-74.47566,39.55146],[-74.46776,39.55567],[-74.46216,39.55609],[-74.45958,39.54858],[-74.45345,39.54857],[-74.45261,39.55691],[-74.44556,39.55857],[-74.44357,39.55476],[-74.44573,39.54635],[-74.44088,39.54211],[-74.43445,39.54196],[-74.43425,39.54658],[-74.43835,39.55131],[-74.43393,39.55563],[-74.42785,39.55316],[-74.41739,39.55726]]]},"properties":{"STATEFP":"34","COUNTYFP":"005","COUNTYNS":"00882272","GEOIDFQ":"0500000US34005","GEOID":"34005","NAME":"Burlington","NAMELSAD":"Burlington County","STUSPS":"NJ","STATE_NAME":"New Jersey","LSAD":"06","ALAND":2070137466,"AWATER":54604075}},
{"type":"Feature","geometry":{"type":"Polygon","coordinates":[[[-74.12057,40.71713],[-74.10815,40.71596],[-74.10637,40.70481],[-74.10248,40.70193],[-74.137,40.65768],[-74.14418,40.65065],[-74.14386,40.64363],[-74.13709,40.64514],[-74.12041,40.64596],[-74.10758,40.65008],[-74.09505,40.64918],[-74.08745,40.65374],[-74.09079,40.66361],[-74.08694,40.66675],[-74.0702,40.66083],[-74.06422,40.66886],[-74.07781,40.67465],[-74.06997,40.68395],[-74.07011,40.69065],[-74.06498,40.69595],[-74.05533,40.69082],[-74.04875,40.69899],[-74.03942,40.70619],[-74.03549,40.70574],[-74.02938,40.71897],[-74.02319,40.71989],[-74.01403,40.75755],[-73.9848,40.79769],[-73.99331,40.80129],[-73.99316,40.80576],[-74.01248,40.8167],[-74.01138,40.82084],[-74.01782,40.82334],[-74.02041,40.81864],[-74.02816,40.81565],[-74.03783,40.80759],[-74.05918,40.80618],[-74.06384,40.80415],[-74.06893,40.79842],[-74.07527,40.79663],[-74.07985,40.78973],[-74.09003,40.77801],[-74.08798,40.76444],[-74.09584,40.76286],[-74.0987,40.76774],[-74.09844,40.77252],[-74.10923,40.77783],[-74.11921,40.77237],[-74.12719,40.77134],[-74.13036,40.77756],[-74.14753,40.78649],[-74.14899,40.778],[-74.1558,40.77082],[-74.16453,40.7563],[-74.16608,40.74724],[-74.16379,40.7392],[-74.15998,40.73449],[-74.14719,40.7344],[-74.14269,40.7393],[-74.1368,40.74146],[-74.12279,40.7421],[-74.11699,40.73713],[-74.12139,40.721],[-74.12057,40.71713]]]},"properties":{"STATEFP":"34","COUNTYFP":"017","COUNTYNS":"00882278","GEOIDFQ":"0500000US34017","GEOID":"34017","NAME":"Hudson","NAMELSAD":"Hudson County","STUSPS":"NJ","STATE_NAME":"New Jersey","LSAD":"06","ALAND":119638045,"AWATER":41839269}},
{"type":"Feature","geometry":{"type":"Polygon","coordinates":[[[-74.76942,40.91093],[-74.76339,40.91329],[-74.75553,40.91365],[-74.74801,40.91982],[-74.73754,40.91892],[-74.73189,40.92083],[-74.72866,40.91638],[-74.71842,40.9124],[-74.71287,40.90767],[-74.71419,40.90115],[-74.71134,40.89918],[-74.70335,40.90179],[-74.69688,40.90742],[-74.68953,40.90732],[-74.6861,40.91],[-74.6795,40.90916],[-74.66531,40.91747],[-74.65796,40.91841],[-74.65159,40.92375],[-74.65156,40.93089],[-74.64158,40.93365],[-74.63644,40.94264],[-74.63507,40.95065],[-74.64135,40.95939],[-74.63952,40.96499],[-74.63238,40.97372],[-74.60667,40.99809],[-74.54777,41.04802],[-74.52936,41.06436],[-74.50321,41.08587],[-74.47676,41.10966],[-74.42126,41.16053],[-74.39001,41.1858],[-74.36738,41.20349],[-74.40426,41.22227],[-74.45758,41.24823],[-74.4996,41.26734],[-74.60735,41.31777],[-74.64154,41.33288],[-74.69491,41.35742],[-74.70851,41.35273],[-74.72092,41.34738],[-74.73037,41.34598],[-74.75324,41.34612],[-74.76032,41.34033],[-74.7635,41.33157],[-74.77159,41.32508],[-74.79212,41.32247],[-74.79582,41.31852],[-74.79256,41.31063],[-74.80686,41.30315],[-74.81203,41.29816],[-74.82188,41.29384],[-74.83006,41.2872],[-74.83837,41.27729],[-74.84632,41.26308],[-74.84503,41.25806],[-74.84899,41.25119],[-74.85715,41.24898],[-74.86168,41.24157],[-74.86205,41.23761],[-74.86741,41.22777],[-74.85932,41.22051],[-74.87403,41.19854],[-74.88214,41.18084],[-74.88942,41.1736],[-74.8997,41.16618],[-74.90526,41.15567],[-74.92317,41.13815],[-74.93114,41.13339],[-74.94507,41.12905],[-74.94791,41.12356],[-74.96429,41.11424],[-74.97292,41.11333],[-74.98221,41.10824],[-74.99172,41.09228],[-74.98826,41.08822],[-74.98131,41.08986],[-74.9753,41.09407],[-74.9671,41.09434],[-74.93933,41.06918],[-74.88665,41.01993],[-74.8603,40.99564],[-74.82269,40.96014],[-74.76942,40.91093]]]},"properties":{"STATEFP":"34","COUNTYFP":"037","COUNTYNS":"00882236","GEOIDFQ":"0500000US34037","GEOID":"34037","NAME":"Sussex","NAMELSAD":"Sussex County","STUSPS":"NJ","STATE_NAME":"New Jersey","LSAD":"06","ALAND":1342879999,"AWATER":43881034}},
{"type":"Feature","geometry":{"type":"Polygon","coordinates":[[[-74.32638,39.50633],[-74.32322,39.50839],[-74.30771,39.50957],[-74.2895,39.50932],[-74.28547,39.51214],[-74.2661,39.53035],[-74.26285,39.53145],[-74.24944,39.54824],[-74.24065,39.55575],[-74.19145,39.62528],[-74.14203,39.68979],[-74.11732,39.73533],[-74.11006,39.74576],[-74.10286,39.75129],[-74.0991,39.75683],[-74.10033,39.76196],[-74.09767,39.76869],[-74.09183,39.80052],[-74.08494,39.86276],[-74.07736,39.91027],[-74.06997,39.94267],[-74.06423,39.9789],[-74.03984,40.08147],[-74.03373,40.10198],[-74.04572,40.1053],[-74.05609,40.10084],[-74.05758,40.09731],[-74.07025,40.08941],[-74.08351,40.09556],[-74.09422,40.10751],[-74.09465,40.11375],[-74.09904,40.12778],[-74.10334,40.13441],[-74.10767,40.13701],[-74.15032,40.09888],[-74.1544,40.09972],[-74.16031,40.10702],[-74.1719,40.10771],[-74.17946,40.11093],[-74.18306,40.11017],[-74.20198,40.11248],[-74.21224,40.1101],[-74.22441,40.10898],[-74.2396,40.11238],[-74.24458,40.11814],[-74.24183,40.13096],[-74.24643,40.13566],[-74.249,40.1438],[-74.25355,40.14768],[-74.25981,40.14905],[-74.2585,40.16037],[-74.26145,40.16703],[-74.40671,40.1724],[-74.46955,40.12859],[-74.52732,40.09028],[-74.5531,40.07913],[-74.52832,40.03668],[-74.50641,39.9913],[-74.47024,39.92253],[-74.43422,39.85516],[-74.42942,39.8454],[-74.38971,39.77328],[-74.39034,39.62946],[-74.3904,39.5962],[-74.3923,39.59456],[-74.40082,39.57224],[-74.40516,39.56959],[-74.41599,39.57046],[-74.41909,39.56783],[-74.4144,39.56098],[-74.41739,39.55726],[-74.41622,39.5498],[-74.40953,39.54711],[-74.40168,39.53792],[-74.3808,39.49854],[-74.36097,39.50203],[-74.35421,39.50557],[-74.33859,39.50686],[-74.32638,39.50633]]]},"properties":{"STATEFP":"34","COUNTYFP":"029","COUNTYNS":"00882279","GEOIDFQ":"0500000US34029","GEOID":"34029","NAME":"Ocean","NAMELSAD":"Ocean County","STUSPS":"NJ","STATE_NAME":"New Jersey","LSAD":"06","ALAND":1627264184,"AWATER":742150453}},
{"type":"Feature","geometry":{"type":"Polygon","coordinates":[[[-74.20515,40.59388],[-74.20092,40.60184],[-74.20595,40.606],[-74.20463,40.61889],[-74.20624,40.62646],[-74.20268,40.63384],[-74.18486,40.64705],[-74.18016,40.64779],[-74.16983,40.65258],[-74.15682,40.66275],[-74.14926,40.65998],[-74.13882,40.6739],[-74.14372,40.6795],[-74.15386,40.68592],[-74.15786,40.68595],[-74.16505,40.69016],[-74.16927,40.68862],[-74.2018,40.68681],[-74.20925,40.69071],[-74.21297,40.70081],[-74.22195,40.70734],[-74.25602,40.71342],[-74.28519,40.72215],[-74.29373,40.71996],[-74.29721,40.71519],[-74.30403,40.71328],[-74.31657,40.71927],[-74.3256,40.71708],[-74.34144,40.72444],[-74.34866,40.73022],[-74.35894,40.73598],[-74.37174,40.73964],[-74.37113,40.73458],[-74.38427,40.72449],[-74.39078,40.72539],[-74.39075,40.71845],[-74.40176,40.71814],[-74.4132,40.70981],[-74.41575,40.70557],[-74.42351,40.70305],[-74.43964,40.6897],[-74.4519,40.6854],[-74.45156,40.67968],[-74.45418,40.67409],[-74.46103,40.6735],[-74.45085,40.65415],[-74.44308,40.65765],[-74.43592,40.66346],[-74.42976,40.66497],[-74.41978,40.65772],[-74.405,40.66773],[-74.40175,40.66428],[-74.40274,40.65643],[-74.40853,40.64435],[-74.41442,40.64065],[-74.41528,40.63166],[-74.41765,40.62754],[-74.42269,40.62522],[-74.42346,40.62088],[-74.43821,40.60971],[-74.44546,40.60907],[-74.45068,40.60401],[-74.454,40.60402],[-74.46329,40.59919],[-74.4569,40.5958],[-74.30292,40.60868],[-74.30533,40.60059],[-74.29085,40.59195],[-74.25956,40.59731],[-74.25769,40.60228],[-74.24239,40.59947],[-74.23564,40.60252],[-74.22974,40.59883],[-74.21247,40.60282],[-74.2115,40.59832],[-74.20515,40.59388]]]},"properties":{"STATEFP":"34","COUNTYFP":"039","COUNTYNS":"00882235","GEOIDFQ":"0500000US34039","GEOID":"34039","NAME":"Union","NAMELSAD":"Union County","STUSPS":"NJ","STATE_NAME":"New Jersey","LSAD":"06","ALAND":266165786,"AWATER":6839053}}
]}