{"type":"FeatureCollection", "features": [
{"type":"Feature","geometry":{"type":"Polygon","coordinates":[[[-107.42091,37.00001],[-107.53421,37],[-107.7124,37],[-107.87814,37],[-108.00062,37],[-108.24936,36.99902],[-108.25063,36.99956],[-108.3793,36.99946],[-108.53641,36.99932],[-108.7496,36.99914],[-108.9544,36.99891],[-109.04522,36.99908],[-109.04543,36.87459],[-109.04543,36.76912],[-109.04543,36.52988],[-109.04584,36.32893],[-109.04618,36.18175],[-109.04573,36.11703],[-109.04597,36.0027],[-109.03812,36.00236],[-108.95952,36.0027],[-108.82718,36.00273],[-108.65914,36.00275],[-108.374,36.00238],[-108.27177,36.00218],[-108.16563,36.00284],[-108.00226,36.00223],[-107.80561,36.00125],[-107.62651,36.00029],[-107.62615,36.08847],[-107.6247,36.13241],[-107.62428,36.21981],[-107.62425,36.27802],[-107.62595,36.34989],[-107.6236,36.39336],[-107.62654,36.4363],[-107.62523,36.58055],[-107.62334,36.61077],[-107.62342,36.67534],[-107.61939,36.67535],[-107.61818,36.80427],[-107.60552,36.79804],[-107.60649,36.8109],[-107.5998,36.81529],[-107.59798,36.8343],[-107.58958,36.8372],[-107.57996,36.83512],[-107.57547,36.84144],[-107.56569,36.84599],[-107.56612,36.85191],[-107.55601,36.85709],[-107.54741,36.84932],[-107.53906,36.85574],[-107.52985,36.85435],[-107.53038,36.86095],[-107.52292,36.87547],[-107.51584,36.87847],[-107.50483,36.87527],[-107.5006,36.88166],[-107.49259,36.8768],[-107.48984,36.88279],[-107.47682,36.89383],[-107.47021,36.8938],[-107.45144,36.90404],[-107.44569,36.91537],[-107.45127,36.92121],[-107.4558,36.93951],[-107.4484,36.9449],[-107.45672,36.95319],[-107.44729,36.96471],[-107.43062,36.97011],[-107.42892,36.97397],[-107.43145,36.98635],[-107.42091,37.00001]]]},"properties":{"STATEFP":"35","COUNTYFP":"045","COUNTYNS":"00936844","GEOIDFQ":"0500000US35045","GEOID":"35045","NAME":"San Juan","NAMELSAD":"San Juan County","STUSPS":"NM","STATE_NAME":"New Mexico","LSAD":"06","ALAND":14289564687,"AWATER":54893983}},
{"type":"Feature","geometry":{"type":"Polygon","coordinates":[[[-104.89174,34.34704],[-104.89241,34.25992],[-104.89338,34.08841],[-104.87521,34.08875],[-104.78643,34.08766],[-104.7861,34.00014],[-104.56739,33.99757],[-104.3174,33.99588],[-104.15627,33.99541],[-104.1556,34.08321],[-103.99858,34.08229],[-103.94602,34.08246],[-103.94575,34.25965],[-103.94917,34.25965],[-103.94902,34.39014],[-103.94897,34.52141],[-103.94878,34.60506],[-104.12888,34.6052],[-104.12914,34.77934],[-104.33982,34.77906],[-104.33972,34.69223],[-104.44493,34.69165],[-104.44476,34.60495],[-104.55516,34.60469],[-104.68899,34.6047],[-104.89202,34.60443],[-104.89174,34.34704]]]},"properties":{"STATEFP":"35","COUNTYFP":"011","COUNTYNS":"00933054","GEOIDFQ":"0500000US35011","GEOID":"35011","NAME":"De Baca","NAMELSAD":"De Baca County","STUSPS":"NM","STATE_NAME":"New Mexico","LSAD":"06","ALAND":6016818941,"AWATER":29090018}},
{"type":"Feature","geometry":{"type":"Polygon","coordinates":[[[-107.60848,32.60545],[-107.61355,32.60517],[-107.924,32.60438],[-107.92377,32.51742],[-108.01061,32.51711],[-108.22934,32.51684],[-108.22977,32.49961],[-108.22981,32.20716],[-108.22995,32.07987],[-108.21696,32.07986],[-108.21714,31.86414],[-108.21713,31.82048],[-108.21001,31.8205],[-108.20999,31.7837],[-108.20839,31.7836],[-107.86586,31.7836],[-107.64025,31.7836],[-107.42249,31.7836],[-107.29679,31.78376],[-107.29759,32.07961],[-107.29874,32.08235],[-107.29844,32.24298],[-107.29805,32.49335],[-107.29963,32.60537],[-107.46484,32.60547],[-107.60848,32.60545]]]},"properties":{"STATEFP":"35","COUNTYFP":"029","COUNTYNS":"00933057","GEOIDFQ":"0500000US35029","GEOID":"35029","NAME":"Luna","NAMELSAD":"Luna County","STUSPS":"NM","STATE_NAME":"New Mexico","LSAD":"06","ALAND":7679773820,"AWATER":433660}},
{"type":"Feature","geometry":{"type":"Polygon","coordinates":[[[-104.43606,36.21853],[-104.43046,36.2136],[-104.43748,36.19599],[-104.43362,36.19045],[-104.43622,36.17739],[-104.42713,36.17794],[-104.42414,36.18399],[-104.41443,36.17684],[-104.41991,36.16828],[-104.40436,36.1554],[-104.40771,36.14725],[-104.4199,36.14377],[-104.41922,36.13815],[-104.40928,36.13201],[-104.41455,36.12376],[-104.40292,36.11701],[-104.4021,36.10852],[-104.39744,36.09911],[-104.40107,36.09155],[-104.38538,36.08788],[-104.39025,36.08221],[-104.38119,36.07622],[-104.37658,36.05957],[-104.37975,36.04927],[-104.36572,36.04429],[-104.36114,36.03507],[-104.36055,36.02392],[-104.36529,36.01343],[-104.33958,36.00003],[-104.34117,35.99188],[-104.35572,35.98266],[-104.34282,35.97487],[-104.33411,35.96473],[-104.32728,35.9602],[-104.33588,35.95565],[-104.35207,35.95404],[-104.34979,35.94976],[-104.33942,35.94449],[-104.34428,35.93967],[-104.35282,35.94031],[-104.35475,35.92964],[-104.34288,35.93064],[-104.34382,35.92481],[-104.35314,35.92221],[-104.3527,35.9168],[-104.34372,35.91185],[-104.34908,35.90775],[-104.35018,35.90055],[-104.35641,35.89708],[-104.36645,35.89821],[-104.36599,35.89235],[-104.35941,35.88643],[-104.3726,35.88307],[-104.37915,35.87752],[-104.38014,35.86495],[-104.3904,35.85831],[-104.3723,35.84813],[-104.36641,35.83908],[-104.37741,35.83294],[-104.36691,35.8294],[-104.37812,35.8236],[-104.375,35.8186],[-104.36412,35.81263],[-104.37112,35.80457],[-104.3641,35.79617],[-104.36528,35.78949],[-104.36217,35.78318],[-104.37012,35.7793],[-104.10743,35.78174],[-104.0217,35.78149],[-103.9769,35.80175],[-103.93098,35.73278],[-103.72361,35.42278],[-103.7206,35.42242],[-103.63703,35.42234],[-103.63705,35.38966],[-103.52127,35.38953],[-103.38895,35.38962],[-103.37973,35.3968],[-103.37956,35.49472],[-103.37939,35.65252],[-103.37519,35.65252],[-103.37512,35.73952],[-103.37486,35.99866],[-103.36506,35.99866],[-103.36498,36.08605],[-103.75863,36.08556],[-103.79452,36.08574],[-103.79399,36.17397],[-104.00886,36.17453],[-104.00882,36.21811],[-104.09826,36.21806],[-104.43606,36.21853]]]},"properties":{"STATEFP":"35","COUNTYFP":"021","COUNTYNS":"00933055","GEOIDFQ":"0500000US35021","GEOID":"35021","NAME":"Harding","NAMELSAD":"Harding County","STUSPS":"NM","STATE_NAME":"New Mexico","LSAD":"06","ALAND":5504963122,"AWATER":1162620}},
{"type":"Feature","geometry":{"type":"Polygon","coordinates":[[[-107.29963,32.60537],[-107.29948,32.7801],[-107.25939,32.78007],[-106.93787,32.77937],[-106.88773,32.77927],[-106.88789,32.82278],[-106.75162,32.88004],[-106.34051,33.05278],[-106.34055,33.13594],[-106.34142,33.13594],[-106.34571,33.39059],[-106.37188,33.39061],[-106.3728,33.47988],[-106.47427,33.48019],[-106.47429,33.47579],[-106.74935,33.47548],[-107.22048,33.47801],[-107.44922,33.47648],[-107.71275,33.47683],[-107.74647,33.47778],[-107.7636,33.47697],[-107.93896,33.47438],[-107.96778,33.47795],[-108.0006,33.47801],[-108.0006,33.20125],[-107.86501,33.19997],[-107.85721,33.19707],[-107.85772,33.19085],[-107.84949,33.18881],[-107.84065,33.1831],[-107.84268,33.17244],[-107.85318,33.17093],[-107.85629,33.16532],[-107.85392,33.15742],[-107.85624,33.14986],[-107.85294,33.14532],[-107.85257,33.1342],[-107.84559,33.13095],[-107.85064,33.11972],[-107.84614,33.10223],[-107.84213,33.09582],[-107.8458,33.08604],[-107.83432,33.07808],[-107.83619,33.06776],[-107.84477,33.05859],[-107.85149,33.05619],[-107.85047,33.04438],[-107.85681,33.03664],[-107.84818,33.02635],[-107.84604,33.01619],[-107.84886,33.00633],[-107.85667,33.00254],[-107.84733,32.99399],[-107.83775,32.97912],[-107.83184,32.97431],[-107.82977,32.96392],[-107.81598,32.95794],[-107.80124,32.95783],[-107.7918,32.94807],[-107.78055,32.95278],[-107.77406,32.95057],[-107.77128,32.94215],[-107.77576,32.93754],[-107.77571,32.93082],[-107.76625,32.91969],[-107.76533,32.91182],[-107.7789,32.89688],[-107.77621,32.89333],[-107.77721,32.88334],[-107.77439,32.87387],[-107.77309,32.85378],[-107.75899,32.84667],[-107.74499,32.82508],[-107.74979,32.80538],[-107.74679,32.80348],[-107.74089,32.78858],[-107.73539,32.78338],[-107.72179,32.77878],[-107.71769,32.75508],[-107.72286,32.73612],[-107.71528,32.72157],[-107.72044,32.71423],[-107.71957,32.69747],[-107.72745,32.69211],[-107.72828,32.68023],[-107.72434,32.67378],[-107.72532,32.66108],[-107.73083,32.65319],[-107.72948,32.64748],[-107.73374,32.64251],[-107.73228,32.62735],[-107.71692,32.62256],[-107.60848,32.60545],[-107.46484,32.60547],[-107.29963,32.60537]]]},"properties":{"STATEFP":"35","COUNTYFP":"051","COUNTYNS":"01702370","GEOIDFQ":"0500000US35051","GEOID":"35051","NAME":"Sierra","NAMELSAD":"Sierra County","STUSPS":"NM","STATE_NAME":"New Mexico","LSAD":"06","ALAND":10829293032,"AWATER":147631578}},
{"type":"Feature","geometry":{"type":"MultiPolygon","coordinates":[[[[-107.62651,36.00029],[-107.55701,36.00026],[-107.30867,35.99856],[-107.30862,35.88539],[-107.3087,35.74],[-107.30835,35.58347],[-107.3078,35.52571],[-107.30612,35.41906],[-107.31034,35.41954],[-107.30939,35.30569],[-107.23889,35.30551],[-107.19724,35.21946],[-107.13475,35.21942],[-107.0984,35.2185],[-106.96204,35.21839],[-106.85313,35.21799],[-106.65815,35.21788],[-106.63973,35.20295],[-106.62141,35.20932],[-106.60448,35.21786],[-106.45938,35.21794],[-106.41865,35.21743],[-106.36724,35.21741],[-106.24422,35.21566],[-106.24565,35.25074],[-106.24563,35.30433],[-106.24895,35.30457],[-106.24885,35.44328],[-106.24859,35.44569],[-106.24866,35.6529],[-106.25025,35.6529],[-106.2505,35.75582],[-106.25407,35.75427],[-106.25778,35.76966],[-106.26604,35.7795],[-106.28261,35.79191],[-106.29936,35.79726],[-106.32491,35.8071],[-106.33868,35.80797],[-106.35703,35.81637],[-106.36218,35.81143],[-106.37037,35.81307],[-106.38236,35.80798],[-106.4007,35.80757],[-106.41115,35.81086],[-106.41798,35.81843],[-106.41728,35.82777],[-106.39963,35.82823],[-106.39971,35.94908],[-106.39947,35.96009],[-106.38582,35.95994],[-106.38612,35.95271],[-106.31544,35.95242],[-106.31682,35.95854],[-106.30016,35.95845],[-106.30037,35.97339],[-106.26424,35.97275],[-106.26422,35.96547],[-106.24816,35.96633],[-106.24663,35.9732],[-106.24716,36.00143],[-106.32906,36.00118],[-106.38156,36.0004],[-106.39084,36.00135],[-106.4473,36.00117],[-106.77747,35.999],[-106.87559,35.9986],[-106.88532,35.99897],[-106.88588,36.11762],[-106.88505,36.21657],[-107.05373,36.21658],[-107.25403,36.21657],[-107.30462,36.21463],[-107.41106,36.21803],[-107.47589,36.21761],[-107.55375,36.21886],[-107.57139,36.2199],[-107.62428,36.21981],[-107.6247,36.13241],[-107.62615,36.08847],[-107.62651,36.00029]]],[[[-106.24834,35.85565],[-106.26574,35.85192],[-106.26101,35.84673],[-106.24929,35.8428],[-106.24826,35.83918],[-106.24834,35.85565]]]]},"properties":{"STATEFP":"35","COUNTYFP":"043","COUNTYNS":"00929113","GEOIDFQ":"0500000US35043","GEOID":"35043","NAME":"Sandoval","NAMELSAD":"Sandoval County","STUSPS":"NM","STATE_NAME":"New Mexico","LSAD":"06","ALAND":9609358678,"AWATER":10851799}},
{"type":"Feature","geometry":{"type":"Polygon","coordinates":[[[-107.62428,36.21981],[-107.57139,36.2199],[-107.55375,36.21886],[-107.47589,36.21761],[-107.41106,36.21803],[-107.30462,36.21463],[-107.25403,36.21657],[-107.05373,36.21658],[-106.88505,36.21657],[-106.88588,36.11762],[-106.88532,35.99897],[-106.87559,35.9986],[-106.77747,35.999],[-106.4473,36.00117],[-106.39084,36.00135],[-106.38156,36.0004],[-106.32906,36.00118],[-106.24716,36.00143],[-106.24663,35.9732],[-106.24816,35.96633],[-106.2456,35.95935],[-106.24565,35.93074],[-106.14355,35.93064],[-106.05435,35.93078],[-106.05415,35.98591],[-106.05588,35.98943],[-106.06594,35.9893],[-106.0649,35.99669],[-106.07135,36.00197],[-105.85562,36.00214],[-105.71681,36.00232],[-105.71748,35.97874],[-105.70758,35.96875],[-105.69487,35.96754],[-105.67963,35.96817],[-105.66002,35.95852],[-105.64516,35.96216],[-105.6444,35.96891],[-105.63211,35.97959],[-105.60342,35.97326],[-105.59178,35.97649],[-105.58844,35.97383],[-105.57239,35.97246],[-105.56632,35.97476],[-105.55752,35.98404],[-105.53712,35.99088],[-105.5314,36.00146],[-105.53421,36.00706],[-105.53038,36.01301],[-105.61309,36.04856],[-105.62551,36.05329],[-105.73588,36.10013],[-105.75065,36.11573],[-105.76143,36.12982],[-105.7892,36.15944],[-105.85695,36.23043],[-105.99267,36.27544],[-106.05836,36.29698],[-106.05594,36.3049],[-106.03598,36.32673],[-106.02709,36.32916],[-106.01845,36.32796],[-106.01199,36.33177],[-106.00475,36.33119],[-105.9961,36.33805],[-105.98413,36.34311],[-105.97761,36.34299],[-105.96035,36.35355],[-105.95188,36.37452],[-105.95404,36.39609],[-105.95325,36.4072],[-105.95547,36.4191],[-105.95235,36.43444],[-105.94513,36.44663],[-105.93875,36.4624],[-105.94175,36.49657],[-105.94967,36.51581],[-105.95481,36.53916],[-105.94996,36.54259],[-105.95567,36.57559],[-105.96411,36.59833],[-105.96429,36.61318],[-105.97184,36.63244],[-105.9725,36.6476],[-105.98163,36.64713],[-105.98433,36.65963],[-105.96831,36.6596],[-105.97083,36.67148],[-105.97085,36.68311],[-105.97875,36.70114],[-105.98097,36.71366],[-105.97731,36.72176],[-105.98004,36.74211],[-105.98212,36.74639],[-105.97995,36.76734],[-105.98214,36.78217],[-105.98453,36.81137],[-105.97455,36.83749],[-105.97296,36.84722],[-105.97398,36.8658],[-105.97189,36.88625],[-105.97551,36.90238],[-105.98577,36.92045],[-105.98799,36.94046],[-105.99732,36.96037],[-106.00037,36.97133],[-106.00469,36.97646],[-106.00632,36.99535],[-106.20147,36.99412],[-106.29328,36.99389],[-106.34314,36.99423],[-106.50059,36.99377],[-106.61716,36.99297],[-106.66134,36.99324],[-106.75059,36.99246],[-106.8698,36.99243],[-106.87729,37.00014],[-106.98551,37.00011],[-107.19689,37.00006],[-107.42091,37.00001],[-107.43145,36.98635],[-107.42892,36.97397],[-107.43062,36.97011],[-107.44729,36.96471],[-107.45672,36.95319],[-107.4484,36.9449],[-107.4558,36.93951],[-107.45127,36.92121],[-107.44569,36.91537],[-107.45144,36.90404],[-107.47021,36.8938],[-107.47682,36.89383],[-107.48984,36.88279],[-107.49259,36.8768],[-107.5006,36.88166],[-107.50483,36.87527],[-107.51584,36.87847],[-107.52292,36.87547],[-107.53038,36.86095],[-107.52985,36.85435],[-107.53906,36.85574],[-107.54741,36.84932],[-107.55601,36.85709],[-107.56612,36.85191],[-107.56569,36.84599],[-107.57547,36.84144],[-107.57996,36.83512],[-107.58958,36.8372],[-107.59798,36.8343],[-107.5998,36.81529],[-107.60649,36.8109],[-107.60552,36.79804],[-107.61818,36.80427],[-107.61939,36.67535],[-107.62342,36.67534],[-107.62334,36.61077],[-107.62523,36.58055],[-107.62654,36.4363],[-107.6236,36.39336],[-107.62595,36.34989],[-107.62425,36.27802],[-107.62428,36.21981]]]},"properties":{"STATEFP":"35","COUNTYFP":"039","COUNTYNS":"01702368","GEOIDFQ":"0500000US35039","GEOID":"35039","NAME":"Rio Arriba","NAMELSAD":"Rio Arriba County","STUSPS":"NM","STATE_NAME":"New Mexico","LSAD":"06","ALAND":15179593245,"AWATER":91463243}},
{"type":"Feature","geometry":{"type":"Polygon","coordinates":[[[-105.53038,36.01301],[-105.51252,36.01728],[-105.50687,36.02077],[-105.49546,36.035],[-105.48968,36.03733],[-105.46292,36.07837],[-105.43439,36.1151],[-105.43002,36.11782],[-105.41999,36.1317],[-105.42104,36.14852],[-105.41474,36.15712],[-105.42131,36.16199],[-105.42181,36.16968],[-105.39701,36.19157],[-105.39919,36.2033],[-105.3928,36.21612],[-105.39933,36.22983],[-105.40968,36.23681],[-105.39375,36.24353],[-105.38735,36.25284],[-105.34126,36.26186],[-105.32752,36.27704],[-105.33565,36.30148],[-105.33442,36.31493],[-105.33125,36.32303],[-105.33262,36.33155],[-105.32895,36.33726],[-105.33239,36.34594],[-105.32911,36.34974],[-105.33238,36.36753],[-105.33619,36.37339],[-105.32734,36.38032],[-105.32511,36.38863],[-105.33158,36.41239],[-105.34012,36.41547],[-105.33622,36.42646],[-105.33986,36.43497],[-105.33598,36.43895],[-105.33962,36.44577],[-105.35109,36.44519],[-105.35683,36.4495],[-105.3494,36.45571],[-105.34361,36.46834],[-105.33958,36.47046],[-105.33637,36.4835],[-105.32218,36.48669],[-105.31872,36.49169],[-105.32667,36.50003],[-105.33716,36.50524],[-105.34387,36.51115],[-105.34782,36.53205],[-105.35778,36.54097],[-105.36766,36.54268],[-105.37617,36.54965],[-105.36977,36.55467],[-105.35566,36.55842],[-105.35019,36.57245],[-105.35388,36.575],[-105.35792,36.58975],[-105.36721,36.59811],[-105.37479,36.60862],[-105.37366,36.61635],[-105.36577,36.62741],[-105.35415,36.63045],[-105.35138,36.63691],[-105.3641,36.65408],[-105.36034,36.66298],[-105.37034,36.67156],[-105.37066,36.68069],[-105.3655,36.68747],[-105.35233,36.69723],[-105.34363,36.69767],[-105.3353,36.70239],[-105.32662,36.69786],[-105.31322,36.72324],[-105.29758,36.72754],[-105.28883,36.72788],[-105.28541,36.72123],[-105.27692,36.72134],[-105.26843,36.71675],[-105.26283,36.71959],[-105.24806,36.71781],[-105.24298,36.72213],[-105.23063,36.72378],[-105.22433,36.73408],[-105.22665,36.73834],[-105.22395,36.75552],[-105.22664,36.77143],[-105.23467,36.78604],[-105.2353,36.79066],[-105.22731,36.80096],[-105.23341,36.80726],[-105.23344,36.812],[-105.22444,36.82228],[-105.22341,36.83376],[-105.22933,36.84225],[-105.22937,36.84771],[-105.22178,36.86882],[-105.22198,36.87287],[-105.2154,36.883],[-105.20012,36.91563],[-105.21179,36.91973],[-105.21309,36.93236],[-105.22732,36.94626],[-105.22844,36.95456],[-105.23615,36.96234],[-105.23617,36.98195],[-105.22347,36.98671],[-105.22051,36.99517],[-105.2513,36.9956],[-105.44725,36.99602],[-105.62747,36.99568],[-105.71847,36.99585],[-106.00632,36.99535],[-106.00469,36.97646],[-106.00037,36.97133],[-105.99732,36.96037],[-105.98799,36.94046],[-105.98577,36.92045],[-105.97551,36.90238],[-105.97189,36.88625],[-105.97398,36.8658],[-105.97296,36.84722],[-105.97455,36.83749],[-105.98453,36.81137],[-105.98214,36.78217],[-105.97995,36.76734],[-105.98212,36.74639],[-105.98004,36.74211],[-105.97731,36.72176],[-105.98097,36.71366],[-105.97875,36.70114],[-105.97085,36.68311],[-105.97083,36.67148],[-105.96831,36.6596],[-105.98433,36.65963],[-105.98163,36.64713],[-105.9725,36.6476],[-105.97184,36.63244],[-105.96429,36.61318],[-105.96411,36.59833],[-105.95567,36.57559],[-105.94996,36.54259],[-105.95481,36.53916],[-105.94967,36.51581],[-105.94175,36.49657],[-105.93875,36.4624],[-105.94513,36.44663],[-105.95235,36.43444],[-105.95547,36.4191],[-105.95325,36.4072],[-105.95404,36.39609],[-105.95188,36.37452],[-105.96035,36.35355],[-105.97761,36.34299],[-105.98413,36.34311],[-105.9961,36.33805],[-106.00475,36.33119],[-106.01199,36.33177],[-106.01845,36.32796],[-106.02709,36.32916],[-106.03598,36.32673],[-106.05594,36.3049],[-106.05836,36.29698],[-105.99267,36.27544],[-105.85695,36.23043],[-105.7892,36.15944],[-105.76143,36.12982],[-105.75065,36.11573],[-105.73588,36.10013],[-105.62551,36.05329],[-105.61309,36.04856],[-105.53038,36.01301]]]},"properties":{"STATEFP":"35","COUNTYFP":"055","COUNTYNS":"00933056","GEOIDFQ":"0500000US35055","GEOID":"35055","NAME":"Taos","NAMELSAD":"Taos County","STUSPS":"NM","STATE_NAME":"New Mexico","LSAD":"06","ALAND":5704119618,"AWATER":3383128}},
{"type":"Feature","geometry":{"type":"Polygon","coordinates":[[[-104.43606,36.21853],[-104.7399,36.21867],[-104.75764,36.21789],[-104.8654,36.21787],[-104.86534,36.26142],[-105.16551,36.26108],[-105.30739,36.26214],[-105.34126,36.26186],[-105.38735,36.25284],[-105.39375,36.24353],[-105.40968,36.23681],[-105.39933,36.22983],[-105.3928,36.21612],[-105.39919,36.2033],[-105.39701,36.19157],[-105.42181,36.16968],[-105.42131,36.16199],[-105.41474,36.15712],[-105.42104,36.14852],[-105.41999,36.1317],[-105.43002,36.11782],[-105.43439,36.1151],[-105.46292,36.07837],[-105.48968,36.03733],[-105.49546,36.035],[-105.50687,36.02077],[-105.51252,36.01728],[-105.53038,36.01301],[-105.53421,36.00706],[-105.5314,36.00146],[-105.53712,35.99088],[-105.55752,35.98404],[-105.56632,35.97476],[-105.57239,35.97246],[-105.58844,35.97383],[-105.59178,35.97649],[-105.60342,35.97326],[-105.63211,35.97959],[-105.6444,35.96891],[-105.64516,35.96216],[-105.66002,35.95852],[-105.67963,35.96817],[-105.69487,35.96754],[-105.70758,35.96875],[-105.71748,35.97874],[-105.72053,35.87118],[-105.61831,35.87119],[-105.60987,35.8706],[-105.47448,35.87065],[-105.34783,35.8707],[-105.23777,35.83834],[-105.21998,35.83453],[-105.21919,35.82942],[-105.19599,35.826],[-105.17718,35.82573],[-105.17262,35.82224],[-105.15975,35.81906],[-105.15014,35.80917],[-105.12849,35.81104],[-105.1173,35.80721],[-105.10973,35.80792],[-105.09385,35.79848],[-105.0728,35.78245],[-105.05783,35.78016],[-105.0418,35.76772],[-105.03738,35.77069],[-105.02772,35.75531],[-105.01468,35.76845],[-105.00732,35.77123],[-104.86297,35.77792],[-104.65753,35.78336],[-104.54626,35.78371],[-104.54636,35.78069],[-104.3857,35.77878],[-104.37012,35.7793],[-104.36217,35.78318],[-104.36528,35.78949],[-104.3641,35.79617],[-104.37112,35.80457],[-104.36412,35.81263],[-104.375,35.8186],[-104.37812,35.8236],[-104.36691,35.8294],[-104.37741,35.83294],[-104.36641,35.83908],[-104.3723,35.84813],[-104.3904,35.85831],[-104.38014,35.86495],[-104.37915,35.87752],[-104.3726,35.88307],[-104.35941,35.88643],[-104.36599,35.89235],[-104.36645,35.89821],[-104.35641,35.89708],[-104.35018,35.90055],[-104.34908,35.90775],[-104.34372,35.91185],[-104.3527,35.9168],[-104.35314,35.92221],[-104.34382,35.92481],[-104.34288,35.93064],[-104.35475,35.92964],[-104.35282,35.94031],[-104.34428,35.93967],[-104.33942,35.94449],[-104.34979,35.94976],[-104.35207,35.95404],[-104.33588,35.95565],[-104.32728,35.9602],[-104.33411,35.96473],[-104.34282,35.97487],[-104.35572,35.98266],[-104.34117,35.99188],[-104.33958,36.00003],[-104.36529,36.01343],[-104.36055,36.02392],[-104.36114,36.03507],[-104.36572,36.04429],[-104.37975,36.04927],[-104.37658,36.05957],[-104.38119,36.07622],[-104.39025,36.08221],[-104.38538,36.08788],[-104.40107,36.09155],[-104.39744,36.09911],[-104.4021,36.10852],[-104.40292,36.11701],[-104.41455,36.12376],[-104.40928,36.13201],[-104.41922,36.13815],[-104.4199,36.14377],[-104.40771,36.14725],[-104.40436,36.1554],[-104.41991,36.16828],[-104.41443,36.17684],[-104.42414,36.18399],[-104.42713,36.17794],[-104.43622,36.17739],[-104.43362,36.19045],[-104.43748,36.19599],[-104.43046,36.2136],[-104.43606,36.21853]]]},"properties":{"STATEFP":"35","COUNTYFP":"033","COUNTYNS":"01702367","GEOIDFQ":"0500000US35033","GEOID":"35033","NAME":"Mora","NAMELSAD":"Mora County","STUSPS":"NM","STATE_NAME":"New Mexico","LSAD":"06","ALAND":4988962636,"AWATER":6093304}},
{"type":"Feature","geometry":{"type":"Polygon","coordinates":[[[-104.00882,36.21811],[-104.0087,36.34937],[-104.00802,36.34942],[-104.00817,36.45107],[-104.00845,36.56762],[-104.00902,36.67881],[-104.00745,36.69765],[-104.00802,36.7852],[-104.00775,36.89937],[-104.00785,36.99624],[-104.25054,36.99464],[-104.33883,36.99354],[-104.51926,36.99377],[-104.62456,36.99438],[-104.64503,36.99338],[-104.75537,36.99346],[-105.00055,36.99326],[-105.02923,36.99273],[-105.1208,36.99543],[-105.22051,36.99517],[-105.22347,36.98671],[-105.23617,36.98195],[-105.23615,36.96234],[-105.22844,36.95456],[-105.22732,36.94626],[-105.21309,36.93236],[-105.21179,36.91973],[-105.20012,36.91563],[-105.2154,36.883],[-105.22198,36.87287],[-105.22178,36.86882],[-105.22937,36.84771],[-105.22933,36.84225],[-105.22341,36.83376],[-105.22444,36.82228],[-105.23344,36.812],[-105.23341,36.80726],[-105.22731,36.80096],[-105.2353,36.79066],[-105.23467,36.78604],[-105.22664,36.77143],[-105.22395,36.75552],[-105.22665,36.73834],[-105.22433,36.73408],[-105.23063,36.72378],[-105.24298,36.72213],[-105.24806,36.71781],[-105.26283,36.71959],[-105.26843,36.71675],[-105.27692,36.72134],[-105.28541,36.72123],[-105.28883,36.72788],[-105.29758,36.72754],[-105.31322,36.72324],[-105.32662,36.69786],[-105.3353,36.70239],[-105.34363,36.69767],[-105.35233,36.69723],[-105.3655,36.68747],[-105.37066,36.68069],[-105.37034,36.67156],[-105.36034,36.66298],[-105.3641,36.65408],[-105.35138,36.63691],[-105.35415,36.63045],[-105.36577,36.62741],[-105.37366,36.61635],[-105.37479,36.60862],[-105.36721,36.59811],[-105.35792,36.58975],[-105.35388,36.575],[-105.35019,36.57245],[-105.35566,36.55842],[-105.36977,36.55467],[-105.37617,36.54965],[-105.36766,36.54268],[-105.35778,36.54097],[-105.34782,36.53205],[-105.34387,36.51115],[-105.33716,36.50524],[-105.32667,36.50003],[-105.31872,36.49169],[-105.32218,36.48669],[-105.33637,36.4835],[-105.33958,36.47046],[-105.34361,36.46834],[-105.3494,36.45571],[-105.35683,36.4495],[-105.35109,36.44519],[-105.33962,36.44577],[-105.33598,36.43895],[-105.33986,36.43497],[-105.33622,36.42646],[-105.34012,36.41547],[-105.33158,36.41239],[-105.32511,36.38863],[-105.32734,36.38032],[-105.33619,36.37339],[-105.33238,36.36753],[-105.32911,36.34974],[-105.33239,36.34594],[-105.32895,36.33726],[-105.33262,36.33155],[-105.33125,36.32303],[-105.33442,36.31493],[-105.33565,36.30148],[-105.32752,36.27704],[-105.34126,36.26186],[-105.30739,36.26214],[-105.16551,36.26108],[-104.86534,36.26142],[-104.8654,36.21787],[-104.75764,36.21789],[-104.7399,36.21867],[-104.43606,36.21853],[-104.09826,36.21806],[-104.00882,36.21811]]]},"properties":{"STATEFP":"35","COUNTYFP":"007","COUNTYNS":"00929117","GEOIDFQ":"0500000US35007","GEOID":"35007","NAME":"Colfax","NAMELSAD":"Colfax County","STUSPS":"NM","STATE_NAME":"New Mexico","LSAD":"06","ALAND":9733113274,"AWATER":26296498}},
{"type":"Feature","geometry":{"type":"Polygon","coordinates":[[[-107.60848,32.60545],[-107.71692,32.62256],[-107.73228,32.62735],[-107.73374,32.64251],[-107.72948,32.64748],[-107.73083,32.65319],[-107.72532,32.66108],[-107.72434,32.67378],[-107.72828,32.68023],[-107.72745,32.69211],[-107.71957,32.69747],[-107.72044,32.71423],[-107.71528,32.72157],[-107.72286,32.73612],[-107.71769,32.75508],[-107.72179,32.77878],[-107.73539,32.78338],[-107.74089,32.78858],[-107.74679,32.80348],[-107.74979,32.80538],[-107.74499,32.82508],[-107.75899,32.84667],[-107.77309,32.85378],[-107.77439,32.87387],[-107.77721,32.88334],[-107.77621,32.89333],[-107.7789,32.89688],[-107.76533,32.91182],[-107.76625,32.91969],[-107.77571,32.93082],[-107.77576,32.93754],[-107.77128,32.94215],[-107.77406,32.95057],[-107.78055,32.95278],[-107.7918,32.94807],[-107.80124,32.95783],[-107.81598,32.95794],[-107.82977,32.96392],[-107.83184,32.97431],[-107.83775,32.97912],[-107.84733,32.99399],[-107.85667,33.00254],[-107.84886,33.00633],[-107.84604,33.01619],[-107.84818,33.02635],[-107.85681,33.03664],[-107.85047,33.04438],[-107.85149,33.05619],[-107.84477,33.05859],[-107.83619,33.06776],[-107.83432,33.07808],[-107.8458,33.08604],[-107.84213,33.09582],[-107.84614,33.10223],[-107.85064,33.11972],[-107.84559,33.13095],[-107.85257,33.1342],[-107.85294,33.14532],[-107.85624,33.14986],[-107.85392,33.15742],[-107.85629,33.16532],[-107.85318,33.17093],[-107.84268,33.17244],[-107.84065,33.1831],[-107.84949,33.18881],[-107.85772,33.19085],[-107.85721,33.19707],[-107.86501,33.19997],[-108.0006,33.20125],[-108.21384,33.20095],[-108.44999,33.201],[-108.54318,33.20796],[-108.64658,33.20773],[-108.6466,33.20934],[-108.746,33.209],[-108.75176,33.2078],[-108.819,33.20914],[-108.95644,33.20754],[-108.97378,33.20846],[-109.04724,33.20889],[-109.04701,33.09292],[-109.04748,33.06842],[-109.04737,32.97644],[-109.04712,32.77779],[-108.85458,32.77728],[-108.85292,32.60337],[-108.73805,32.60351],[-108.64652,32.60373],[-108.64677,32.51652],[-108.53701,32.51662],[-108.53708,32.19913],[-108.53699,32.16719],[-108.53788,32.15731],[-108.53768,32.07983],[-108.52463,32.07983],[-108.52474,31.90534],[-108.52454,31.86361],[-108.31901,31.86399],[-108.21714,31.86414],[-108.21696,32.07986],[-108.22995,32.07987],[-108.22981,32.20716],[-108.22977,32.49961],[-108.22934,32.51684],[-108.01061,32.51711],[-107.92377,32.51742],[-107.924,32.60438],[-107.61355,32.60517],[-107.60848,32.60545]]]},"properties":{"STATEFP":"35","COUNTYFP":"017","COUNTYNS":"00915980","GEOIDFQ":"0500000US35017","GEOID":"35017","NAME":"Grant","NAMELSAD":"Grant County","STUSPS":"NM","STATE_NAME":"New Mexico","LSAD":"06","ALAND":10259478297,"AWATER":15295130}},
{"type":"Feature","geometry":{"type":"Polygon","coordinates":[[[-103.94878,34.60506],[-103.73938,34.60486],[-103.73817,34.60467],[-103.70609,34.60501],[-103.70579,34.69245],[-103.63525,34.69189],[-103.49565,34.69139],[-103.49565,34.77857],[-103.39027,34.77812],[-103.3898,34.86543],[-103.28432,34.86499],[-103.28415,34.95417],[-103.04255,34.95414],[-103.04264,35.10991],[-103.04326,35.12506],[-103.04238,35.18315],[-103.04277,35.24124],[-103.04237,35.25006],[-103.04205,35.39475],[-103.04155,35.62249],[-103.04127,35.73943],[-103.37512,35.73952],[-103.37519,35.65252],[-103.37939,35.65252],[-103.37956,35.49472],[-103.37973,35.3968],[-103.38895,35.38962],[-103.52127,35.38953],[-103.63705,35.38966],[-103.63713,35.24082],[-103.74882,35.24153],[-103.84282,35.24152],[-103.85753,35.24241],[-103.85766,35.26414],[-104.12512,35.14206],[-104.12514,35.08344],[-104.12628,34.95459],[-104.12902,34.95459],[-104.12922,34.87093],[-104.12914,34.77934],[-104.12888,34.6052],[-103.94878,34.60506]]]},"properties":{"STATEFP":"35","COUNTYFP":"037","COUNTYNS":"00929110","GEOIDFQ":"0500000US35037","GEOID":"35037","NAME":"Quay","NAMELSAD":"Quay County","STUSPS":"NM","STATE_NAME":"New Mexico","LSAD":"06","ALAND":7443508560,"AWATER":18554572}},
{"type":"Feature","geometry":{"type":"Polygon","coordinates":[[[-106.24826,35.83918],[-106.24048,35.83459],[-106.22798,35.83222],[-106.22539,35.82875],[-106.21273,35.82822],[-106.20091,35.8303],[-106.17334,35.82686],[-106.17844,35.82011],[-106.18053,35.80883],[-106.19257,35.80493],[-106.19698,35.79558],[-106.19599,35.79092],[-106.20823,35.77806],[-106.22363,35.76742],[-106.2407,35.76378],[-106.24455,35.75713],[-106.2505,35.75582],[-106.25025,35.6529],[-106.24866,35.6529],[-106.24859,35.44569],[-106.24885,35.44328],[-106.24895,35.30457],[-106.24563,35.30433],[-106.24565,35.25074],[-106.24422,35.21566],[-106.24349,35.17139],[-106.24387,35.04],[-106.13993,35.04051],[-106.02952,35.04068],[-105.71442,35.0416],[-105.71539,35.21552],[-105.71575,35.30417],[-105.71741,35.30423],[-105.7181,35.46422],[-105.71802,35.59231],[-105.71849,35.65321],[-105.71634,35.6542],[-105.72121,35.73365],[-105.72121,35.81211],[-105.7222,35.81209],[-105.72053,35.87118],[-105.71748,35.97874],[-105.71681,36.00232],[-105.85562,36.00214],[-106.07135,36.00197],[-106.0649,35.99669],[-106.06594,35.9893],[-106.05588,35.98943],[-106.05415,35.98591],[-106.05435,35.93078],[-106.14355,35.93064],[-106.24565,35.93074],[-106.24563,35.89159],[-106.24848,35.87278],[-106.24834,35.85565],[-106.24826,35.83918]]]},"properties":{"STATEFP":"35","COUNTYFP":"049","COUNTYNS":"00933322","GEOIDFQ":"0500000US35049","GEOID":"35049","NAME":"Santa Fe","NAMELSAD":"Santa Fe County","STUSPS":"NM","STATE_NAME":"New Mexico","LSAD":"06","ALAND":4947861289,"AWATER":2643021}},
{"type":"Feature","geometry":{"type":"Polygon","coordinates":[[[-107.71275,33.47683],[-107.71188,33.73848],[-107.71275,33.81138],[-107.7114,33.82564],[-107.71577,33.82564],[-107.7163,34.25986],[-107.72542,34.25982],[-107.72566,34.36062],[-107.72481,34.44388],[-107.72669,34.51779],[-107.72479,34.57813],[-107.82937,34.57917],[-107.84659,34.57895],[-108.01059,34.57926],[-108.06037,34.57982],[-108.35307,34.57935],[-108.40701,34.57881],[-108.77305,34.57956],[-108.799,34.57927],[-108.86913,34.58003],[-108.98341,34.57983],[-109.04616,34.57929],[-109.0464,34.38732],[-109.04674,34.16694],[-109.04701,34.00005],[-109.04643,33.87505],[-109.04714,33.74001],[-109.04666,33.62506],[-109.0473,33.40978],[-109.04683,33.36527],[-109.04747,33.25006],[-109.04724,33.20889],[-108.97378,33.20846],[-108.95644,33.20754],[-108.819,33.20914],[-108.75176,33.2078],[-108.746,33.209],[-108.6466,33.20934],[-108.64658,33.20773],[-108.54318,33.20796],[-108.44999,33.201],[-108.21384,33.20095],[-108.0006,33.20125],[-108.0006,33.47801],[-107.96778,33.47795],[-107.93896,33.47438],[-107.7636,33.47697],[-107.74647,33.47778],[-107.71275,33.47683]]]},"properties":{"STATEFP":"35","COUNTYFP":"003","COUNTYNS":"00929108","GEOIDFQ":"0500000US35003","GEOID":"35003","NAME":"Catron","NAMELSAD":"Catron County","STUSPS":"NM","STATE_NAME":"New Mexico","LSAD":"06","ALAND":17933561654,"AWATER":14193499}},
{"type":"Feature","geometry":{"type":"Polygon","coordinates":[[[-103.81451,32.96511],[-103.81446,32.77024],[-103.81426,32.64788],[-103.81422,32.52237],[-103.72294,32.52234],[-103.72293,32.37483],[-103.72295,32.26957],[-103.72288,32.00021],[-103.3265,32.00037],[-103.16513,32.00049],[-103.06442,32.00052],[-103.06442,32.14501],[-103.06456,32.33465],[-103.0647,32.52192],[-103.06486,32.68265],[-103.0647,32.82753],[-103.06462,32.9999],[-103.06398,33.03869],[-103.0601,33.21923],[-103.05749,33.32948],[-103.05665,33.38844],[-103.05261,33.57057],[-103.42535,33.57034],[-103.51013,33.57012],[-103.72081,33.56954],[-103.7214,33.39567],[-103.76636,33.3953],[-103.76636,33.20788],[-103.76649,33.05243],[-103.76642,32.96526],[-103.81451,32.96511]]]},"properties":{"STATEFP":"35","COUNTYFP":"025","COUNTYNS":"01702365","GEOIDFQ":"0500000US35025","GEOID":"35025","NAME":"Lea","NAMELSAD":"Lea County","STUSPS":"NM","STATE_NAME":"New Mexico","LSAD":"06","ALAND":11374066521,"AWATER":8147103}},
{"type":"Feature","geometry":{"type":"Polygon","coordinates":[[[-106.34051,33.05278],[-106.34071,32.95838],[-106.37658,32.95805],[-106.37642,32.91041],[-106.37675,32.56145],[-106.37694,32.51648],[-106.37682,32.39961],[-106.3774,32.16902],[-106.37718,32.00118],[-106.2007,32.00179],[-106.12553,32.00253],[-105.88616,32.00197],[-105.85406,32.00235],[-105.75053,32.00221],[-105.73136,32.00156],[-105.47326,32.00072],[-105.3904,32.00061],[-105.15399,32.0005],[-104.91888,32.00042],[-104.84774,32.00008],[-104.84792,32.19083],[-104.84764,32.2535],[-104.85128,32.25349],[-104.85152,32.52054],[-105.14928,32.52072],[-105.14928,32.51885],[-105.35401,32.51878],[-105.35344,32.60474],[-105.35198,32.60476],[-105.35224,32.74881],[-105.351,32.83845],[-105.35225,32.86663],[-105.35251,32.96201],[-105.31605,32.9621],[-105.31697,33.1323],[-105.31738,33.30598],[-105.41953,33.3051],[-105.53435,33.30549],[-105.72596,33.30483],[-105.72625,33.3645],[-105.72717,33.39058],[-105.89864,33.3899],[-106.07356,33.38945],[-106.34571,33.39059],[-106.34142,33.13594],[-106.34055,33.13594],[-106.34051,33.05278]]]},"properties":{"STATEFP":"35","COUNTYFP":"035","COUNTYNS":"00929104","GEOIDFQ":"0500000US35035","GEOID":"35035","NAME":"Otero","NAMELSAD":"Otero County","STUSPS":"NM","STATE_NAME":"New Mexico","LSAD":"06","ALAND":17126455958,"AWATER":36944199}},
{"type":"Feature","geometry":{"type":"Polygon","coordinates":[[[-107.06656,34.95719],[-107.20288,34.95757],[-107.20269,34.89883],[-107.20333,34.78303],[-107.20438,34.6088],[-107.20197,34.6088],[-107.20174,34.57876],[-107.09847,34.57855],[-107.04459,34.57892],[-107.02005,34.57958],[-106.90452,34.58045],[-106.88256,34.57946],[-106.76828,34.53126],[-106.56465,34.47389],[-106.50462,34.457],[-106.45631,34.43705],[-106.43875,34.43748],[-106.41692,34.43969],[-106.41748,34.49956],[-106.41688,34.52172],[-106.46979,34.52122],[-106.47118,34.60842],[-106.46487,34.60839],[-106.46622,34.67096],[-106.46679,34.74527],[-106.46477,34.7832],[-106.46387,34.87019],[-106.41178,34.87025],[-106.41156,34.88973],[-106.41811,34.89228],[-106.424,34.90187],[-106.42949,34.9034],[-106.68619,34.90625],[-106.69644,34.89703],[-106.70287,34.88533],[-106.71445,34.87956],[-106.72183,34.87006],[-106.76623,34.86997],[-107.02448,34.86995],[-107.06656,34.95719]]]},"properties":{"STATEFP":"35","COUNTYFP":"061","COUNTYNS":"00933052","GEOIDFQ":"0500000US35061","GEOID":"35061","NAME":"Valencia","NAMELSAD":"Valencia County","STUSPS":"NM","STATE_NAME":"New Mexico","LSAD":"06","ALAND":2762783462,"AWATER":2830941}},
{"type":"Feature","geometry":{"type":"Polygon","coordinates":[[[-106.24387,35.04],[-106.24376,34.95336],[-106.14983,34.95346],[-106.14974,34.87014],[-106.1882,34.86928],[-106.36066,34.87033],[-106.41178,34.87025],[-106.46387,34.87019],[-106.46477,34.7832],[-106.46679,34.74527],[-106.46622,34.67096],[-106.46487,34.60839],[-106.47118,34.60842],[-106.46979,34.52122],[-106.41688,34.52172],[-106.41748,34.49956],[-106.41692,34.43969],[-106.41597,34.25982],[-106.10174,34.25998],[-105.92597,34.25999],[-105.83987,34.26006],[-105.60338,34.26006],[-105.49182,34.25977],[-105.34915,34.26017],[-105.31322,34.26003],[-105.31307,34.34721],[-105.31295,34.40563],[-105.31276,34.60695],[-105.2904,34.60677],[-105.29038,34.79656],[-105.29085,34.95507],[-105.29079,35.04203],[-105.44031,35.04191],[-105.71442,35.0416],[-106.02952,35.04068],[-106.13993,35.04051],[-106.24387,35.04]]]},"properties":{"STATEFP":"35","COUNTYFP":"057","COUNTYNS":"00929112","GEOIDFQ":"0500000US35057","GEOID":"35057","NAME":"Torrance","NAMELSAD":"Torrance County","STUSPS":"NM","STATE_NAME":"New Mexico","LSAD":"06","ALAND":8664061395,"AWATER":2316559}},
{"type":"Feature","geometry":{"type":"Polygon","coordinates":[[[-104.37012,35.7793],[-104.3857,35.77878],[-104.54636,35.78069],[-104.54626,35.78371],[-104.65753,35.78336],[-104.86297,35.77792],[-105.00732,35.77123],[-105.01468,35.76845],[-105.02772,35.75531],[-105.03738,35.77069],[-105.0418,35.76772],[-105.05783,35.78016],[-105.0728,35.78245],[-105.09385,35.79848],[-105.10973,35.80792],[-105.1173,35.80721],[-105.12849,35.81104],[-105.15014,35.80917],[-105.15975,35.81906],[-105.17262,35.82224],[-105.17718,35.82573],[-105.19599,35.826],[-105.21919,35.82942],[-105.21998,35.83453],[-105.23777,35.83834],[-105.34783,35.8707],[-105.47448,35.87065],[-105.60987,35.8706],[-105.61831,35.87119],[-105.72053,35.87118],[-105.7222,35.81209],[-105.72121,35.81211],[-105.72121,35.73365],[-105.71634,35.6542],[-105.71849,35.65321],[-105.71802,35.59231],[-105.7181,35.46422],[-105.71741,35.30423],[-105.71575,35.30417],[-105.71539,35.21552],[-105.71442,35.0416],[-105.44031,35.04191],[-105.29079,35.04203],[-105.29117,35.21649],[-105.16665,35.21646],[-105.02336,35.21641],[-104.89114,35.21637],[-104.63077,35.21629],[-104.3552,35.21606],[-104.12514,35.2157],[-104.12512,35.14206],[-103.85766,35.26414],[-103.85753,35.24241],[-103.84282,35.24152],[-103.74882,35.24153],[-103.63713,35.24082],[-103.63705,35.38966],[-103.63703,35.42234],[-103.7206,35.42242],[-103.72361,35.42278],[-103.93098,35.73278],[-103.9769,35.80175],[-104.0217,35.78149],[-104.10743,35.78174],[-104.37012,35.7793]]]},"properties":{"STATEFP":"35","COUNTYFP":"047","COUNTYNS":"00929114","GEOIDFQ":"0500000US35047","GEOID":"35047","NAME":"San Miguel","NAMELSAD":"San Miguel County","STUSPS":"NM","STATE_NAME":"New Mexico","LSAD":"06","ALAND":12228666259,"AWATER":51380263}},
{"type":"Feature","geometry":{"type":"Polygon","coordinates":[[[-104.89338,34.08841],[-104.89483,33.91179],[-104.89457,33.82443],[-104.89109,33.82226],[-104.89206,33.59468],[-104.89243,33.3982],[-104.88509,33.39327],[-104.8854,33.34731],[-104.88513,33.30583],[-104.90384,33.3059],[-104.90385,33.22094],[-104.90543,33.22094],[-104.90542,33.1389],[-105.00651,33.13888],[-105.00648,33.1344],[-105.1008,33.13339],[-105.10862,33.13174],[-105.31697,33.1323],[-105.31605,32.9621],[-105.35251,32.96201],[-105.35225,32.86663],[-105.351,32.83845],[-105.35224,32.74881],[-105.35198,32.60476],[-105.35344,32.60474],[-105.35401,32.51878],[-105.14928,32.51885],[-105.14928,32.52072],[-104.85152,32.52054],[-104.84217,32.52054],[-104.84217,32.54091],[-104.84158,32.96321],[-104.59242,32.96381],[-104.36221,32.9646],[-104.35402,32.96446],[-104.10758,32.96538],[-103.81451,32.96511],[-103.76642,32.96526],[-103.76649,33.05243],[-103.76636,33.20788],[-103.76636,33.3953],[-103.7214,33.39567],[-103.72081,33.56954],[-103.51013,33.57012],[-103.50976,33.65726],[-103.71833,33.65621],[-103.71688,33.81956],[-103.84193,33.8192],[-103.84169,34.08191],[-103.94602,34.08246],[-103.99858,34.08229],[-104.1556,34.08321],[-104.15627,33.99541],[-104.3174,33.99588],[-104.56739,33.99757],[-104.7861,34.00014],[-104.78643,34.08766],[-104.87521,34.08875],[-104.89338,34.08841]]]},"properties":{"STATEFP":"35","COUNTYFP":"005","COUNTYNS":"01702364","GEOIDFQ":"0500000US35005","GEOID":"35005","NAME":"Chaves","NAMELSAD":"Chaves County","STUSPS":"NM","STATE_NAME":"New Mexico","LSAD":"06","ALAND":15713917209,"AWATER":20469858}},
{"type":"Feature","geometry":{"type":"Polygon","coordinates":[[[-106.24834,35.85565],[-106.24848,35.87278],[-106.24563,35.89159],[-106.24565,35.93074],[-106.2456,35.95935],[-106.24816,35.96633],[-106.26422,35.96547],[-106.26424,35.97275],[-106.30037,35.97339],[-106.30016,35.95845],[-106.31682,35.95854],[-106.31544,35.95242],[-106.38612,35.95271],[-106.38582,35.95994],[-106.39947,35.96009],[-106.39971,35.94908],[-106.39963,35.82823],[-106.41728,35.82777],[-106.41798,35.81843],[-106.41115,35.81086],[-106.4007,35.80757],[-106.38236,35.80798],[-106.37037,35.81307],[-106.36218,35.81143],[-106.35703,35.81637],[-106.33868,35.80797],[-106.32491,35.8071],[-106.29936,35.79726],[-106.28261,35.79191],[-106.26604,35.7795],[-106.25778,35.76966],[-106.25407,35.75427],[-106.2505,35.75582],[-106.24455,35.75713],[-106.2407,35.76378],[-106.22363,35.76742],[-106.20823,35.77806],[-106.19599,35.79092],[-106.19698,35.79558],[-106.19257,35.80493],[-106.18053,35.80883],[-106.17844,35.82011],[-106.17334,35.82686],[-106.20091,35.8303],[-106.21273,35.82822],[-106.22539,35.82875],[-106.22798,35.83222],[-106.24048,35.83459],[-106.24826,35.83918],[-106.24929,35.8428],[-106.26101,35.84673],[-106.26574,35.85192],[-106.24834,35.85565]]]},"properties":{"STATEFP":"35","COUNTYFP":"028","COUNTYNS":"01702366","GEOIDFQ":"0500000US35028","GEOID":"35028","NAME":"Los Alamos","NAMELSAD":"Los Alamos County","STUSPS":"NM","STATE_NAME":"New Mexico","LSAD":"06","ALAND":282626747,"AWATER":208105}},
{"type":"Feature","geometry":{"type":"Polygon","coordinates":[[[-103.73817,34.60467],[-103.73952,34.52123],[-103.73976,34.39014],[-103.74007,34.30306],[-103.47273,34.3033],[-103.31963,34.30326],[-103.19731,34.30312],[-103.04394,34.30265],[-103.04395,34.37956],[-103.04361,34.38497],[-103.04359,34.46266],[-103.04283,34.67119],[-103.04278,34.85024],[-103.04255,34.95414],[-103.28415,34.95417],[-103.28432,34.86499],[-103.3898,34.86543],[-103.39027,34.77812],[-103.49565,34.77857],[-103.49565,34.69139],[-103.63525,34.69189],[-103.70579,34.69245],[-103.70609,34.60501],[-103.73817,34.60467]]]},"properties":{"STATEFP":"35","COUNTYFP":"009","COUNTYNS":"00933053","GEOIDFQ":"0500000US35009","GEOID":"35009","NAME":"Curry","NAMELSAD":"Curry County","STUSPS":"NM","STATE_NAME":"New Mexico","LSAD":"06","ALAND":3640289852,"AWATER":7992977}},
{"type":"Feature","geometry":{"type":"Polygon","coordinates":[[[-103.81451,32.96511],[-104.10758,32.96538],[-104.35402,32.96446],[-104.36221,32.9646],[-104.59242,32.96381],[-104.84158,32.96321],[-104.84217,32.54091],[-104.84217,32.52054],[-104.85152,32.52054],[-104.85128,32.25349],[-104.84764,32.2535],[-104.84792,32.19083],[-104.84774,32.00008],[-104.83289,32.00001],[-104.77211,31.99749],[-104.75479,31.99777],[-104.75456,32.00053],[-104.53176,32.00012],[-104.32964,32.00007],[-104.02452,32.00001],[-103.87548,32.00055],[-103.72288,32.00021],[-103.72295,32.26957],[-103.72293,32.37483],[-103.72294,32.52234],[-103.81422,32.52237],[-103.81426,32.64788],[-103.81446,32.77024],[-103.81451,32.96511]]]},"properties":{"STATEFP":"35","COUNTYFP":"015","COUNTYNS":"00936829","GEOIDFQ":"0500000US35015","GEOID":"35015","NAME":"Eddy","NAMELSAD":"Eddy County","STUSPS":"NM","STATE_NAME":"New Mexico","LSAD":"06","ALAND":10816692054,"AWATER":56489010}},
{"type":"Feature","geometry":{"type":"Polygon","coordinates":[[[-107.30939,35.30569],[-107.52478,35.30348],[-107.62879,35.30433],[-107.62831,35.34831],[-107.73424,35.34815],[-107.73422,35.30499],[-107.83545,35.30505],[-107.99063,35.30528],[-108.07018,35.30606],[-108.15883,35.30649],[-108.24693,35.30654],[-108.46871,35.30666],[-108.46868,35.16781],[-108.46969,35.13324],[-108.46988,34.97336],[-108.4694,34.95908],[-108.52077,34.95912],[-108.66954,34.95972],[-108.76655,34.95962],[-109.04585,34.95982],[-109.04609,34.77102],[-109.04616,34.57929],[-108.98341,34.57983],[-108.86913,34.58003],[-108.799,34.57927],[-108.77305,34.57956],[-108.40701,34.57881],[-108.35307,34.57935],[-108.06037,34.57982],[-108.01059,34.57926],[-107.84659,34.57895],[-107.82937,34.57917],[-107.72479,34.57813],[-107.70959,34.57782],[-107.69156,34.57943],[-107.55094,34.57902],[-107.53365,34.58063],[-107.51505,34.57955],[-107.39376,34.57964],[-107.34044,34.57904],[-107.33158,34.57957],[-107.20174,34.57876],[-107.20197,34.6088],[-107.20438,34.6088],[-107.20333,34.78303],[-107.20269,34.89883],[-107.20288,34.95757],[-107.06656,34.95719],[-107.1101,35.04464],[-107.19724,35.21946],[-107.23889,35.30551],[-107.30939,35.30569]]]},"properties":{"STATEFP":"35","COUNTYFP":"006","COUNTYNS":"00933051","GEOIDFQ":"0500000US35006","GEOID":"35006","NAME":"Cibola","NAMELSAD":"Cibola County","STUSPS":"NM","STATE_NAME":"New Mexico","LSAD":"06","ALAND":11758505169,"AWATER":5554597}},
{"type":"Feature","geometry":{"type":"Polygon","coordinates":[[[-103.94602,34.08246],[-103.84169,34.08191],[-103.84193,33.8192],[-103.71688,33.81956],[-103.71833,33.65621],[-103.50976,33.65726],[-103.51013,33.57012],[-103.42535,33.57034],[-103.05261,33.57057],[-103.05153,33.65049],[-103.05053,33.67241],[-103.04961,33.73777],[-103.0491,33.74627],[-103.04564,33.90154],[-103.04362,34.00363],[-103.04352,34.07938],[-103.04364,34.2569],[-103.04394,34.30265],[-103.19731,34.30312],[-103.31963,34.30326],[-103.47273,34.3033],[-103.74007,34.30306],[-103.73976,34.39014],[-103.73952,34.52123],[-103.73817,34.60467],[-103.73938,34.60486],[-103.94878,34.60506],[-103.94897,34.52141],[-103.94902,34.39014],[-103.94917,34.25965],[-103.94575,34.25965],[-103.94602,34.08246]]]},"properties":{"STATEFP":"35","COUNTYFP":"041","COUNTYNS":"01702369","GEOIDFQ":"0500000US35041","GEOID":"35041","NAME":"Roosevelt","NAMELSAD":"Roosevelt County","STUSPS":"NM","STATE_NAME":"New Mexico","LSAD":"06","ALAND":6335242925,"AWATER":18679639}},
{"type":"Feature","geometry":{"type":"Polygon","coordinates":[[[-103.37512,35.73952],[-103.04127,35.73943],[-103.04115,35.79158],[-103.04219,35.82522],[-103.0413,35.83769],[-103.04082,36.05523],[-103.04139,36.22902],[-103.04174,36.31827],[-103.04192,36.50044],[-103.00243,36.5004],[-103.00219,36.60272],[-103.00252,36.67519],[-103.00214,36.76351],[-103.00196,36.90957],[-103.0022,37.0001],[-103.15592,37.00023],[-103.40813,36.99926],[-103.47182,36.99902],[-103.73436,36.99804],[-104.00785,36.99624],[-104.00775,36.89937],[-104.00802,36.7852],[-104.00745,36.69765],[-104.00902,36.67881],[-104.00845,36.56762],[-104.00817,36.45107],[-104.00802,36.34942],[-104.0087,36.34937],[-104.00882,36.21811],[-104.00886,36.17453],[-103.79399,36.17397],[-103.79452,36.08574],[-103.75863,36.08556],[-103.36498,36.08605],[-103.36506,35.99866],[-103.37486,35.99866],[-103.37512,35.73952]]]},"properties":{"STATEFP":"35","COUNTYFP":"059","COUNTYNS":"00929115","GEOIDFQ":"0500000US35059","GEOID":"35059","NAME":"Union","NAMELSAD":"Union County","STUSPS":"NM","STATE_NAME":"New Mexico","LSAD":"06","ALAND":9906834384,"AWATER":15498790}},
{"type":"Feature","geometry":{"type":"Polygon","coordinates":[[[-106.3728,33.47988],[-106.37366,33.6605],[-106.26826,33.66054],[-106.1583,33.65243],[-106.1583,33.65028],[-106.05272,33.6503],[-106.05266,33.82561],[-105.92468,33.82562],[-105.92552,33.91103],[-105.92556,34.08522],[-105.92474,34.08564],[-105.92482,34.17257],[-105.92597,34.25999],[-106.10174,34.25998],[-106.41597,34.25982],[-106.41692,34.43969],[-106.43875,34.43748],[-106.45631,34.43705],[-106.50462,34.457],[-106.56465,34.47389],[-106.76828,34.53126],[-106.88256,34.57946],[-106.90452,34.58045],[-107.02005,34.57958],[-107.04459,34.57892],[-107.09847,34.57855],[-107.20174,34.57876],[-107.33158,34.57957],[-107.34044,34.57904],[-107.39376,34.57964],[-107.51505,34.57955],[-107.53365,34.58063],[-107.55094,34.57902],[-107.69156,34.57943],[-107.70959,34.57782],[-107.72479,34.57813],[-107.72669,34.51779],[-107.72481,34.44388],[-107.72566,34.36062],[-107.72542,34.25982],[-107.7163,34.25986],[-107.71577,33.82564],[-107.7114,33.82564],[-107.71275,33.81138],[-107.71188,33.73848],[-107.71275,33.47683],[-107.44922,33.47648],[-107.22048,33.47801],[-106.74935,33.47548],[-106.47429,33.47579],[-106.47427,33.48019],[-106.3728,33.47988]]]},"properties":{"STATEFP":"35","COUNTYFP":"053","COUNTYNS":"01702371","GEOIDFQ":"0500000US35053","GEOID":"35053","NAME":"Socorro","NAMELSAD":"Socorro County","STUSPS":"NM","STATE_NAME":"New Mexico","LSAD":"06","ALAND":17214061584,"AWATER":4843011}},
{"type":"Feature","geometry":{"type":"Polygon","coordinates":[[[-104.89174,34.34704],[-104.89185,34.34714],[-105.31307,34.34721],[-105.31322,34.26003],[-105.34915,34.26017],[-105.49182,34.25977],[-105.60338,34.26006],[-105.83987,34.26006],[-105.92597,34.25999],[-105.92482,34.17257],[-105.92474,34.08564],[-105.92556,34.08522],[-105.92552,33.91103],[-105.92468,33.82562],[-106.05266,33.82561],[-106.05272,33.6503],[-106.1583,33.65028],[-106.1583,33.65243],[-106.26826,33.66054],[-106.37366,33.6605],[-106.3728,33.47988],[-106.37188,33.39061],[-106.34571,33.39059],[-106.07356,33.38945],[-105.89864,33.3899],[-105.72717,33.39058],[-105.72625,33.3645],[-105.72596,33.30483],[-105.53435,33.30549],[-105.41953,33.3051],[-105.31738,33.30598],[-105.31697,33.1323],[-105.10862,33.13174],[-105.1008,33.13339],[-105.00648,33.1344],[-105.00651,33.13888],[-104.90542,33.1389],[-104.90543,33.22094],[-104.90385,33.22094],[-104.90384,33.3059],[-104.88513,33.30583],[-104.8854,33.34731],[-104.88509,33.39327],[-104.89243,33.3982],[-104.89206,33.59468],[-104.89109,33.82226],[-104.89457,33.82443],[-104.89483,33.91179],[-104.89338,34.08841],[-104.89241,34.25992],[-104.89174,34.34704]]]},"properties":{"STATEFP":"35","COUNTYFP":"027","COUNTYNS":"00929116","GEOIDFQ":"0500000US35027","GEOID":"35027","NAME":"Lincoln","NAMELSAD":"Lincoln County","STUSPS":"NM","STATE_NAME":"New Mexico","LSAD":"06","ALAND":12512530052,"AWATER":554839}},
{"type":"Feature","geometry":{"type":"Polygon","coordinates":[[[-104.12914,34.77934],[-104.12922,34.87093],[-104.12902,34.95459],[-104.12628,34.95459],[-104.12514,35.08344],[-104.12512,35.14206],[-104.12514,35.2157],[-104.3552,35.21606],[-104.63077,35.21629],[-104.89114,35.21637],[-105.02336,35.21641],[-105.16665,35.21646],[-105.29117,35.21649],[-105.29079,35.04203],[-105.29085,34.95507],[-105.29038,34.79656],[-105.2904,34.60677],[-105.31276,34.60695],[-105.31295,34.40563],[-105.31307,34.34721],[-104.89185,34.34714],[-104.89174,34.34704],[-104.89202,34.60443],[-104.68899,34.6047],[-104.55516,34.60469],[-104.44476,34.60495],[-104.44493,34.69165],[-104.33972,34.69223],[-104.33982,34.77906],[-104.12914,34.77934]]]},"properties":{"STATEFP":"35","COUNTYFP":"019","COUNTYNS":"00929111","GEOIDFQ":"0500000US35019","GEOID":"35019","NAME":"Guadalupe","NAMELSAD":"Guadalupe County","STUSPS":"NM","STATE_NAME":"New Mexico","LSAD":"06","ALAND":7847072134,"AWATER":2887948}},
{"type":"Feature","geometry":{"type":"Polygon","coordinates":[[[-109.04597,36.0027],[-109.04608,35.82873],[-109.04621,35.69519],[-109.04655,35.50841],[-109.0468,35.36361],[-109.04608,35.25003],[-109.04602,35.16689],[-109.04585,34.95982],[-108.76655,34.95962],[-108.66954,34.95972],[-108.52077,34.95912],[-108.4694,34.95908],[-108.46988,34.97336],[-108.46969,35.13324],[-108.46868,35.16781],[-108.46871,35.30666],[-108.24693,35.30654],[-108.15883,35.30649],[-108.07018,35.30606],[-107.99063,35.30528],[-107.83545,35.30505],[-107.73422,35.30499],[-107.73424,35.34815],[-107.62831,35.34831],[-107.62879,35.30433],[-107.52478,35.30348],[-107.30939,35.30569],[-107.31034,35.41954],[-107.30612,35.41906],[-107.3078,35.52571],[-107.30835,35.58347],[-107.3087,35.74],[-107.30862,35.88539],[-107.30867,35.99856],[-107.55701,36.00026],[-107.62651,36.00029],[-107.80561,36.00125],[-108.00226,36.00223],[-108.16563,36.00284],[-108.27177,36.00218],[-108.374,36.00238],[-108.65914,36.00275],[-108.82718,36.00273],[-108.95952,36.0027],[-109.03812,36.00236],[-109.04597,36.0027]]]},"properties":{"STATEFP":"35","COUNTYFP":"031","COUNTYNS":"00929107","GEOIDFQ":"0500000US35031","GEOID":"35031","NAME":"McKinley","NAMELSAD":"McKinley County","STUSPS":"NM","STATE_NAME":"New Mexico","LSAD":"06","ALAND":14118189295,"AWATER":12689169}},
{"type":"Feature","geometry":{"type":"Polygon","coordinates":[[[-108.21714,31.86414],[-108.31901,31.86399],[-108.52454,31.86361],[-108.52474,31.90534],[-108.52463,32.07983],[-108.53768,32.07983],[-108.53788,32.15731],[-108.53699,32.16719],[-108.53708,32.19913],[-108.53701,32.51662],[-108.64677,32.51652],[-108.64652,32.60373],[-108.73805,32.60351],[-108.85292,32.60337],[-108.85458,32.77728],[-109.04712,32.77779],[-109.04765,32.64705],[-109.04761,32.42638],[-109.04829,32.08911],[-109.0486,32.01365],[-109.04859,31.87079],[-109.04919,31.79655],[-109.04911,31.6366],[-109.04981,31.49953],[-109.05017,31.48],[-109.05004,31.3325],[-108.86103,31.33232],[-108.78871,31.33237],[-108.70766,31.33319],[-108.20857,31.3334],[-108.20857,31.49974],[-108.20809,31.61349],[-108.20839,31.7836],[-108.20999,31.7837],[-108.21001,31.8205],[-108.21713,31.82048],[-108.21714,31.86414]]]},"properties":{"STATEFP":"35","COUNTYFP":"023","COUNTYNS":"00929106","GEOIDFQ":"0500000US35023","GEOID":"35023","NAME":"Hidalgo","NAMELSAD":"Hidalgo County","STUSPS":"NM","STATE_NAME":"New Mexico","LSAD":"06","ALAND":8905805101,"AWATER":23581028}},
{"type":"Feature","geometry":{"type":"Polygon","coordinates":[[[-107.19724,35.21946],[-107.1101,35.04464],[-107.06656,34.95719],[-107.02448,34.86995],[-106.76623,34.86997],[-106.72183,34.87006],[-106.71445,34.87956],[-106.70287,34.88533],[-106.69644,34.89703],[-106.68619,34.90625],[-106.42949,34.9034],[-106.424,34.90187],[-106.41811,34.89228],[-106.41156,34.88973],[-106.41178,34.87025],[-106.36066,34.87033],[-106.1882,34.86928],[-106.14974,34.87014],[-106.14983,34.95346],[-106.24376,34.95336],[-106.24387,35.04],[-106.24349,35.17139],[-106.24422,35.21566],[-106.36724,35.21741],[-106.41865,35.21743],[-106.45938,35.21794],[-106.60448,35.21786],[-106.62141,35.20932],[-106.63973,35.20295],[-106.65815,35.21788],[-106.85313,35.21799],[-106.96204,35.21839],[-107.0984,35.2185],[-107.13475,35.21942],[-107.19724,35.21946]]]},"properties":{"STATEFP":"35","COUNTYFP":"001","COUNTYNS":"01702363","GEOIDFQ":"0500000US35001","GEOID":"35001","NAME":"Bernalillo","NAMELSAD":"Bernalillo County","STUSPS":"NM","STATE_NAME":"New Mexico","LSAD":"06","ALAND":3007611362,"AWATER":15882884}},
{"type":"Feature","geometry":{"type":"Polygon","coordinates":[[[-107.29679,31.78376],[-107.00056,31.78351],[-106.99354,31.78369],[-106.75055,31.7839],[-106.60178,31.78384],[-106.5317,31.7839],[-106.53584,31.79861],[-106.54714,31.80731],[-106.56294,31.8111],[-106.57724,31.81041],[-106.58804,31.82211],[-106.60527,31.82791],[-106.60194,31.83961],[-106.60584,31.84631],[-106.61464,31.84649],[-106.63593,31.86624],[-106.63487,31.87448],[-106.6292,31.88372],[-106.63815,31.89166],[-106.6453,31.89486],[-106.64084,31.9046],[-106.61185,31.92],[-106.62393,31.92534],[-106.62253,31.93486],[-106.6243,31.96105],[-106.61874,31.96696],[-106.62322,31.97291],[-106.63011,31.97126],[-106.63953,31.98035],[-106.63118,31.98981],[-106.62357,31.991],[-106.61849,32.0005],[-106.47666,32.00108],[-106.3943,32.00148],[-106.37718,32.00118],[-106.3774,32.16902],[-106.37682,32.39961],[-106.37694,32.51648],[-106.37675,32.56145],[-106.37642,32.91041],[-106.37658,32.95805],[-106.34071,32.95838],[-106.34051,33.05278],[-106.75162,32.88004],[-106.88789,32.82278],[-106.88773,32.77927],[-106.93787,32.77937],[-107.25939,32.78007],[-107.29948,32.7801],[-107.29963,32.60537],[-107.29805,32.49335],[-107.29844,32.24298],[-107.29874,32.08235],[-107.29759,32.07961],[-107.29679,31.78376]]]},"properties":{"STATEFP":"35","COUNTYFP":"013","COUNTYNS":"00929109","GEOIDFQ":"0500000US35013","GEOID":"35013","NAME":"DoÃ±a Ana","NAMELSAD":"DoÃ±a Ana County","STUSPS":"NM","STATE_NAME":"New Mexico","LSAD":"06","ALAND":9863137493,"AWATER":17594316}}
]}