{"type":"FeatureCollection", "features": [
{"type":"Feature","geometry":{"type":"Polygon","coordinates":[[[-71.31792,41.77616],[-71.3279,41.7805],[-71.3293,41.7868],[-71.3339,41.7945],[-71.3408,41.8002],[-71.3392,41.809],[-71.3472,41.8231],[-71.3449,41.828],[-71.3352,41.8355],[-71.3422,41.8448],[-71.334,41.8623],[-71.3408,41.8816],[-71.3387,41.8984],[-71.3817,41.8932],[-71.3814,42.0188],[-71.4999,42.0172],[-71.52761,42.015],[-71.57691,42.0141],[-71.76601,42.00975],[-71.79924,42.00807],[-71.79792,41.9354],[-71.79277,41.807],[-71.79106,41.77027],[-71.78969,41.7252],[-71.72011,41.72633],[-71.64425,41.7278],[-71.54581,41.7301],[-71.51993,41.73044],[-71.45534,41.73237],[-71.45128,41.7397],[-71.44468,41.74016],[-71.44654,41.74889],[-71.44062,41.75215],[-71.43756,41.75983],[-71.42622,41.76102],[-71.42199,41.76458],[-71.41438,41.76295],[-71.4107,41.76655],[-71.39958,41.76832],[-71.39412,41.76404],[-71.38852,41.76378],[-71.3838,41.75851],[-71.3855,41.76866],[-71.39174,41.78105],[-71.39056,41.78371],[-71.38129,41.7853],[-71.37154,41.78335],[-71.36513,41.77751],[-71.36608,41.77112],[-71.36085,41.75517],[-71.36235,41.75089],[-71.35582,41.74506],[-71.35149,41.75264],[-71.31792,41.77616]]]},"properties":{"STATEFP":"44","COUNTYFP":"007","COUNTYNS":"01219781","GEOIDFQ":"0500000US44007","GEOID":"44007","NAME":"Providence","NAMELSAD":"Providence County","STUSPS":"RI","STATE_NAME":"Rhode Island","LSAD":"06","ALAND":1060557969,"AWATER":67864689}},
{"type":"Feature","geometry":{"type":"MultiPolygon","coordinates":[[[[-71.61313,41.16028],[-71.61157,41.15391],[-71.59999,41.14693],[-71.5937,41.14634],[-71.5805,41.14909],[-71.57857,41.14762],[-71.56589,41.14901],[-71.54705,41.15368],[-71.54445,41.16491],[-71.55023,41.16679],[-71.56467,41.17967],[-71.5664,41.18821],[-71.56137,41.2006],[-71.55407,41.21296],[-71.56255,41.22422],[-71.57632,41.22491],[-71.57692,41.21102],[-71.58063,41.20337],[-71.58955,41.19656],[-71.59746,41.18519],[-71.60556,41.18214],[-71.61313,41.16028]]],[[[-71.78936,41.59685],[-71.79768,41.41671],[-71.80144,41.41555],[-71.8129,41.4194],[-71.82033,41.41938],[-71.82457,41.41524],[-71.83411,41.41158],[-71.83965,41.41212],[-71.84347,41.40583],[-71.84213,41.39536],[-71.83265,41.38716],[-71.83064,41.37877],[-71.83161,41.3709],[-71.83763,41.3655],[-71.8357,41.35357],[-71.8313,41.3513],[-71.82938,41.34241],[-71.83616,41.33601],[-71.84771,41.3296],[-71.86211,41.31661],[-71.86277,41.30979],[-71.85743,41.30632],[-71.84528,41.31187],[-71.81534,41.32024],[-71.7737,41.32798],[-71.76103,41.32849],[-71.75166,41.3254],[-71.74676,41.32809],[-71.73072,41.33164],[-71.71604,41.33109],[-71.70517,41.33429],[-71.69669,41.34098],[-71.68807,41.34282],[-71.61651,41.36299],[-71.59476,41.36516],[-71.58609,41.36809],[-71.55157,41.37442],[-71.53724,41.37333],[-71.53155,41.37649],[-71.52016,41.37652],[-71.50293,41.3742],[-71.48896,41.36435],[-71.48087,41.36025],[-71.4842,41.37184],[-71.46898,41.39362],[-71.46374,41.39575],[-71.46233,41.40128],[-71.45297,41.40968],[-71.45264,41.41778],[-71.45482,41.42182],[-71.45584,41.43299],[-71.44895,41.43848],[-71.43813,41.44165],[-71.43114,41.4473],[-71.42668,41.45882],[-71.43001,41.46114],[-71.43074,41.47064],[-71.4184,41.47265],[-71.41796,41.48207],[-71.42027,41.48358],[-71.42142,41.49863],[-71.41494,41.5163],[-71.41551,41.52986],[-71.41765,41.53626],[-71.42312,41.53875],[-71.43104,41.5501],[-71.42787,41.55548],[-71.43437,41.56163],[-71.44216,41.56382],[-71.44641,41.5745],[-71.44641,41.58322],[-71.43881,41.58144],[-71.40377,41.58932],[-71.40361,41.60296],[-71.41433,41.60259],[-71.41694,41.6049],[-71.41195,41.61112],[-71.40434,41.61183],[-71.40244,41.61556],[-71.40862,41.62196],[-71.40315,41.62747],[-71.40753,41.63333],[-71.40888,41.65384],[-71.41758,41.65495],[-71.4328,41.65132],[-71.44251,41.64582],[-71.44199,41.64328],[-71.44929,41.63673],[-71.45137,41.62946],[-71.45912,41.63795],[-71.47253,41.63208],[-71.47132,41.62908],[-71.48248,41.62358],[-71.48804,41.61605],[-71.48545,41.61297],[-71.48443,41.60259],[-71.52045,41.60262],[-71.54481,41.60199],[-71.64335,41.60096],[-71.65357,41.5987],[-71.76081,41.59804],[-71.78936,41.59685]]]]},"properties":{"STATEFP":"44","COUNTYFP":"009","COUNTYNS":"01219782","GEOIDFQ":"0500000US44009","GEOID":"44009","NAME":"Washington","NAMELSAD":"Washington County","STUSPS":"RI","STATE_NAME":"Rhode Island","LSAD":"06","ALAND":852827596,"AWATER":604769731}},
{"type":"Feature","geometry":{"type":"MultiPolygon","coordinates":[[[[-71.28802,41.64558],[-71.28591,41.63801],[-71.27704,41.63803],[-71.27817,41.64731],[-71.28802,41.64558]]],[[[-71.35382,41.64747],[-71.35073,41.63391],[-71.33737,41.63128],[-71.32556,41.62414],[-71.32661,41.61611],[-71.33375,41.60586],[-71.33705,41.59469],[-71.33595,41.5859],[-71.3312,41.58032],[-71.3261,41.57858],[-71.3167,41.58313],[-71.30264,41.60553],[-71.30405,41.61878],[-71.30812,41.62624],[-71.31712,41.63139],[-71.32682,41.6317],[-71.33906,41.63706],[-71.34468,41.64253],[-71.33709,41.64673],[-71.33934,41.65503],[-71.33765,41.65797],[-71.34693,41.66333],[-71.35157,41.6586],[-71.34384,41.65486],[-71.35382,41.64747]]],[[[-71.36291,41.46175],[-71.35879,41.45966],[-71.35616,41.45054],[-71.34418,41.45403],[-71.33476,41.44952],[-71.32375,41.46013],[-71.31848,41.45572],[-71.30439,41.4545],[-71.30398,41.46372],[-71.29685,41.46913],[-71.29739,41.48479],[-71.29133,41.48786],[-71.28231,41.48829],[-71.27664,41.48004],[-71.26886,41.4847],[-71.26764,41.48821],[-71.25208,41.48592],[-71.24043,41.47615],[-71.23744,41.48571],[-71.24426,41.48574],[-71.24799,41.49029],[-71.24074,41.5017],[-71.24074,41.50555],[-71.23346,41.51405],[-71.22799,41.5283],[-71.23664,41.53585],[-71.23652,41.54489],[-71.23369,41.55236],[-71.2382,41.55877],[-71.23626,41.56499],[-71.23613,41.57477],[-71.2436,41.58751],[-71.24106,41.60695],[-71.24071,41.61923],[-71.23649,41.62137],[-71.22413,41.62289],[-71.21531,41.62549],[-71.21184,41.62353],[-71.21266,41.61007],[-71.2054,41.59433],[-71.21467,41.58597],[-71.20835,41.58117],[-71.20865,41.57103],[-71.21141,41.55822],[-71.216,41.54718],[-71.20493,41.5408],[-71.20826,41.52888],[-71.20477,41.5191],[-71.20079,41.51437],[-71.20638,41.49922],[-71.20226,41.49838],[-71.19939,41.49177],[-71.19017,41.48429],[-71.19235,41.46656],[-71.19661,41.46476],[-71.19398,41.4564],[-71.18628,41.46029],[-71.16865,41.46145],[-71.17023,41.46838],[-71.15927,41.47599],[-71.15086,41.47582],[-71.13909,41.48345],[-71.14109,41.48994],[-71.13687,41.49394],[-71.12057,41.49745],[-71.1224,41.52216],[-71.13131,41.59231],[-71.14059,41.6051],[-71.14151,41.61608],[-71.14047,41.62389],[-71.13569,41.6284],[-71.13289,41.6601],[-71.17609,41.6681],[-71.17599,41.6714],[-71.19564,41.67509],[-71.20802,41.65314],[-71.21182,41.6391],[-71.21658,41.6391],[-71.21919,41.65367],[-71.22537,41.6471],[-71.23226,41.64337],[-71.23654,41.63839],[-71.25108,41.63878],[-71.25888,41.63323],[-71.26102,41.62738],[-71.27186,41.62399],[-71.27523,41.61944],[-71.27241,41.61504],[-71.27344,41.60699],[-71.28065,41.59285],[-71.28526,41.59237],[-71.28907,41.58271],[-71.28408,41.57939],[-71.28838,41.57327],[-71.29436,41.57142],[-71.30365,41.55993],[-71.31053,41.54692],[-71.30808,41.53938],[-71.31415,41.53145],[-71.31125,41.52262],[-71.31458,41.51981],[-71.32803,41.51885],[-71.33069,41.5077],[-71.32312,41.50309],[-71.32282,41.49115],[-71.31806,41.48776],[-71.31652,41.47756],[-71.32353,41.47583],[-71.33599,41.46965],[-71.33438,41.4782],[-71.33644,41.48199],[-71.3479,41.47059],[-71.36119,41.46462],[-71.36291,41.46175]]],[[[-71.36704,41.6607],[-71.36254,41.65114],[-71.35635,41.65209],[-71.3534,41.65787],[-71.36071,41.66112],[-71.36704,41.6607]]],[[[-71.40056,41.46094],[-71.40078,41.45497],[-71.39604,41.45202],[-71.39027,41.45504],[-71.38903,41.46555],[-71.38159,41.46806],[-71.38624,41.48769],[-71.38066,41.4888],[-71.37676,41.47488],[-71.37174,41.47752],[-71.35874,41.47711],[-71.35948,41.48309],[-71.36654,41.49479],[-71.36598,41.49882],[-71.35892,41.50328],[-71.35762,41.50871],[-71.36523,41.51203],[-71.36134,41.52638],[-71.36468,41.5414],[-71.3604,41.54779],[-71.35987,41.55631],[-71.36356,41.57086],[-71.37019,41.57396],[-71.37902,41.56777],[-71.38141,41.55879],[-71.38448,41.55674],[-71.38661,41.54583],[-71.38568,41.53904],[-71.39214,41.52447],[-71.39101,41.51458],[-71.37891,41.50495],[-71.38345,41.50105],[-71.38401,41.49381],[-71.39237,41.49186],[-71.39943,41.49298],[-71.39665,41.47892],[-71.39758,41.47376],[-71.39442,41.46722],[-71.40056,41.46094]]],[[[-71.4051,41.49821],[-71.39628,41.5037],[-71.40141,41.50627],[-71.4051,41.49821]]]]},"properties":{"STATEFP":"44","COUNTYFP":"005","COUNTYNS":"01219779","GEOIDFQ":"0500000US44005","GEOID":"44005","NAME":"Newport","NAMELSAD":"Newport County","STUSPS":"RI","STATE_NAME":"Rhode Island","LSAD":"06","ALAND":265293779,"AWATER":547001789}},
{"type":"Feature","geometry":{"type":"Polygon","coordinates":[[[-71.35582,41.74506],[-71.34825,41.74205],[-71.34112,41.73477],[-71.33946,41.72484],[-71.32419,41.72538],[-71.30713,41.72165],[-71.30798,41.71276],[-71.3038,41.70657],[-71.29905,41.7087],[-71.29122,41.70267],[-71.29312,41.68835],[-71.29893,41.68152],[-71.30263,41.68175],[-71.30609,41.67258],[-71.30499,41.65935],[-71.29786,41.65828],[-71.29055,41.66239],[-71.28764,41.67246],[-71.28907,41.67959],[-71.2855,41.68243],[-71.27885,41.67835],[-71.28037,41.67258],[-71.27766,41.66628],[-71.26768,41.6574],[-71.27008,41.65244],[-71.26705,41.64495],[-71.25956,41.6426],[-71.2546,41.65225],[-71.25342,41.66059],[-71.24438,41.66912],[-71.23844,41.66557],[-71.23464,41.67746],[-71.24248,41.68793],[-71.24581,41.69716],[-71.24099,41.69774],[-71.22787,41.7055],[-71.2248,41.7105],[-71.26139,41.7523],[-71.31792,41.77616],[-71.35149,41.75264],[-71.35582,41.74506]]]},"properties":{"STATEFP":"44","COUNTYFP":"001","COUNTYNS":"01219777","GEOIDFQ":"0500000US44001","GEOID":"44001","NAME":"Bristol","NAMELSAD":"Bristol County","STUSPS":"RI","STATE_NAME":"Rhode Island","LSAD":"06","ALAND":62500773,"AWATER":53359134}},
{"type":"Feature","geometry":{"type":"Polygon","coordinates":[[[-71.78969,41.7252],[-71.78699,41.65599],[-71.78936,41.59685],[-71.76081,41.59804],[-71.65357,41.5987],[-71.64335,41.60096],[-71.54481,41.60199],[-71.52045,41.60262],[-71.48443,41.60259],[-71.48545,41.61297],[-71.48804,41.61605],[-71.48248,41.62358],[-71.47132,41.62908],[-71.47253,41.63208],[-71.45912,41.63795],[-71.45137,41.62946],[-71.44929,41.63673],[-71.44199,41.64328],[-71.44251,41.64582],[-71.4328,41.65132],[-71.41758,41.65495],[-71.40888,41.65384],[-71.40862,41.66317],[-71.41765,41.6653],[-71.42428,41.67027],[-71.43475,41.66626],[-71.44625,41.66631],[-71.44457,41.6743],[-71.4502,41.68646],[-71.44592,41.69114],[-71.44134,41.68645],[-71.43381,41.68696],[-71.41807,41.68421],[-71.39816,41.68341],[-71.39055,41.6841],[-71.38988,41.6719],[-71.37791,41.66665],[-71.37299,41.67258],[-71.37154,41.68536],[-71.36489,41.68838],[-71.36441,41.7047],[-71.36572,41.71162],[-71.35728,41.71659],[-71.36988,41.71828],[-71.37653,41.72165],[-71.38105,41.72732],[-71.38081,41.73885],[-71.37606,41.74417],[-71.38057,41.74595],[-71.38105,41.7557],[-71.3838,41.75851],[-71.38852,41.76378],[-71.39412,41.76404],[-71.39958,41.76832],[-71.4107,41.76655],[-71.41438,41.76295],[-71.42199,41.76458],[-71.42622,41.76102],[-71.43756,41.75983],[-71.44062,41.75215],[-71.44654,41.74889],[-71.44468,41.74016],[-71.45128,41.7397],[-71.45534,41.73237],[-71.51993,41.73044],[-71.54581,41.7301],[-71.64425,41.7278],[-71.72011,41.72633],[-71.78969,41.7252]]]},"properties":{"STATEFP":"44","COUNTYFP":"003","COUNTYNS":"01219778","GEOIDFQ":"0500000US44003","GEOID":"44003","NAME":"Kent","NAMELSAD":"Kent County","STUSPS":"RI","STATE_NAME":"Rhode Island","LSAD":"06","ALAND":436588768,"AWATER":50686110}}
]}