{"type":"FeatureCollection", "features": [
{"type":"Feature","geometry":{"type":"Polygon","coordinates":[[[-72.79104,43.96224],[-72.81,43.93609],[-72.81633,43.93781],[-72.86528,43.86166],[-72.87418,43.86406],[-72.87656,43.90277],[-72.95319,43.87486],[-72.98015,43.88292],[-72.98023,43.86397],[-72.97289,43.86677],[-72.95974,43.82608],[-72.8745,43.85806],[-72.87387,43.83963],[-72.83834,43.82925],[-72.83066,43.83912],[-72.79692,43.82916],[-72.79129,43.82259],[-72.79212,43.8165],[-72.78286,43.80401],[-72.81926,43.74631],[-72.80393,43.74097],[-72.81998,43.7167],[-72.69979,43.68458],[-72.73044,43.63085],[-72.75795,43.58742],[-72.7715,43.59109],[-72.78993,43.49455],[-72.76914,43.49151],[-72.77137,43.4788],[-72.72422,43.46817],[-72.72256,43.46008],[-72.7384,43.41704],[-72.76236,43.37141],[-72.75849,43.35331],[-72.82193,43.38061],[-72.82198,43.37571],[-72.85238,43.37628],[-72.8547,43.34928],[-72.86497,43.3487],[-72.86865,43.30053],[-72.81989,43.29937],[-72.81962,43.25601],[-72.75683,43.23969],[-72.68544,43.22258],[-72.67624,43.22408],[-72.54914,43.2359],[-72.43379,43.23304],[-72.43894,43.24424],[-72.43522,43.25848],[-72.42158,43.26344],[-72.40784,43.28289],[-72.40167,43.3034],[-72.39546,43.31299],[-72.41035,43.33168],[-72.40098,43.34578],[-72.39092,43.35498],[-72.41338,43.36274],[-72.41598,43.37653],[-72.41315,43.3843],[-72.40381,43.39194],[-72.39566,43.43854],[-72.39057,43.45123],[-72.39263,43.46508],[-72.38172,43.48009],[-72.38089,43.49339],[-72.38477,43.50026],[-72.3963,43.50806],[-72.39856,43.51344],[-72.39422,43.5274],[-72.3891,43.52827],[-72.38038,43.54088],[-72.38262,43.56413],[-72.38015,43.57362],[-72.37337,43.57967],[-72.34993,43.58773],[-72.33238,43.59936],[-72.32823,43.60684],[-72.33474,43.61452],[-72.32739,43.63677],[-72.31525,43.64116],[-72.31402,43.65616],[-72.30577,43.66654],[-72.30309,43.67808],[-72.30602,43.68306],[-72.30513,43.69532],[-72.29956,43.70628],[-72.27527,43.72753],[-72.24507,43.74309],[-72.23418,43.74597],[-72.22012,43.76363],[-72.20514,43.77126],[-72.33934,43.81046],[-72.3461,43.8116],[-72.46069,43.83671],[-72.45952,43.83809],[-72.60416,43.88223],[-72.70931,43.91124],[-72.71228,43.90796],[-72.7735,43.92454],[-72.7689,43.93161],[-72.77108,43.93906],[-72.78996,43.94532],[-72.79104,43.96224]]]},"properties":{"STATEFP":"50","COUNTYFP":"027","COUNTYNS":"01461770","GEOIDFQ":"0500000US50027","GEOID":"50027","NAME":"Windsor","NAMELSAD":"Windsor County","STUSPS":"VT","STATE_NAME":"Vermont","LSAD":"06","ALAND":2510071971,"AWATER":19366112}},
{"type":"Feature","geometry":{"type":"Polygon","coordinates":[[[-71.89932,45.00818],[-71.92015,44.90153],[-71.87786,44.87876],[-71.91995,44.8369],[-71.92932,44.82964],[-71.97482,44.78723],[-71.93929,44.76944],[-71.83707,44.71638],[-71.9102,44.64683],[-71.84237,44.61087],[-71.90894,44.54792],[-71.85669,44.49628],[-71.90326,44.45474],[-71.93322,44.44114],[-71.83776,44.34772],[-71.81884,44.35294],[-71.81241,44.35733],[-71.81629,44.3674],[-71.81439,44.38193],[-71.7999,44.38595],[-71.80235,44.39338],[-71.79069,44.40026],[-71.77861,44.3998],[-71.76498,44.40659],[-71.75609,44.4064],[-71.74232,44.40141],[-71.73662,44.40945],[-71.71461,44.40956],[-71.70219,44.41383],[-71.67599,44.42871],[-71.67928,44.43434],[-71.66345,44.43779],[-71.65971,44.44147],[-71.65255,44.46052],[-71.64352,44.46059],[-71.6449,44.4752],[-71.63344,44.47821],[-71.62456,44.47518],[-71.61784,44.48584],[-71.59933,44.48628],[-71.59521,44.49341],[-71.57681,44.50408],[-71.59426,44.52168],[-71.58295,44.52335],[-71.57453,44.53175],[-71.57444,44.54064],[-71.59713,44.55385],[-71.59614,44.5609],[-71.58766,44.5658],[-71.5696,44.56278],[-71.55905,44.56445],[-71.54937,44.56964],[-71.54653,44.57782],[-71.53718,44.58526],[-71.53988,44.58997],[-71.55337,44.59317],[-71.56042,44.59977],[-71.55362,44.6083],[-71.55653,44.61958],[-71.55214,44.63008],[-71.56328,44.63665],[-71.55787,44.64122],[-71.56281,44.65236],[-71.57881,44.65098],[-71.58575,44.6579],[-71.58616,44.67435],[-71.59609,44.67764],[-71.59422,44.68382],[-71.59795,44.69177],[-71.59414,44.69693],[-71.59879,44.70327],[-71.62625,44.72904],[-71.62515,44.74275],[-71.63188,44.75246],[-71.61667,44.7563],[-71.61177,44.76435],[-71.5951,44.77541],[-71.59249,44.78267],[-71.57972,44.78473],[-71.57131,44.79334],[-71.57313,44.79795],[-71.56867,44.80746],[-71.57605,44.81243],[-71.57346,44.82064],[-71.56235,44.82328],[-71.55692,44.8342],[-71.55065,44.8385],[-71.55548,44.84701],[-71.54752,44.85675],[-71.54552,44.86613],[-71.53433,44.86947],[-71.51874,44.88481],[-71.51409,44.89315],[-71.49602,44.9089],[-71.50448,44.91906],[-71.51544,44.92692],[-71.51625,44.96409],[-71.52661,44.97127],[-71.53865,44.98726],[-71.53619,44.99459],[-71.52479,45.00192],[-71.50425,45.00822],[-71.48968,45.00114],[-71.46455,45.01364],[-71.56056,45.01256],[-71.60984,45.01271],[-71.6919,45.01142],[-71.76745,45.01144],[-71.89932,45.00818]]]},"properties":{"STATEFP":"50","COUNTYFP":"009","COUNTYNS":"01461761","GEOIDFQ":"0500000US50009","GEOID":"50009","NAME":"Essex","NAMELSAD":"Essex County","STUSPS":"VT","STATE_NAME":"Vermont","LSAD":"06","ALAND":1715530626,"AWATER":28688441}},
{"type":"Feature","geometry":{"type":"Polygon","coordinates":[[[-72.57907,44.7809],[-72.5944,44.7903],[-72.5979,44.78706],[-72.61673,44.79584],[-72.6136,44.80042],[-72.7291,44.80404],[-72.74685,44.79009],[-72.74579,44.7759],[-72.75505,44.77703],[-72.75855,44.76364],[-72.76859,44.765],[-72.77439,44.74317],[-72.77939,44.74383],[-72.79322,44.69067],[-72.85079,44.71112],[-72.89186,44.65566],[-72.90297,44.64636],[-72.92728,44.64574],[-72.92378,44.63321],[-72.90996,44.6312],[-72.85842,44.57974],[-72.82704,44.55069],[-72.80996,44.54671],[-72.83076,44.51643],[-72.80364,44.50628],[-72.8383,44.45929],[-72.80486,44.45188],[-72.76556,44.44281],[-72.71993,44.4251],[-72.65434,44.3983],[-72.60028,44.47398],[-72.59728,44.47939],[-72.49356,44.42398],[-72.48474,44.43914],[-72.46725,44.46124],[-72.43412,44.50602],[-72.42848,44.51256],[-72.37386,44.58416],[-72.37106,44.59333],[-72.48279,44.6341],[-72.41731,44.72289],[-72.50087,44.75262],[-72.57907,44.7809]]]},"properties":{"STATEFP":"50","COUNTYFP":"015","COUNTYNS":"01461764","GEOIDFQ":"0500000US50015","GEOID":"50015","NAME":"Lamoille","NAMELSAD":"Lamoille County","STUSPS":"VT","STATE_NAME":"Vermont","LSAD":"06","ALAND":1194643959,"AWATER":12744800}},
{"type":"Feature","geometry":{"type":"Polygon","coordinates":[[[-71.93929,44.76944],[-71.99956,44.71104],[-72.01145,44.69883],[-72.11436,44.74981],[-72.0893,44.68508],[-72.14596,44.7045],[-72.14996,44.69786],[-72.20712,44.61673],[-72.26287,44.54249],[-72.30242,44.55748],[-72.36652,44.58078],[-72.37386,44.58416],[-72.42848,44.51256],[-72.43412,44.50602],[-72.22381,44.42489],[-72.21708,44.41131],[-72.27013,44.34039],[-72.31683,44.29878],[-72.31665,44.27223],[-72.36888,44.20389],[-72.3052,44.18309],[-72.17436,44.19266],[-72.17069,44.19197],[-72.04357,44.15708],[-72.05302,44.1679],[-72.0575,44.17944],[-72.06617,44.18977],[-72.06007,44.20045],[-72.05954,44.21032],[-72.0525,44.21888],[-72.05358,44.22604],[-72.04789,44.23849],[-72.05978,44.25689],[-72.05856,44.26908],[-72.06843,44.2713],[-72.05888,44.28624],[-72.03951,44.29594],[-72.03272,44.30247],[-72.02906,44.3224],[-72.0189,44.32022],[-72.00388,44.32409],[-71.98648,44.33122],[-71.98112,44.3375],[-71.96313,44.33656],[-71.92911,44.33758],[-71.91743,44.34654],[-71.90233,44.3475],[-71.87247,44.33663],[-71.85263,44.34087],[-71.83776,44.34772],[-71.93322,44.44114],[-71.90326,44.45474],[-71.85669,44.49628],[-71.90894,44.54792],[-71.84237,44.61087],[-71.9102,44.64683],[-71.83707,44.71638],[-71.93929,44.76944]]]},"properties":{"STATEFP":"50","COUNTYFP":"005","COUNTYNS":"01461759","GEOIDFQ":"0500000US50005","GEOID":"50005","NAME":"Caledonia","NAMELSAD":"Caledonia County","STUSPS":"VT","STATE_NAME":"Vermont","LSAD":"06","ALAND":1681454161,"AWATER":22351442}},
{"type":"Feature","geometry":{"type":"Polygon","coordinates":[[[-72.79104,43.96224],[-72.75411,44.01202],[-72.74224,44.02964],[-72.84865,44.06048],[-72.8969,44.07366],[-72.91678,44.07189],[-72.93215,44.1555],[-72.93408,44.16282],[-72.9522,44.16141],[-72.96545,44.23139],[-72.97588,44.29504],[-73.02037,44.30374],[-73.01652,44.28536],[-73.07001,44.27993],[-73.07059,44.28383],[-73.1522,44.27245],[-73.1968,44.26663],[-73.27038,44.26011],[-73.31342,44.2642],[-73.3236,44.2439],[-73.3305,44.24425],[-73.34989,44.23036],[-73.36201,44.20855],[-73.38225,44.19718],[-73.3908,44.18907],[-73.38966,44.18125],[-73.39586,44.17579],[-73.40238,44.14586],[-73.41576,44.13283],[-73.41132,44.11269],[-73.41632,44.09942],[-73.42924,44.07941],[-73.43199,44.06345],[-73.43774,44.04501],[-73.42312,44.03276],[-73.41078,44.02694],[-73.40598,44.01149],[-73.41261,43.97998],[-73.40682,43.96732],[-73.40552,43.94881],[-73.40859,43.93293],[-73.39588,43.90304],[-73.38349,43.89095],[-73.37415,43.87416],[-73.3815,43.85924],[-73.38099,43.85263],[-73.37225,43.84534],[-73.3766,43.83936],[-73.38839,43.8324],[-73.39275,43.8222],[-73.38326,43.81331],[-73.37636,43.79877],[-73.35755,43.78593],[-73.35059,43.77194],[-73.36295,43.75318],[-73.20632,43.76678],[-73.21896,43.83729],[-73.15558,43.83967],[-73.15617,43.84231],[-73.02994,43.84672],[-73.02684,43.84214],[-73.01709,43.80486],[-72.95974,43.82608],[-72.97289,43.86677],[-72.98023,43.86397],[-72.98015,43.88292],[-72.95319,43.87486],[-72.87656,43.90277],[-72.87418,43.86406],[-72.86528,43.86166],[-72.81633,43.93781],[-72.81,43.93609],[-72.79104,43.96224]]]},"properties":{"STATEFP":"50","COUNTYFP":"001","COUNTYNS":"01461757","GEOIDFQ":"0500000US50001","GEOID":"50001","NAME":"Addison","NAMELSAD":"Addison County","STUSPS":"VT","STATE_NAME":"Vermont","LSAD":"06","ALAND":1984788915,"AWATER":107311070}},
{"type":"Feature","geometry":{"type":"Polygon","coordinates":[[[-72.20514,43.77126],[-72.20554,43.78458],[-72.19508,43.79233],[-72.18485,43.8047],[-72.18418,43.81252],[-72.18852,43.82329],[-72.1822,43.83403],[-72.18286,43.84511],[-72.18792,43.85613],[-72.18285,43.86552],[-72.16791,43.86911],[-72.17358,43.87967],[-72.17056,43.88618],[-72.16164,43.88676],[-72.15132,43.9017],[-72.12394,43.91704],[-72.11815,43.92361],[-72.11691,43.94749],[-72.10444,43.95089],[-72.09909,43.95738],[-72.10515,43.96989],[-72.11473,43.96833],[-72.11218,43.98685],[-72.11698,43.99448],[-72.10358,44.00423],[-72.10573,44.0111],[-72.08548,44.02126],[-72.07484,44.03299],[-72.07832,44.04338],[-72.06562,44.04915],[-72.06761,44.05803],[-72.05729,44.05834],[-72.04893,44.06901],[-72.05249,44.07672],[-72.03324,44.08151],[-72.04438,44.086],[-72.03236,44.09153],[-72.0309,44.09972],[-72.04005,44.10335],[-72.04313,44.09724],[-72.05239,44.10109],[-72.05514,44.11042],[-72.05234,44.11989],[-72.03692,44.12527],[-72.03341,44.1311],[-72.04188,44.13762],[-72.04357,44.15708],[-72.17069,44.19197],[-72.17436,44.19266],[-72.3052,44.18309],[-72.36888,44.20389],[-72.4192,44.22078],[-72.44338,44.1288],[-72.45554,44.13334],[-72.55971,44.16291],[-72.56398,44.15478],[-72.58656,44.16026],[-72.6291,44.08784],[-72.63448,44.08931],[-72.68287,44.01281],[-72.74224,44.02964],[-72.75411,44.01202],[-72.79104,43.96224],[-72.78996,43.94532],[-72.77108,43.93906],[-72.7689,43.93161],[-72.7735,43.92454],[-72.71228,43.90796],[-72.70931,43.91124],[-72.60416,43.88223],[-72.45952,43.83809],[-72.46069,43.83671],[-72.3461,43.8116],[-72.33934,43.81046],[-72.20514,43.77126]]]},"properties":{"STATEFP":"50","COUNTYFP":"017","COUNTYNS":"01461765","GEOIDFQ":"0500000US50017","GEOID":"50017","NAME":"Orange","NAMELSAD":"Orange County","STUSPS":"VT","STATE_NAME":"Vermont","LSAD":"06","ALAND":1779343340,"AWATER":12005265}},
{"type":"Feature","geometry":{"type":"Polygon","coordinates":[[[-72.92378,44.63321],[-73.03803,44.65116],[-73.10435,44.67672],[-73.22886,44.72281],[-73.22841,44.68826],[-73.23356,44.67159],[-73.23287,44.65143],[-73.23771,44.64589],[-73.25111,44.64151],[-73.25628,44.62968],[-73.2545,44.61068],[-73.26194,44.59753],[-73.27932,44.58859],[-73.29734,44.58172],[-73.32677,44.57306],[-73.36263,44.56432],[-73.35679,44.55792],[-73.34293,44.55191],[-73.32851,44.52848],[-73.32203,44.52529],[-73.32084,44.51363],[-73.30671,44.50033],[-73.30442,44.48574],[-73.29988,44.47665],[-73.30011,44.45471],[-73.29361,44.44056],[-73.29603,44.42834],[-73.31049,44.4026],[-73.31502,44.38851],[-73.33357,44.37229],[-73.33464,44.35688],[-73.32734,44.34437],[-73.324,44.33384],[-73.32423,44.31002],[-73.32227,44.30152],[-73.31102,44.27424],[-73.31342,44.2642],[-73.27038,44.26011],[-73.1968,44.26663],[-73.1522,44.27245],[-73.07059,44.28383],[-73.07001,44.27993],[-73.01652,44.28536],[-73.02037,44.30374],[-72.97588,44.29504],[-72.96545,44.23139],[-72.9522,44.16141],[-72.89498,44.2781],[-72.90596,44.28055],[-72.86125,44.3669],[-72.83266,44.35874],[-72.82596,44.35903],[-72.80237,44.38858],[-72.83983,44.40345],[-72.80486,44.45188],[-72.8383,44.45929],[-72.80364,44.50628],[-72.83076,44.51643],[-72.80996,44.54671],[-72.82704,44.55069],[-72.85842,44.57974],[-72.90996,44.6312],[-72.92378,44.63321]]]},"properties":{"STATEFP":"50","COUNTYFP":"007","COUNTYNS":"01461760","GEOIDFQ":"0500000US50007","GEOID":"50007","NAME":"Chittenden","NAMELSAD":"Chittenden County","STUSPS":"VT","STATE_NAME":"Vermont","LSAD":"06","ALAND":1390433441,"AWATER":217071279}},
{"type":"Feature","geometry":{"type":"Polygon","coordinates":[[[-72.95974,43.82608],[-73.01709,43.80486],[-73.02684,43.84214],[-73.02994,43.84672],[-73.15617,43.84231],[-73.15558,43.83967],[-73.21896,43.83729],[-73.20632,43.76678],[-73.36295,43.75318],[-73.36972,43.74427],[-73.37061,43.72533],[-73.38588,43.71134],[-73.39372,43.6992],[-73.40208,43.69311],[-73.40806,43.66944],[-73.41876,43.64788],[-73.42646,43.6426],[-73.42791,43.63443],[-73.41832,43.62333],[-73.42371,43.61236],[-73.42162,43.60302],[-73.43032,43.59053],[-73.42864,43.58399],[-73.39812,43.56807],[-73.38419,43.57551],[-73.38628,43.59125],[-73.37238,43.60601],[-73.37604,43.6126],[-73.36993,43.61909],[-73.35859,43.62507],[-73.34762,43.62251],[-73.34218,43.62607],[-73.31757,43.62736],[-73.30208,43.62436],[-73.30028,43.61081],[-73.29223,43.60255],[-73.29354,43.57852],[-73.28491,43.57927],[-73.27973,43.57424],[-73.26938,43.57197],[-73.25863,43.56495],[-73.24864,43.55386],[-73.25013,43.54343],[-73.24204,43.53493],[-73.24682,43.52578],[-73.2484,43.47044],[-73.25258,43.371],[-73.25452,43.31449],[-73.16855,43.31138],[-73.09257,43.30693],[-73.0468,43.30706],[-72.98759,43.30501],[-72.99233,43.29072],[-72.97589,43.29055],[-72.97529,43.30416],[-72.86865,43.30053],[-72.86497,43.3487],[-72.8547,43.34928],[-72.85238,43.37628],[-72.82198,43.37571],[-72.82193,43.38061],[-72.75849,43.35331],[-72.76236,43.37141],[-72.7384,43.41704],[-72.72256,43.46008],[-72.72422,43.46817],[-72.77137,43.4788],[-72.76914,43.49151],[-72.78993,43.49455],[-72.7715,43.59109],[-72.75795,43.58742],[-72.73044,43.63085],[-72.69979,43.68458],[-72.81998,43.7167],[-72.80393,43.74097],[-72.81926,43.74631],[-72.78286,43.80401],[-72.79212,43.8165],[-72.79129,43.82259],[-72.79692,43.82916],[-72.83066,43.83912],[-72.83834,43.82925],[-72.87387,43.83963],[-72.8745,43.85806],[-72.95974,43.82608]]]},"properties":{"STATEFP":"50","COUNTYFP":"021","COUNTYNS":"01461767","GEOIDFQ":"0500000US50021","GEOID":"50021","NAME":"Rutland","NAMELSAD":"Rutland County","STUSPS":"VT","STATE_NAME":"Vermont","LSAD":"06","ALAND":2410117478,"AWATER":38757463}},
{"type":"Feature","geometry":{"type":"Polygon","coordinates":[[[-71.89932,45.00818],[-71.9472,45.00836],[-72.02329,45.00679],[-72.10306,45.0056],[-72.16051,45.00619],[-72.27087,45.00419],[-72.31007,45.00382],[-72.34858,45.00563],[-72.4013,45.00659],[-72.44886,45.00854],[-72.48103,45.00887],[-72.5325,45.00786],[-72.55388,45.00827],[-72.5365,44.92611],[-72.54138,44.92598],[-72.53328,44.83408],[-72.57907,44.7809],[-72.50087,44.75262],[-72.41731,44.72289],[-72.48279,44.6341],[-72.37106,44.59333],[-72.37386,44.58416],[-72.36652,44.58078],[-72.30242,44.55748],[-72.26287,44.54249],[-72.20712,44.61673],[-72.14996,44.69786],[-72.14596,44.7045],[-72.0893,44.68508],[-72.11436,44.74981],[-72.01145,44.69883],[-71.99956,44.71104],[-71.93929,44.76944],[-71.97482,44.78723],[-71.92932,44.82964],[-71.91995,44.8369],[-71.87786,44.87876],[-71.92015,44.90153],[-71.89932,45.00818]]]},"properties":{"STATEFP":"50","COUNTYFP":"019","COUNTYNS":"01461766","GEOIDFQ":"0500000US50019","GEOID":"50019","NAME":"Orleans","NAMELSAD":"Orleans County","STUSPS":"VT","STATE_NAME":"Vermont","LSAD":"06","ALAND":1798880704,"AWATER":71408888}},
{"type":"Feature","geometry":{"type":"Polygon","coordinates":[[[-73.22886,44.72281],[-73.25013,44.75022],[-73.25797,44.76359],[-73.25889,44.77409],[-73.25591,44.78316],[-73.24575,44.79958],[-73.23703,44.80965],[-73.22413,44.81815],[-73.21082,44.82209],[-73.20322,44.83363],[-73.20755,44.8461],[-73.20333,44.86599],[-73.19643,44.87542],[-73.19199,44.89252],[-73.19132,44.9056],[-73.19535,44.91058],[-73.2057,44.9111],[-73.22612,44.9196],[-73.23795,44.94064],[-73.23913,44.95322],[-73.22971,44.95931],[-73.2051,44.99224],[-73.19234,45.01361],[-73.24932,45.01218],[-73.34312,45.01084],[-73.35463,44.98735],[-73.35289,44.98064],[-73.33873,44.96589],[-73.3396,44.94337],[-73.33848,44.92411],[-73.34111,44.91463],[-73.35622,44.90449],[-73.36033,44.89724],[-73.3691,44.86668],[-73.37982,44.85704],[-73.38136,44.84502],[-73.36568,44.82645],[-73.35347,44.82039],[-73.33544,44.8046],[-73.33315,44.78876],[-73.33571,44.78209],[-73.34707,44.77299],[-73.35436,44.7553],[-73.36556,44.74179],[-73.36598,44.69756],[-73.36131,44.69452],[-73.37014,44.68485],[-73.37272,44.66874],[-73.37006,44.66607],[-73.37907,44.65677],[-73.38316,44.64576],[-73.37856,44.64148],[-73.38678,44.63637],[-73.38982,44.61721],[-73.38293,44.61218],[-73.37685,44.5996],[-73.38185,44.58932],[-73.37439,44.57546],[-73.36263,44.56432],[-73.32677,44.57306],[-73.29734,44.58172],[-73.27932,44.58859],[-73.26194,44.59753],[-73.2545,44.61068],[-73.25628,44.62968],[-73.25111,44.64151],[-73.23771,44.64589],[-73.23287,44.65143],[-73.23356,44.67159],[-73.22841,44.68826],[-73.22886,44.72281]]]},"properties":{"STATEFP":"50","COUNTYFP":"013","COUNTYNS":"01461763","GEOIDFQ":"0500000US50013","GEOID":"50013","NAME":"Grand Isle","NAMELSAD":"Grand Isle County","STUSPS":"VT","STATE_NAME":"Vermont","LSAD":"06","ALAND":211782349,"AWATER":288954848}},
{"type":"Feature","geometry":{"type":"Polygon","coordinates":[[[-72.57907,44.7809],[-72.53328,44.83408],[-72.54138,44.92598],[-72.5365,44.92611],[-72.55388,45.00827],[-72.58988,45.01324],[-72.67477,45.01546],[-72.77731,45.01587],[-72.84563,45.01666],[-72.96804,45.0141],[-73.01477,45.01498],[-73.0651,45.01479],[-73.08597,45.01549],[-73.19234,45.01361],[-73.2051,44.99224],[-73.22971,44.95931],[-73.23913,44.95322],[-73.23795,44.94064],[-73.22612,44.9196],[-73.2057,44.9111],[-73.19535,44.91058],[-73.19132,44.9056],[-73.19199,44.89252],[-73.19643,44.87542],[-73.20333,44.86599],[-73.20755,44.8461],[-73.20322,44.83363],[-73.21082,44.82209],[-73.22413,44.81815],[-73.23703,44.80965],[-73.24575,44.79958],[-73.25591,44.78316],[-73.25889,44.77409],[-73.25797,44.76359],[-73.25013,44.75022],[-73.22886,44.72281],[-73.10435,44.67672],[-73.03803,44.65116],[-72.92378,44.63321],[-72.92728,44.64574],[-72.90297,44.64636],[-72.89186,44.65566],[-72.85079,44.71112],[-72.79322,44.69067],[-72.77939,44.74383],[-72.77439,44.74317],[-72.76859,44.765],[-72.75855,44.76364],[-72.75505,44.77703],[-72.74579,44.7759],[-72.74685,44.79009],[-72.7291,44.80404],[-72.6136,44.80042],[-72.61673,44.79584],[-72.5979,44.78706],[-72.5944,44.7903],[-72.57907,44.7809]]]},"properties":{"STATEFP":"50","COUNTYFP":"011","COUNTYNS":"01461762","GEOIDFQ":"0500000US50011","GEOID":"50011","NAME":"Franklin","NAMELSAD":"Franklin County","STUSPS":"VT","STATE_NAME":"Vermont","LSAD":"06","ALAND":1634181032,"AWATER":150651912}},
{"type":"Feature","geometry":{"type":"Polygon","coordinates":[[[-72.80486,44.45188],[-72.83983,44.40345],[-72.80237,44.38858],[-72.82596,44.35903],[-72.83266,44.35874],[-72.86125,44.3669],[-72.90596,44.28055],[-72.89498,44.2781],[-72.9522,44.16141],[-72.93408,44.16282],[-72.93215,44.1555],[-72.91678,44.07189],[-72.8969,44.07366],[-72.84865,44.06048],[-72.74224,44.02964],[-72.68287,44.01281],[-72.63448,44.08931],[-72.6291,44.08784],[-72.58656,44.16026],[-72.56398,44.15478],[-72.55971,44.16291],[-72.45554,44.13334],[-72.44338,44.1288],[-72.4192,44.22078],[-72.36888,44.20389],[-72.31665,44.27223],[-72.31683,44.29878],[-72.27013,44.34039],[-72.21708,44.41131],[-72.22381,44.42489],[-72.43412,44.50602],[-72.46725,44.46124],[-72.48474,44.43914],[-72.49356,44.42398],[-72.59728,44.47939],[-72.60028,44.47398],[-72.65434,44.3983],[-72.71993,44.4251],[-72.76556,44.44281],[-72.80486,44.45188]]]},"properties":{"STATEFP":"50","COUNTYFP":"023","COUNTYNS":"01461768","GEOIDFQ":"0500000US50023","GEOID":"50023","NAME":"Washington","NAMELSAD":"Washington County","STUSPS":"VT","STATE_NAME":"Vermont","LSAD":"06","ALAND":1779477067,"AWATER":21517931}},
{"type":"Feature","geometry":{"type":"Polygon","coordinates":[[[-72.81962,43.25601],[-72.84811,43.26285],[-72.85163,43.20483],[-72.86214,43.20522],[-72.86824,43.11393],[-72.89828,43.11465],[-72.94842,43.11748],[-72.99597,43.1187],[-73.00178,43.07512],[-73.0006,43.02357],[-73.00312,43.02368],[-73.00813,42.93056],[-72.92379,42.92744],[-72.92333,42.91516],[-72.9274,42.82983],[-72.9266,42.82337],[-72.9301,42.73916],[-72.80911,42.73658],[-72.61635,42.73123],[-72.45852,42.72685],[-72.461,42.73321],[-72.47307,42.74592],[-72.47594,42.7577],[-72.49112,42.77247],[-72.5131,42.76382],[-72.51673,42.76867],[-72.50837,42.77461],[-72.50886,42.77992],[-72.51835,42.79065],[-72.5396,42.80483],[-72.54477,42.82047],[-72.54855,42.84202],[-72.55725,42.85302],[-72.55283,42.88497],[-72.54071,42.88938],[-72.53147,42.89795],[-72.53022,42.91158],[-72.52424,42.9185],[-72.5271,42.92858],[-72.52662,42.9399],[-72.53455,42.94989],[-72.53219,42.95495],[-72.51842,42.96317],[-72.4926,42.96765],[-72.48171,42.97399],[-72.47383,42.97205],[-72.46163,42.98291],[-72.46533,42.98956],[-72.45995,43.00008],[-72.44871,43.00117],[-72.44464,43.01057],[-72.45704,43.01729],[-72.46299,43.02853],[-72.46025,43.04067],[-72.46736,43.05265],[-72.46381,43.0574],[-72.4452,43.07135],[-72.43519,43.08662],[-72.44305,43.10084],[-72.43484,43.10992],[-72.43297,43.11966],[-72.44293,43.13019],[-72.4409,43.13579],[-72.45199,43.13892],[-72.45689,43.14656],[-72.45155,43.15516],[-72.45256,43.17212],[-72.44375,43.18222],[-72.45028,43.19249],[-72.43772,43.20275],[-72.4405,43.21905],[-72.43379,43.23304],[-72.54914,43.2359],[-72.67624,43.22408],[-72.68544,43.22258],[-72.75683,43.23969],[-72.81962,43.25601]]]},"properties":{"STATEFP":"50","COUNTYFP":"025","COUNTYNS":"01461769","GEOIDFQ":"0500000US50025","GEOID":"50025","NAME":"Windham","NAMELSAD":"Windham County","STUSPS":"VT","STATE_NAME":"Vermont","LSAD":"06","ALAND":2035623279,"AWATER":32917049}},
{"type":"Feature","geometry":{"type":"Polygon","coordinates":[[[-72.86865,43.30053],[-72.97529,43.30416],[-72.97589,43.29055],[-72.99233,43.29072],[-72.98759,43.30501],[-73.0468,43.30706],[-73.09257,43.30693],[-73.16855,43.31138],[-73.25452,43.31449],[-73.25649,43.25925],[-73.25872,43.22989],[-73.26557,43.09622],[-73.26978,43.03592],[-73.27439,42.94248],[-73.2758,42.89725],[-73.27867,42.83341],[-73.28539,42.83409],[-73.28706,42.82014],[-73.28375,42.81386],[-73.29094,42.80192],[-73.27642,42.74602],[-73.14267,42.74351],[-72.9301,42.73916],[-72.9266,42.82337],[-72.9274,42.82983],[-72.92333,42.91516],[-72.92379,42.92744],[-73.00813,42.93056],[-73.00312,43.02368],[-73.0006,43.02357],[-73.00178,43.07512],[-72.99597,43.1187],[-72.94842,43.11748],[-72.89828,43.11465],[-72.86824,43.11393],[-72.86214,43.20522],[-72.85163,43.20483],[-72.84811,43.26285],[-72.81962,43.25601],[-72.81989,43.29937],[-72.86865,43.30053]]]},"properties":{"STATEFP":"50","COUNTYFP":"003","COUNTYNS":"01461758","GEOIDFQ":"0500000US50003","GEOID":"50003","NAME":"Bennington","NAMELSAD":"Bennington County","STUSPS":"VT","STATE_NAME":"Vermont","LSAD":"06","ALAND":1746266392,"AWATER":6896313}}
]}