{"type":"FeatureCollection", "features": [
{"type":"Feature","geometry":{"type":"Polygon","coordinates":[[[-111.05361,44.66627],[-111.05243,44.47841],[-111.04897,44.47407],[-111.04915,44.37493],[-111.04969,44.35363],[-111.04912,44.12492],[-111.04845,44.11483],[-111.04908,44.02007],[-111.04735,43.99992],[-111.04651,43.90838],[-111.04671,43.81583],[-111.04571,43.65911],[-111.0452,43.50105],[-111.04462,43.31572],[-110.9279,43.31596],[-110.92788,43.3135],[-110.814,43.31394],[-110.81399,43.23518],[-110.57866,43.23522],[-110.57838,43.29164],[-110.34396,43.29117],[-110.34422,43.37792],[-110.05731,43.37777],[-110.05751,43.46476],[-110.05157,43.46478],[-110.05131,43.74119],[-110.05144,43.81445],[-110.05364,43.81455],[-110.05318,44.00802],[-110.05336,44.13263],[-110.1196,44.13258],[-110.12363,44.14055],[-110.12639,44.15703],[-110.11668,44.16935],[-110.11561,44.1904],[-110.12213,44.21185],[-110.13115,44.22982],[-110.13327,44.24025],[-110.14338,44.25399],[-110.14521,44.26481],[-110.14214,44.2728],[-110.15028,44.29002],[-110.17443,44.30453],[-110.19019,44.3005],[-110.20196,44.30538],[-110.20876,44.31499],[-110.20284,44.32004],[-110.20251,44.32776],[-110.2181,44.33185],[-110.22592,44.3421],[-110.22841,44.37384],[-110.2431,44.38736],[-110.25391,44.39033],[-110.25486,44.40472],[-110.26004,44.40945],[-110.27812,44.414],[-110.29422,44.42824],[-110.29617,44.43557],[-110.28881,44.45152],[-110.29099,44.47045],[-110.28189,44.47883],[-110.28432,44.48985],[-110.278,44.49849],[-110.27986,44.50557],[-110.27652,44.51665],[-110.2834,44.5244],[-110.29815,44.53058],[-110.29015,44.54274],[-110.30887,44.55434],[-110.32848,44.55434],[-110.33302,44.54802],[-110.36014,44.55355],[-110.38474,44.56522],[-110.37466,44.56847],[-110.37533,44.58302],[-110.6679,44.58279],[-110.66787,44.66629],[-110.75076,44.66681],[-111.05361,44.66627]]]},"properties":{"STATEFP":"56","COUNTYFP":"039","COUNTYNS":"01605083","GEOIDFQ":"0500000US56039","GEOID":"56039","NAME":"Teton","NAMELSAD":"Teton County","STUSPS":"WY","STATE_NAME":"Wyoming","LSAD":"06","ALAND":10351781979,"AWATER":570867193}},
{"type":"Feature","geometry":{"type":"Polygon","coordinates":[[[-110.05157,43.46478],[-109.75472,43.4632],[-109.75446,43.36591],[-109.7329,43.36604],[-109.726,43.36993],[-109.70804,43.37422],[-109.7047,43.36869],[-109.69494,43.36615],[-109.69534,43.34818],[-109.70063,43.34283],[-109.69867,43.3306],[-109.68529,43.31831],[-109.67237,43.31002],[-109.67359,43.29668],[-109.68551,43.28192],[-109.67887,43.27493],[-109.69272,43.26503],[-109.68256,43.25891],[-109.6768,43.24857],[-109.67765,43.23587],[-109.67009,43.2287],[-109.67578,43.22406],[-109.676,43.21511],[-109.66554,43.20441],[-109.66001,43.20294],[-109.65466,43.18424],[-109.65566,43.17606],[-109.651,43.16686],[-109.64368,43.16213],[-109.63147,43.16324],[-109.63095,43.14923],[-109.62063,43.1256],[-109.61201,43.12495],[-109.60395,43.11898],[-109.59155,43.11538],[-109.57008,43.09198],[-109.5616,43.07778],[-109.55183,43.0679],[-109.55983,43.04776],[-109.56031,43.03951],[-109.55431,43.03195],[-109.55541,43.02167],[-109.55258,43.01254],[-109.54315,43.01037],[-109.52902,43.01386],[-109.51389,43.00717],[-109.50241,43.01051],[-109.49206,42.99535],[-109.47914,42.99482],[-109.46018,42.98806],[-109.4632,42.9813],[-109.45423,42.97027],[-109.43236,42.96815],[-109.42876,42.96066],[-109.41121,42.95546],[-109.40479,42.95061],[-109.39947,42.94006],[-109.38616,42.93886],[-109.37066,42.94573],[-109.36161,42.93614],[-109.35641,42.92475],[-109.34678,42.92016],[-109.33853,42.89751],[-109.33191,42.89542],[-109.32919,42.87704],[-109.32355,42.86387],[-109.31536,42.85613],[-109.29193,42.84603],[-109.28286,42.84718],[-109.26879,42.82448],[-109.24797,42.80616],[-109.23432,42.80548],[-109.21414,42.79983],[-109.21034,42.79314],[-109.22672,42.788],[-109.23736,42.77674],[-109.2361,42.76846],[-109.21745,42.76005],[-109.2098,42.77042],[-109.19526,42.76854],[-109.18461,42.76033],[-109.17947,42.75105],[-109.16021,42.74378],[-109.14912,42.74324],[-109.13403,42.7357],[-109.14791,42.72756],[-109.13435,42.71782],[-109.13225,42.71023],[-109.1377,42.70512],[-109.13447,42.69429],[-109.07285,42.69351],[-109.0709,42.52624],[-109.07006,42.49995],[-109.06948,42.43348],[-109.0438,42.43364],[-109.04346,42.26808],[-109.04386,42.26368],[-108.95018,42.2636],[-108.69858,42.26314],[-108.53435,42.26307],[-108.33802,42.26354],[-108.12503,42.26252],[-107.63515,42.2614],[-107.52272,42.26176],[-107.52292,42.43436],[-107.54202,42.43436],[-107.54353,42.78136],[-107.50142,42.78146],[-107.50206,42.87443],[-107.50233,43.12806],[-107.51673,43.12796],[-107.51693,43.21316],[-107.51573,43.21306],[-107.51703,43.47266],[-107.53503,43.47276],[-107.5349,43.50136],[-107.5951,43.5014],[-107.59514,43.47228],[-108.15628,43.47063],[-108.15638,43.45961],[-108.33786,43.45977],[-108.33777,43.47406],[-108.45697,43.47428],[-108.45696,43.50316],[-108.57617,43.50326],[-108.57617,43.53256],[-108.69507,43.53226],[-108.69467,43.57576],[-108.81428,43.57556],[-108.81428,43.60526],[-108.93383,43.60472],[-108.93414,43.61916],[-109.17164,43.61976],[-109.17145,43.6992],[-109.19421,43.7102],[-109.20677,43.7236],[-109.20817,43.73064],[-109.2349,43.76389],[-109.24799,43.77073],[-109.26213,43.77415],[-109.26854,43.78114],[-109.2742,43.79402],[-109.2841,43.80279],[-109.2961,43.80141],[-109.31006,43.80603],[-109.31295,43.81329],[-109.32161,43.83403],[-109.336,43.8421],[-109.34932,43.83991],[-109.36676,43.84301],[-109.37527,43.86641],[-109.37402,43.87745],[-109.38017,43.8828],[-109.39846,43.88434],[-109.41342,43.90925],[-109.42686,43.91004],[-109.4339,43.91404],[-109.44236,43.93043],[-109.45473,43.92766],[-109.47239,43.93218],[-109.47273,43.94513],[-109.48738,43.94881],[-109.50318,43.93882],[-109.51227,43.93913],[-109.53196,43.94946],[-109.54233,43.96135],[-109.55265,43.96057],[-109.56694,43.95482],[-109.57817,43.94067],[-109.58778,43.93835],[-109.60083,43.94893],[-109.61371,43.92748],[-109.62572,43.92728],[-109.64181,43.92279],[-109.65436,43.90712],[-109.65606,43.89597],[-109.65302,43.88677],[-109.65621,43.8813],[-109.66797,43.87445],[-109.67248,43.8681],[-109.66575,43.85713],[-109.66589,43.84573],[-109.68905,43.8397],[-109.70264,43.84103],[-109.70632,43.83666],[-109.72012,43.83745],[-109.73176,43.83318],[-109.75716,43.81732],[-109.76393,43.8206],[-109.77128,43.81319],[-109.7899,43.80325],[-109.81376,43.81389],[-109.82591,43.81617],[-109.82677,43.82387],[-109.8403,43.81957],[-109.85648,43.82837],[-109.85331,43.83664],[-109.85517,43.84826],[-109.8477,43.8532],[-109.82574,43.85533],[-109.81686,43.86321],[-109.82866,43.86667],[-109.82876,43.87521],[-109.81657,43.88053],[-109.84779,43.90023],[-109.84955,43.92106],[-109.87249,43.92795],[-109.87395,43.9336],[-109.85812,43.94268],[-109.85493,43.95026],[-109.85875,43.95799],[-109.8819,43.94908],[-109.8935,43.94705],[-109.92206,43.94609],[-109.95886,43.96457],[-109.97197,43.95563],[-109.99387,43.94956],[-110.00204,43.95545],[-110.00194,43.96695],[-110.01724,43.96685],[-110.01884,43.97935],[-110.03254,43.99615],[-110.03349,44.00249],[-110.05318,44.00802],[-110.05364,43.81455],[-110.05144,43.81445],[-110.05131,43.74119],[-110.05157,43.46478]]]},"properties":{"STATEFP":"56","COUNTYFP":"013","COUNTYNS":"01605072","GEOIDFQ":"0500000US56013","GEOID":"56013","NAME":"Fremont","NAMELSAD":"Fremont County","STUSPS":"WY","STATE_NAME":"Wyoming","LSAD":"06","ALAND":23785405153,"AWATER":212752232}},
{"type":"Feature","geometry":{"type":"Polygon","coordinates":[[[-107.52272,42.26176],[-107.52282,42.1745],[-107.52232,42.08796],[-107.50382,42.08796],[-107.50525,41.83062],[-107.50549,41.74053],[-107.51005,41.74051],[-107.50972,41.65745],[-107.77764,41.65816],[-107.92974,41.6596],[-107.92998,41.49996],[-107.92988,41.39853],[-107.9171,41.3985],[-107.91842,41.00204],[-107.62562,41.00212],[-107.36744,41.00307],[-107.24119,41.0028],[-107.00061,41.00344],[-106.85777,41.00266],[-106.45386,41.00206],[-106.38636,41.00114],[-106.32116,40.99912],[-106.32269,41.33483],[-106.32288,41.39514],[-106.20814,41.39504],[-106.20807,41.39377],[-106.06841,41.39503],[-106.0714,41.53072],[-106.07225,41.66626],[-106.07324,41.81479],[-106.07302,41.89818],[-106.07324,41.97221],[-106.07438,42.15203],[-106.0734,42.43324],[-106.07585,42.43322],[-106.24351,42.43343],[-106.62498,42.43049],[-106.62561,42.43063],[-106.91286,42.4332],[-107.00061,42.43341],[-107.52292,42.43436],[-107.52272,42.26176]]]},"properties":{"STATEFP":"56","COUNTYFP":"007","COUNTYNS":"01605069","GEOIDFQ":"0500000US56007","GEOID":"56007","NAME":"Carbon","NAMELSAD":"Carbon County","STUSPS":"WY","STATE_NAME":"Wyoming","LSAD":"06","ALAND":20455066970,"AWATER":171534271}},
{"type":"Feature","geometry":{"type":"Polygon","coordinates":[[[-107.91152,45.00067],[-107.8988,44.99577],[-107.88166,44.98546],[-107.88358,44.98092],[-107.87679,44.96447],[-107.88236,44.94245],[-107.88186,44.93343],[-107.87212,44.92847],[-107.85344,44.91441],[-107.85158,44.89869],[-107.86067,44.8946],[-107.86077,44.88169],[-107.86502,44.87364],[-107.84443,44.86065],[-107.8406,44.84985],[-107.83178,44.845],[-107.82817,44.83075],[-107.83272,44.82511],[-107.81628,44.81752],[-107.81749,44.81049],[-107.83072,44.80112],[-107.83245,44.79054],[-107.81283,44.78932],[-107.77904,44.77233],[-107.76482,44.77345],[-107.75439,44.77059],[-107.7521,44.75656],[-107.74557,44.75433],[-107.74895,44.74604],[-107.74355,44.74148],[-107.74446,44.72899],[-107.75128,44.72346],[-107.74154,44.71435],[-107.72803,44.71642],[-107.7175,44.71065],[-107.6979,44.70496],[-107.68112,44.70289],[-107.68441,44.69314],[-107.67116,44.68025],[-107.65623,44.68424],[-107.65511,44.68927],[-107.64333,44.69328],[-107.62258,44.69304],[-107.6197,44.69881],[-107.59572,44.69502],[-107.58848,44.68831],[-107.58108,44.68975],[-107.57369,44.68299],[-107.54917,44.67879],[-107.54892,44.66702],[-107.53193,44.66642],[-107.51973,44.66069],[-107.53383,44.65114],[-107.52816,44.63478],[-107.5109,44.6337],[-107.49486,44.64203],[-107.48605,44.62556],[-107.46947,44.61228],[-107.44261,44.60572],[-107.42497,44.61148],[-107.42279,44.60352],[-107.41316,44.59886],[-107.40339,44.59981],[-107.3929,44.59596],[-107.3737,44.57616],[-107.36962,44.55984],[-107.29644,44.5591],[-107.12562,44.55836],[-107.03321,44.55834],[-106.99649,44.55908],[-106.86338,44.55787],[-106.71849,44.55752],[-106.66381,44.55687],[-106.4289,44.55678],[-106.4289,44.56178],[-106.17918,44.56208],[-106.17948,44.56378],[-106.05928,44.56308],[-106.00968,44.56398],[-106.01077,44.69024],[-106.01498,44.70708],[-106.01427,44.85778],[-106.01757,44.86879],[-106.0231,44.86882],[-106.02493,44.97681],[-106.02482,44.99347],[-106.26372,44.99379],[-106.57092,44.99486],[-106.88476,44.99595],[-107.08489,44.9966],[-107.12742,44.99984],[-107.36816,45.00093],[-107.48375,45.00143],[-107.62579,45.00065],[-107.91152,45.00067]]]},"properties":{"STATEFP":"56","COUNTYFP":"033","COUNTYNS":"01605081","GEOIDFQ":"0500000US56033","GEOID":"56033","NAME":"Sheridan","NAMELSAD":"Sheridan County","STUSPS":"WY","STATE_NAME":"Wyoming","LSAD":"06","ALAND":6535475080,"AWATER":7986330}},
{"type":"Feature","geometry":{"type":"Polygon","coordinates":[[[-110.05318,44.00802],[-110.03349,44.00249],[-110.03254,43.99615],[-110.01884,43.97935],[-110.01724,43.96685],[-110.00194,43.96695],[-110.00204,43.95545],[-109.99387,43.94956],[-109.97197,43.95563],[-109.95886,43.96457],[-109.92206,43.94609],[-109.8935,43.94705],[-109.8819,43.94908],[-109.85875,43.95799],[-109.85493,43.95026],[-109.85812,43.94268],[-109.87395,43.9336],[-109.87249,43.92795],[-109.84955,43.92106],[-109.84779,43.90023],[-109.81657,43.88053],[-109.82876,43.87521],[-109.82866,43.86667],[-109.81686,43.86321],[-109.82574,43.85533],[-109.8477,43.8532],[-109.85517,43.84826],[-109.85331,43.83664],[-109.85648,43.82837],[-109.8403,43.81957],[-109.82677,43.82387],[-109.82591,43.81617],[-109.81376,43.81389],[-109.7899,43.80325],[-109.77128,43.81319],[-109.76393,43.8206],[-109.75716,43.81732],[-109.73176,43.83318],[-109.72012,43.83745],[-109.70632,43.83666],[-109.70264,43.84103],[-109.68905,43.8397],[-109.66589,43.84573],[-109.66575,43.85713],[-109.67248,43.8681],[-109.66797,43.87445],[-109.65621,43.8813],[-109.65302,43.88677],[-109.65606,43.89597],[-109.65436,43.90712],[-109.64181,43.92279],[-109.62572,43.92728],[-109.61371,43.92748],[-109.60083,43.94893],[-109.58778,43.93835],[-109.57817,43.94067],[-109.56694,43.95482],[-109.55265,43.96057],[-109.54233,43.96135],[-109.53196,43.94946],[-109.51227,43.93913],[-109.50318,43.93882],[-109.48738,43.94881],[-109.47273,43.94513],[-109.47239,43.93218],[-109.45473,43.92766],[-109.44236,43.93043],[-109.4339,43.91404],[-109.42686,43.91004],[-109.41342,43.90925],[-109.39846,43.88434],[-109.38017,43.8828],[-109.37402,43.87745],[-109.37527,43.86641],[-109.36676,43.84301],[-109.34932,43.83991],[-109.336,43.8421],[-109.32161,43.83403],[-109.31295,43.81329],[-109.27259,43.81355],[-109.27255,43.81612],[-109.13317,43.816],[-109.0936,43.81762],[-109.09239,43.83806],[-109.09288,43.90447],[-109.00661,43.9051],[-108.91278,43.90475],[-108.91598,43.99085],[-108.79178,43.99105],[-108.79228,44.07962],[-108.55076,44.0794],[-108.55056,44.16846],[-108.5738,44.16847],[-108.57367,44.34305],[-108.57342,44.52081],[-108.59249,44.52093],[-108.59225,44.65875],[-108.5923,44.87144],[-108.62046,44.87148],[-108.62063,44.92117],[-108.62157,44.9442],[-108.62131,45.00025],[-108.96504,44.9997],[-109.08285,44.99955],[-109.10323,45.00582],[-109.30142,45.00532],[-109.59806,45.00289],[-109.76111,45.0018],[-109.82566,45.00322],[-109.97152,45.00335],[-110.10578,45.00353],[-110.18322,44.99695],[-110.28477,44.99736],[-110.3252,44.99968],[-110.40712,44.9995],[-110.44574,44.99368],[-110.48808,44.99287],[-110.70448,44.99217],[-110.79012,45.00088],[-110.9901,45.00079],[-111.05456,45.00096],[-111.0544,44.86039],[-111.05361,44.66627],[-110.75076,44.66681],[-110.66787,44.66629],[-110.6679,44.58279],[-110.37533,44.58302],[-110.37466,44.56847],[-110.38474,44.56522],[-110.36014,44.55355],[-110.33302,44.54802],[-110.32848,44.55434],[-110.30887,44.55434],[-110.29015,44.54274],[-110.29815,44.53058],[-110.2834,44.5244],[-110.27652,44.51665],[-110.27986,44.50557],[-110.278,44.49849],[-110.28432,44.48985],[-110.28189,44.47883],[-110.29099,44.47045],[-110.28881,44.45152],[-110.29617,44.43557],[-110.29422,44.42824],[-110.27812,44.414],[-110.26004,44.40945],[-110.25486,44.40472],[-110.25391,44.39033],[-110.2431,44.38736],[-110.22841,44.37384],[-110.22592,44.3421],[-110.2181,44.33185],[-110.20251,44.32776],[-110.20284,44.32004],[-110.20876,44.31499],[-110.20196,44.30538],[-110.19019,44.3005],[-110.17443,44.30453],[-110.15028,44.29002],[-110.14214,44.2728],[-110.14521,44.26481],[-110.14338,44.25399],[-110.13327,44.24025],[-110.13115,44.22982],[-110.12213,44.21185],[-110.11561,44.1904],[-110.11668,44.16935],[-110.12639,44.15703],[-110.12363,44.14055],[-110.1196,44.13258],[-110.05336,44.13263],[-110.05318,44.00802]]]},"properties":{"STATEFP":"56","COUNTYFP":"029","COUNTYNS":"01605079","GEOIDFQ":"0500000US56029","GEOID":"56029","NAME":"Park","NAMELSAD":"Park County","STUSPS":"WY","STATE_NAME":"Wyoming","LSAD":"06","ALAND":17972027723,"AWATER":67638744}},
{"type":"Feature","geometry":{"type":"Polygon","coordinates":[[[-106.00968,44.56398],[-106.00848,44.52108],[-106.01448,44.52098],[-106.01671,44.30446],[-106.0165,44.16973],[-106.01138,44.16974],[-106.01138,44.1372],[-106.00993,44.03046],[-106.0092,43.82158],[-106.0176,43.82149],[-106.01886,43.62497],[-106.018,43.61958],[-106.01737,43.49497],[-105.9232,43.49501],[-105.68501,43.49582],[-105.44686,43.4967],[-105.3727,43.49731],[-105.12553,43.49787],[-105.0798,43.49845],[-105.08056,43.5024],[-105.08069,43.73995],[-105.07878,43.82702],[-105.08141,43.82693],[-105.08078,43.96622],[-105.07928,44.17618],[-105.08218,44.17618],[-105.08447,44.21663],[-105.08393,44.42704],[-105.0827,44.52761],[-105.08565,44.54187],[-105.08557,44.68549],[-105.08545,44.7868],[-105.07686,44.78619],[-105.07479,44.87107],[-105.0767,44.87107],[-105.0766,45.00011],[-105.16917,45.00012],[-105.3713,45.00024],[-105.62823,45.00041],[-105.91315,45.00024],[-105.92817,44.99349],[-106.02482,44.99347],[-106.02493,44.97681],[-106.0231,44.86882],[-106.01757,44.86879],[-106.01427,44.85778],[-106.01498,44.70708],[-106.01077,44.69024],[-106.00968,44.56398]]]},"properties":{"STATEFP":"56","COUNTYFP":"005","COUNTYNS":"01605068","GEOIDFQ":"0500000US56005","GEOID":"56005","NAME":"Campbell","NAMELSAD":"Campbell County","STUSPS":"WY","STATE_NAME":"Wyoming","LSAD":"06","ALAND":12437291871,"AWATER":11010428}},
{"type":"Feature","geometry":{"type":"Polygon","coordinates":[[[-110.57866,43.23522],[-110.57858,43.12631],[-110.58788,43.12493],[-110.58808,43.04029],[-110.58901,43.04019],[-110.58843,42.92391],[-110.58766,42.77919],[-110.62343,42.77921],[-110.62348,42.71018],[-110.59007,42.71009],[-110.58948,42.49988],[-110.59013,42.44849],[-110.54333,42.44854],[-110.54163,42.27749],[-110.42482,42.27994],[-110.42492,42.27614],[-110.29167,42.2758],[-110.20652,42.27654],[-110.20692,42.27064],[-110.05371,42.27074],[-109.99647,42.26973],[-109.75043,42.26573],[-109.74282,42.26583],[-109.50069,42.26356],[-109.37568,42.26386],[-109.30564,42.26362],[-109.12568,42.26359],[-109.04386,42.26368],[-109.04346,42.26808],[-109.0438,42.43364],[-109.06948,42.43348],[-109.07006,42.49995],[-109.0709,42.52624],[-109.07285,42.69351],[-109.13447,42.69429],[-109.1377,42.70512],[-109.13225,42.71023],[-109.13435,42.71782],[-109.14791,42.72756],[-109.13403,42.7357],[-109.14912,42.74324],[-109.16021,42.74378],[-109.17947,42.75105],[-109.18461,42.76033],[-109.19526,42.76854],[-109.2098,42.77042],[-109.21745,42.76005],[-109.2361,42.76846],[-109.23736,42.77674],[-109.22672,42.788],[-109.21034,42.79314],[-109.21414,42.79983],[-109.23432,42.80548],[-109.24797,42.80616],[-109.26879,42.82448],[-109.28286,42.84718],[-109.29193,42.84603],[-109.31536,42.85613],[-109.32355,42.86387],[-109.32919,42.87704],[-109.33191,42.89542],[-109.33853,42.89751],[-109.34678,42.92016],[-109.35641,42.92475],[-109.36161,42.93614],[-109.37066,42.94573],[-109.38616,42.93886],[-109.39947,42.94006],[-109.40479,42.95061],[-109.41121,42.95546],[-109.42876,42.96066],[-109.43236,42.96815],[-109.45423,42.97027],[-109.4632,42.9813],[-109.46018,42.98806],[-109.47914,42.99482],[-109.49206,42.99535],[-109.50241,43.01051],[-109.51389,43.00717],[-109.52902,43.01386],[-109.54315,43.01037],[-109.55258,43.01254],[-109.55541,43.02167],[-109.55431,43.03195],[-109.56031,43.03951],[-109.55983,43.04776],[-109.55183,43.0679],[-109.5616,43.07778],[-109.57008,43.09198],[-109.59155,43.11538],[-109.60395,43.11898],[-109.61201,43.12495],[-109.62063,43.1256],[-109.63095,43.14923],[-109.63147,43.16324],[-109.64368,43.16213],[-109.651,43.16686],[-109.65566,43.17606],[-109.65466,43.18424],[-109.66001,43.20294],[-109.66554,43.20441],[-109.676,43.21511],[-109.67578,43.22406],[-109.67009,43.2287],[-109.67765,43.23587],[-109.6768,43.24857],[-109.68256,43.25891],[-109.69272,43.26503],[-109.67887,43.27493],[-109.68551,43.28192],[-109.67359,43.29668],[-109.67237,43.31002],[-109.68529,43.31831],[-109.69867,43.3306],[-109.70063,43.34283],[-109.69534,43.34818],[-109.69494,43.36615],[-109.7047,43.36869],[-109.70804,43.37422],[-109.726,43.36993],[-109.7329,43.36604],[-109.75446,43.36591],[-109.75472,43.4632],[-110.05157,43.46478],[-110.05751,43.46476],[-110.05731,43.37777],[-110.34422,43.37792],[-110.34396,43.29117],[-110.57838,43.29164],[-110.57866,43.23522]]]},"properties":{"STATEFP":"56","COUNTYFP":"035","COUNTYNS":"01605082","GEOIDFQ":"0500000US56035","GEOID":"56035","NAME":"Sublette","NAMELSAD":"Sublette County","STUSPS":"WY","STATE_NAME":"Wyoming","LSAD":"06","ALAND":12655929029,"AWATER":127353627}},
{"type":"Feature","geometry":{"type":"Polygon","coordinates":[[[-107.91152,45.00067],[-108.0051,45.00055],[-108.2714,45.00023],[-108.51499,44.99968],[-108.5344,45.00037],[-108.62131,45.00025],[-108.62157,44.9442],[-108.62063,44.92117],[-108.62046,44.87148],[-108.5923,44.87144],[-108.59225,44.65875],[-108.59249,44.52093],[-108.57342,44.52081],[-108.57367,44.34305],[-108.5738,44.16847],[-108.55056,44.16846],[-108.50554,44.1684],[-108.12445,44.16817],[-107.9232,44.16784],[-107.72202,44.16788],[-107.71285,44.16645],[-107.68405,44.1664],[-107.37563,44.16788],[-107.33721,44.16779],[-107.14681,44.16567],[-107.145,44.324],[-107.15959,44.32514],[-107.16045,44.33447],[-107.17261,44.33516],[-107.17971,44.34607],[-107.18853,44.34737],[-107.18489,44.3588],[-107.17312,44.36045],[-107.16346,44.36806],[-107.16546,44.37387],[-107.17641,44.37655],[-107.16921,44.39351],[-107.17893,44.40328],[-107.18847,44.39867],[-107.19946,44.3993],[-107.20434,44.42898],[-107.20015,44.44196],[-107.20204,44.44631],[-107.21517,44.4467],[-107.24195,44.43846],[-107.25505,44.44161],[-107.25831,44.44603],[-107.27873,44.45082],[-107.27862,44.4592],[-107.30058,44.45908],[-107.30429,44.46378],[-107.29966,44.47627],[-107.29854,44.49621],[-107.29416,44.50071],[-107.31094,44.50884],[-107.31529,44.51578],[-107.32713,44.52368],[-107.32431,44.53323],[-107.33484,44.54052],[-107.35378,44.54219],[-107.36962,44.55984],[-107.3737,44.57616],[-107.3929,44.59596],[-107.40339,44.59981],[-107.41316,44.59886],[-107.42279,44.60352],[-107.42497,44.61148],[-107.44261,44.60572],[-107.46947,44.61228],[-107.48605,44.62556],[-107.49486,44.64203],[-107.5109,44.6337],[-107.52816,44.63478],[-107.53383,44.65114],[-107.51973,44.66069],[-107.53193,44.66642],[-107.54892,44.66702],[-107.54917,44.67879],[-107.57369,44.68299],[-107.58108,44.68975],[-107.58848,44.68831],[-107.59572,44.69502],[-107.6197,44.69881],[-107.62258,44.69304],[-107.64333,44.69328],[-107.65511,44.68927],[-107.65623,44.68424],[-107.67116,44.68025],[-107.68441,44.69314],[-107.68112,44.70289],[-107.6979,44.70496],[-107.7175,44.71065],[-107.72803,44.71642],[-107.74154,44.71435],[-107.75128,44.72346],[-107.74446,44.72899],[-107.74355,44.74148],[-107.74895,44.74604],[-107.74557,44.75433],[-107.7521,44.75656],[-107.75439,44.77059],[-107.76482,44.77345],[-107.77904,44.77233],[-107.81283,44.78932],[-107.83245,44.79054],[-107.83072,44.80112],[-107.81749,44.81049],[-107.81628,44.81752],[-107.83272,44.82511],[-107.82817,44.83075],[-107.83178,44.845],[-107.8406,44.84985],[-107.84443,44.86065],[-107.86502,44.87364],[-107.86077,44.88169],[-107.86067,44.8946],[-107.85158,44.89869],[-107.85344,44.91441],[-107.87212,44.92847],[-107.88186,44.93343],[-107.88236,44.94245],[-107.87679,44.96447],[-107.88358,44.98092],[-107.88166,44.98546],[-107.8988,44.99577],[-107.91152,45.00067]]]},"properties":{"STATEFP":"56","COUNTYFP":"003","COUNTYNS":"01605067","GEOIDFQ":"0500000US56003","GEOID":"56003","NAME":"Big Horn","NAMELSAD":"Big Horn County","STUSPS":"WY","STATE_NAME":"Wyoming","LSAD":"06","ALAND":8124681754,"AWATER":55228617}},
{"type":"Feature","geometry":{"type":"Polygon","coordinates":[[[-104.89244,42.60894],[-104.9617,42.6084],[-104.97314,42.60887],[-105.07487,42.60816],[-105.09628,42.60851],[-105.15601,42.60676],[-105.17438,42.60714],[-105.24752,42.60584],[-105.28651,42.60583],[-105.28226,42.43133],[-105.28391,42.4314],[-105.28376,42.38057],[-105.28192,42.36061],[-105.28133,42.22176],[-105.28114,42.08889],[-105.27375,42.08882],[-105.27334,42.00716],[-105.27175,41.9861],[-105.2716,41.87497],[-105.27181,41.74203],[-105.27897,41.742],[-105.27824,41.65666],[-105.11422,41.65652],[-104.84332,41.65348],[-104.79026,41.65308],[-104.65334,41.65301],[-104.65332,41.81312],[-104.65372,41.85696],[-104.65377,41.99997],[-104.65331,42.01657],[-104.65394,42.12315],[-104.655,42.21717],[-104.65449,42.25559],[-104.65526,42.37476],[-104.65518,42.5223],[-104.65564,42.60947],[-104.77605,42.60993],[-104.87294,42.60989],[-104.89244,42.60894]]]},"properties":{"STATEFP":"56","COUNTYFP":"031","COUNTYNS":"01605080","GEOIDFQ":"0500000US56031","GEOID":"56031","NAME":"Platte","NAMELSAD":"Platte County","STUSPS":"WY","STATE_NAME":"Wyoming","LSAD":"06","ALAND":5390953605,"AWATER":76102036}},
{"type":"Feature","geometry":{"type":"Polygon","coordinates":[[[-107.5349,43.50136],[-107.42564,43.50164],[-107.23063,43.50149],[-107.22677,43.50046],[-107.11073,43.50029],[-107.1108,43.55557],[-107.11364,43.55578],[-107.11338,43.72481],[-107.11365,43.81609],[-107.12762,43.81596],[-107.12839,43.90248],[-107.12858,44.16569],[-107.14681,44.16567],[-107.33721,44.16779],[-107.37563,44.16788],[-107.68405,44.1664],[-107.71285,44.16645],[-107.72202,44.16788],[-107.9232,44.16784],[-108.12445,44.16817],[-108.50554,44.1684],[-108.55056,44.16846],[-108.55076,44.0794],[-108.49025,44.07976],[-108.48943,43.99187],[-108.42706,43.99205],[-108.42956,43.90336],[-108.30936,43.90326],[-108.30969,43.84662],[-108.25066,43.84676],[-108.18537,43.84824],[-108.19382,43.83414],[-108.19972,43.831],[-108.17494,43.81897],[-108.00267,43.81851],[-107.95645,43.81867],[-107.95658,43.73345],[-107.71588,43.73334],[-107.71622,43.64577],[-107.59516,43.64643],[-107.5951,43.5014],[-107.5349,43.50136]]]},"properties":{"STATEFP":"56","COUNTYFP":"043","COUNTYNS":"01605085","GEOIDFQ":"0500000US56043","GEOID":"56043","NAME":"Washakie","NAMELSAD":"Washakie County","STUSPS":"WY","STATE_NAME":"Wyoming","LSAD":"06","ALAND":5798152465,"AWATER":10415890}},
{"type":"Feature","geometry":{"type":"Polygon","coordinates":[[[-107.36962,44.55984],[-107.35378,44.54219],[-107.33484,44.54052],[-107.32431,44.53323],[-107.32713,44.52368],[-107.31529,44.51578],[-107.31094,44.50884],[-107.29416,44.50071],[-107.29854,44.49621],[-107.29966,44.47627],[-107.30429,44.46378],[-107.30058,44.45908],[-107.27862,44.4592],[-107.27873,44.45082],[-107.25831,44.44603],[-107.25505,44.44161],[-107.24195,44.43846],[-107.21517,44.4467],[-107.20204,44.44631],[-107.20015,44.44196],[-107.20434,44.42898],[-107.19946,44.3993],[-107.18847,44.39867],[-107.17893,44.40328],[-107.16921,44.39351],[-107.17641,44.37655],[-107.16546,44.37387],[-107.16346,44.36806],[-107.17312,44.36045],[-107.18489,44.3588],[-107.18853,44.34737],[-107.17971,44.34607],[-107.17261,44.33516],[-107.16045,44.33447],[-107.15959,44.32514],[-107.145,44.324],[-107.14681,44.16567],[-107.12858,44.16569],[-107.12839,43.90248],[-107.12762,43.81596],[-107.11365,43.81609],[-107.11338,43.72481],[-107.11364,43.55578],[-107.1108,43.55557],[-107.11073,43.50029],[-107.11092,43.49236],[-106.69436,43.49196],[-106.51663,43.49179],[-106.4468,43.49272],[-106.07807,43.49447],[-106.01737,43.49497],[-106.018,43.61958],[-106.01886,43.62497],[-106.0176,43.82149],[-106.0092,43.82158],[-106.00993,44.03046],[-106.01138,44.1372],[-106.01138,44.16974],[-106.0165,44.16973],[-106.01671,44.30446],[-106.01448,44.52098],[-106.00848,44.52108],[-106.00968,44.56398],[-106.05928,44.56308],[-106.17948,44.56378],[-106.17918,44.56208],[-106.4289,44.56178],[-106.4289,44.55678],[-106.66381,44.55687],[-106.71849,44.55752],[-106.86338,44.55787],[-106.99649,44.55908],[-107.03321,44.55834],[-107.12562,44.55836],[-107.29644,44.5591],[-107.36962,44.55984]]]},"properties":{"STATEFP":"56","COUNTYFP":"019","COUNTYNS":"01609191","GEOIDFQ":"0500000US56019","GEOID":"56019","NAME":"Johnson","NAMELSAD":"Johnson County","STUSPS":"WY","STATE_NAME":"Wyoming","LSAD":"06","ALAND":10759204100,"AWATER":52952166}},
{"type":"Feature","geometry":{"type":"Polygon","coordinates":[[[-109.04386,42.26368],[-109.12568,42.26359],[-109.30564,42.26362],[-109.37568,42.26386],[-109.50069,42.26356],[-109.74282,42.26583],[-109.75043,42.26573],[-109.99647,42.26973],[-110.05371,42.27074],[-110.05441,42.00705],[-110.04641,42.00695],[-110.04643,41.98075],[-110.048,41.57802],[-110.04889,41.4649],[-110.04899,41.22915],[-110.04848,40.99755],[-109.97553,40.99791],[-109.8553,40.99761],[-109.67642,40.9984],[-109.53493,40.99814],[-109.50069,40.99913],[-109.25073,41.00101],[-109.23198,41.00206],[-109.17368,41.00086],[-108.88414,41.00009],[-108.63111,41.00016],[-108.52667,40.99961],[-108.50066,41.00011],[-108.25065,41.00011],[-108.18123,41.00046],[-108.04654,41.00206],[-107.91842,41.00204],[-107.9171,41.3985],[-107.92988,41.39853],[-107.92998,41.49996],[-107.92974,41.6596],[-107.77764,41.65816],[-107.50972,41.65745],[-107.51005,41.74051],[-107.50549,41.74053],[-107.50525,41.83062],[-107.50382,42.08796],[-107.52232,42.08796],[-107.52282,42.1745],[-107.52272,42.26176],[-107.63515,42.2614],[-108.12503,42.26252],[-108.33802,42.26354],[-108.53435,42.26307],[-108.69858,42.26314],[-108.95018,42.2636],[-109.04386,42.26368]]]},"properties":{"STATEFP":"56","COUNTYFP":"037","COUNTYNS":"01609192","GEOIDFQ":"0500000US56037","GEOID":"56037","NAME":"Sweetwater","NAMELSAD":"Sweetwater County","STUSPS":"WY","STATE_NAME":"Wyoming","LSAD":"06","ALAND":27005754375,"AWATER":166230249}},
{"type":"Feature","geometry":{"type":"Polygon","coordinates":[[[-104.65334,41.65301],[-104.65299,41.56501],[-104.50051,41.56438],[-104.28325,41.56445],[-104.18009,41.56427],[-104.05254,41.56427],[-104.05297,41.62293],[-104.05277,41.7334],[-104.05303,41.88546],[-104.0527,41.99867],[-104.05295,42.08908],[-104.0526,42.12496],[-104.05312,42.24996],[-104.05278,42.26091],[-104.05311,42.49996],[-104.05277,42.61177],[-104.25358,42.61193],[-104.36011,42.61124],[-104.441,42.60967],[-104.61185,42.60879],[-104.65564,42.60947],[-104.65518,42.5223],[-104.65526,42.37476],[-104.65449,42.25559],[-104.655,42.21717],[-104.65394,42.12315],[-104.65331,42.01657],[-104.65377,41.99997],[-104.65372,41.85696],[-104.65332,41.81312],[-104.65334,41.65301]]]},"properties":{"STATEFP":"56","COUNTYFP":"015","COUNTYNS":"01605073","GEOIDFQ":"0500000US56015","GEOID":"56015","NAME":"Goshen","NAMELSAD":"Goshen County","STUSPS":"WY","STATE_NAME":"Wyoming","LSAD":"06","ALAND":5764310961,"AWATER":16969725}},
{"type":"Feature","geometry":{"type":"Polygon","coordinates":[[[-105.0798,43.49845],[-105.00014,43.49929],[-104.89994,43.49964],[-104.75052,43.50113],[-104.74858,43.50142],[-104.42044,43.50218],[-104.25025,43.50262],[-104.05955,43.50306],[-104.05486,43.50332],[-104.05501,43.67324],[-104.05546,43.84588],[-104.05466,44.03117],[-104.05484,44.18038],[-104.36821,44.18091],[-104.37548,44.18162],[-104.46113,44.18075],[-105.00051,44.1769],[-105.07928,44.17618],[-105.08078,43.96622],[-105.08141,43.82693],[-105.07878,43.82702],[-105.08069,43.73995],[-105.08056,43.5024],[-105.0798,43.49845]]]},"properties":{"STATEFP":"56","COUNTYFP":"045","COUNTYNS":"01605086","GEOIDFQ":"0500000US56045","GEOID":"56045","NAME":"Weston","NAMELSAD":"Weston County","STUSPS":"WY","STATE_NAME":"Wyoming","LSAD":"06","ALAND":6210804120,"AWATER":5225499}},
{"type":"Feature","geometry":{"type":"Polygon","coordinates":[[[-106.0734,42.43324],[-105.95642,42.43287],[-105.94699,42.43218],[-105.87389,42.43177],[-105.76722,42.43161],[-105.69847,42.43106],[-105.59362,42.4311],[-105.55604,42.43058],[-105.55618,42.40625],[-105.57555,42.40623],[-105.57564,42.37731],[-105.61466,42.37744],[-105.61386,42.30446],[-105.59943,42.30481],[-105.59942,42.29754],[-105.5638,42.29729],[-105.53588,42.29455],[-105.5264,42.28886],[-105.51737,42.28969],[-105.37554,42.29014],[-105.37868,42.31902],[-105.35859,42.31927],[-105.36083,42.33353],[-105.36174,42.37632],[-105.35223,42.37639],[-105.352,42.40462],[-105.34206,42.40493],[-105.3421,42.41907],[-105.33249,42.4191],[-105.33264,42.43111],[-105.28391,42.4314],[-105.28226,42.43133],[-105.28651,42.60583],[-105.24752,42.60584],[-105.17438,42.60714],[-105.15601,42.60676],[-105.09628,42.60851],[-105.07487,42.60816],[-104.97314,42.60887],[-104.9617,42.6084],[-104.89244,42.60894],[-104.89233,42.69014],[-104.89316,42.72385],[-104.89348,42.78282],[-104.89848,42.78303],[-104.89933,42.82313],[-104.89792,42.89839],[-104.8986,43.11776],[-104.8972,43.13169],[-104.89821,43.24997],[-104.89796,43.36859],[-104.89867,43.37497],[-104.89994,43.49964],[-105.00014,43.49929],[-105.0798,43.49845],[-105.12553,43.49787],[-105.3727,43.49731],[-105.44686,43.4967],[-105.68501,43.49582],[-105.9232,43.49501],[-106.01737,43.49497],[-106.07807,43.49447],[-106.07824,43.4725],[-106.07387,43.47257],[-106.07377,43.12667],[-106.07567,43.12687],[-106.0729,42.86983],[-106.07267,42.77817],[-106.07707,42.77797],[-106.07567,42.71846],[-106.07584,42.682],[-106.07526,42.47627],[-106.07585,42.43322],[-106.0734,42.43324]]]},"properties":{"STATEFP":"56","COUNTYFP":"009","COUNTYNS":"01605070","GEOIDFQ":"0500000US56009","GEOID":"56009","NAME":"Converse","NAMELSAD":"Converse County","STUSPS":"WY","STATE_NAME":"Wyoming","LSAD":"06","ALAND":11020383702,"AWATER":26070602}},
{"type":"Feature","geometry":{"type":"Polygon","coordinates":[[[-104.65564,42.60947],[-104.61185,42.60879],[-104.441,42.60967],[-104.36011,42.61124],[-104.25358,42.61193],[-104.05277,42.61177],[-104.05286,42.75457],[-104.05303,43.00059],[-104.05332,43.11392],[-104.05395,43.23881],[-104.05464,43.39714],[-104.05486,43.50332],[-104.05955,43.50306],[-104.25025,43.50262],[-104.42044,43.50218],[-104.74858,43.50142],[-104.75052,43.50113],[-104.89994,43.49964],[-104.89867,43.37497],[-104.89796,43.36859],[-104.89821,43.24997],[-104.8972,43.13169],[-104.8986,43.11776],[-104.89792,42.89839],[-104.89933,42.82313],[-104.89848,42.78303],[-104.89348,42.78282],[-104.89316,42.72385],[-104.89233,42.69014],[-104.89244,42.60894],[-104.87294,42.60989],[-104.77605,42.60993],[-104.65564,42.60947]]]},"properties":{"STATEFP":"56","COUNTYFP":"027","COUNTYNS":"01605078","GEOIDFQ":"0500000US56027","GEOID":"56027","NAME":"Niobrara","NAMELSAD":"Niobrara County","STUSPS":"WY","STATE_NAME":"Wyoming","LSAD":"06","ALAND":6801380678,"AWATER":4969450}},
{"type":"Feature","geometry":{"type":"Polygon","coordinates":[[[-111.04462,43.31572],[-111.04424,43.20042],[-111.04392,42.97506],[-111.04413,42.87492],[-111.04356,42.72262],[-111.04602,42.58272],[-111.0468,42.50495],[-111.04708,42.34942],[-111.04711,42.1425],[-111.04671,42.0017],[-111.04624,41.77964],[-111.04582,41.57984],[-110.5849,41.57916],[-110.34204,41.57894],[-110.27812,41.57843],[-110.06279,41.57752],[-110.048,41.57802],[-110.04643,41.98075],[-110.04641,42.00695],[-110.05441,42.00705],[-110.05371,42.27074],[-110.20692,42.27064],[-110.20652,42.27654],[-110.29167,42.2758],[-110.42492,42.27614],[-110.42482,42.27994],[-110.54163,42.27749],[-110.54333,42.44854],[-110.59013,42.44849],[-110.58948,42.49988],[-110.59007,42.71009],[-110.62348,42.71018],[-110.62343,42.77921],[-110.58766,42.77919],[-110.58843,42.92391],[-110.58901,43.04019],[-110.58808,43.04029],[-110.58788,43.12493],[-110.57858,43.12631],[-110.57866,43.23522],[-110.81399,43.23518],[-110.814,43.31394],[-110.92788,43.3135],[-110.9279,43.31596],[-111.04462,43.31572]]]},"properties":{"STATEFP":"56","COUNTYFP":"023","COUNTYNS":"01605076","GEOIDFQ":"0500000US56023","GEOID":"56023","NAME":"Lincoln","NAMELSAD":"Lincoln County","STUSPS":"WY","STATE_NAME":"Wyoming","LSAD":"06","ALAND":10555073817,"AWATER":49947329}},
{"type":"Feature","geometry":{"type":"Polygon","coordinates":[[[-105.27824,41.65666],[-105.27745,41.3989],[-105.2802,41.39538],[-105.28064,41.331],[-105.27986,41.19072],[-105.27887,41.1164],[-105.27874,41.04558],[-105.27684,41.04568],[-105.27686,40.99817],[-104.94337,40.99808],[-104.85527,40.99805],[-104.8295,40.99927],[-104.676,41.00096],[-104.49715,41.00183],[-104.46767,41.00147],[-104.21469,41.00166],[-104.05325,41.00141],[-104.05314,41.11446],[-104.05351,41.15726],[-104.05267,41.27525],[-104.05234,41.41787],[-104.05254,41.56427],[-104.18009,41.56427],[-104.28325,41.56445],[-104.50051,41.56438],[-104.65299,41.56501],[-104.65334,41.65301],[-104.79026,41.65308],[-104.84332,41.65348],[-105.11422,41.65652],[-105.27824,41.65666]]]},"properties":{"STATEFP":"56","COUNTYFP":"021","COUNTYNS":"01605075","GEOIDFQ":"0500000US56021","GEOID":"56021","NAME":"Laramie","NAMELSAD":"Laramie County","STUSPS":"WY","STATE_NAME":"Wyoming","LSAD":"06","ALAND":6956355028,"AWATER":4348083}},
{"type":"Feature","geometry":{"type":"Polygon","coordinates":[[[-107.52292,42.43436],[-107.00061,42.43341],[-106.91286,42.4332],[-106.62561,42.43063],[-106.62498,42.43049],[-106.24351,42.43343],[-106.07585,42.43322],[-106.07526,42.47627],[-106.07584,42.682],[-106.07567,42.71846],[-106.07707,42.77797],[-106.07267,42.77817],[-106.0729,42.86983],[-106.07567,43.12687],[-106.07377,43.12667],[-106.07387,43.47257],[-106.07824,43.4725],[-106.07807,43.49447],[-106.4468,43.49272],[-106.51663,43.49179],[-106.69436,43.49196],[-107.11092,43.49236],[-107.11073,43.50029],[-107.22677,43.50046],[-107.23063,43.50149],[-107.42564,43.50164],[-107.5349,43.50136],[-107.53503,43.47276],[-107.51703,43.47266],[-107.51573,43.21306],[-107.51693,43.21316],[-107.51673,43.12796],[-107.50233,43.12806],[-107.50206,42.87443],[-107.50142,42.78146],[-107.54353,42.78136],[-107.54202,42.43436],[-107.52292,42.43436]]]},"properties":{"STATEFP":"56","COUNTYFP":"025","COUNTYNS":"01605077","GEOIDFQ":"0500000US56025","GEOID":"56025","NAME":"Natrona","NAMELSAD":"Natrona County","STUSPS":"WY","STATE_NAME":"Wyoming","LSAD":"06","ALAND":13831927739,"AWATER":90969877}},
{"type":"Feature","geometry":{"type":"Polygon","coordinates":[[[-110.048,41.57802],[-110.06279,41.57752],[-110.27812,41.57843],[-110.34204,41.57894],[-110.5849,41.57916],[-111.04582,41.57984],[-111.04626,41.37773],[-111.0466,41.36069],[-111.04662,41.15604],[-111.04672,40.99796],[-110.87206,40.9973],[-110.75073,40.99685],[-110.71503,40.99635],[-110.53982,40.99635],[-110.50072,40.99475],[-110.37571,40.99495],[-110.25071,40.99609],[-110.23785,40.99543],[-110.12571,40.99655],[-110.12164,40.9971],[-110.04848,40.99755],[-110.04899,41.22915],[-110.04889,41.4649],[-110.048,41.57802]]]},"properties":{"STATEFP":"56","COUNTYFP":"041","COUNTYNS":"01605084","GEOIDFQ":"0500000US56041","GEOID":"56041","NAME":"Uinta","NAMELSAD":"Uinta County","STUSPS":"WY","STATE_NAME":"Wyoming","LSAD":"06","ALAND":5391645104,"AWATER":16612478}},
{"type":"Feature","geometry":{"type":"Polygon","coordinates":[[[-105.07928,44.17618],[-105.00051,44.1769],[-104.46113,44.18075],[-104.37548,44.18162],[-104.36821,44.18091],[-104.05484,44.18038],[-104.05552,44.31774],[-104.05591,44.51041],[-104.05575,44.63339],[-104.05594,44.77571],[-104.05649,44.86677],[-104.05591,44.87499],[-104.05788,44.99761],[-104.26304,44.99813],[-104.50676,44.99849],[-104.6313,44.99881],[-104.88916,45.00003],[-105.0766,45.00011],[-105.0767,44.87107],[-105.07479,44.87107],[-105.07686,44.78619],[-105.08545,44.7868],[-105.08557,44.68549],[-105.08565,44.54187],[-105.0827,44.52761],[-105.08393,44.42704],[-105.08447,44.21663],[-105.08218,44.17618],[-105.07928,44.17618]]]},"properties":{"STATEFP":"56","COUNTYFP":"011","COUNTYNS":"01605071","GEOIDFQ":"0500000US56011","GEOID":"56011","NAME":"Crook","NAMELSAD":"Crook County","STUSPS":"WY","STATE_NAME":"Wyoming","LSAD":"06","ALAND":7393068924,"AWATER":28186052}},
{"type":"Feature","geometry":{"type":"Polygon","coordinates":[[[-106.32116,40.99912],[-106.21757,40.99773],[-106.06118,40.997],[-105.7248,40.99691],[-105.41272,40.99779],[-105.27686,40.99817],[-105.27684,41.04568],[-105.27874,41.04558],[-105.27887,41.1164],[-105.27986,41.19072],[-105.28064,41.331],[-105.2802,41.39538],[-105.27745,41.3989],[-105.27824,41.65666],[-105.27897,41.742],[-105.27181,41.74203],[-105.2716,41.87497],[-105.27175,41.9861],[-105.27334,42.00716],[-105.27375,42.08882],[-105.28114,42.08889],[-105.28133,42.22176],[-105.28192,42.36061],[-105.28376,42.38057],[-105.28391,42.4314],[-105.33264,42.43111],[-105.33249,42.4191],[-105.3421,42.41907],[-105.34206,42.40493],[-105.352,42.40462],[-105.35223,42.37639],[-105.36174,42.37632],[-105.36083,42.33353],[-105.35859,42.31927],[-105.37868,42.31902],[-105.37554,42.29014],[-105.51737,42.28969],[-105.5264,42.28886],[-105.53588,42.29455],[-105.5638,42.29729],[-105.59942,42.29754],[-105.59943,42.30481],[-105.61386,42.30446],[-105.61466,42.37744],[-105.57564,42.37731],[-105.57555,42.40623],[-105.55618,42.40625],[-105.55604,42.43058],[-105.59362,42.4311],[-105.69847,42.43106],[-105.76722,42.43161],[-105.87389,42.43177],[-105.94699,42.43218],[-105.95642,42.43287],[-106.0734,42.43324],[-106.07438,42.15203],[-106.07324,41.97221],[-106.07302,41.89818],[-106.07324,41.81479],[-106.07225,41.66626],[-106.0714,41.53072],[-106.06841,41.39503],[-106.20807,41.39377],[-106.20814,41.39504],[-106.32288,41.39514],[-106.32269,41.33483],[-106.32116,40.99912]]]},"properties":{"STATEFP":"56","COUNTYFP":"001","COUNTYNS":"01605066","GEOIDFQ":"0500000US56001","GEOID":"56001","NAME":"Albany","NAMELSAD":"Albany County","STUSPS":"WY","STATE_NAME":"Wyoming","LSAD":"06","ALAND":11070062826,"AWATER":89554047}},
{"type":"Feature","geometry":{"type":"Polygon","coordinates":[[[-107.5951,43.5014],[-107.59516,43.64643],[-107.71622,43.64577],[-107.71588,43.73334],[-107.95658,43.73345],[-107.95645,43.81867],[-108.00267,43.81851],[-108.17494,43.81897],[-108.19972,43.831],[-108.19382,43.83414],[-108.18537,43.84824],[-108.25066,43.84676],[-108.30969,43.84662],[-108.30936,43.90326],[-108.42956,43.90336],[-108.42706,43.99205],[-108.48943,43.99187],[-108.49025,44.07976],[-108.55076,44.0794],[-108.79228,44.07962],[-108.79178,43.99105],[-108.91598,43.99085],[-108.91278,43.90475],[-109.00661,43.9051],[-109.09288,43.90447],[-109.09239,43.83806],[-109.0936,43.81762],[-109.13317,43.816],[-109.27255,43.81612],[-109.27259,43.81355],[-109.31295,43.81329],[-109.31006,43.80603],[-109.2961,43.80141],[-109.2841,43.80279],[-109.2742,43.79402],[-109.26854,43.78114],[-109.26213,43.77415],[-109.24799,43.77073],[-109.2349,43.76389],[-109.20817,43.73064],[-109.20677,43.7236],[-109.19421,43.7102],[-109.17145,43.6992],[-109.17164,43.61976],[-108.93414,43.61916],[-108.93383,43.60472],[-108.81428,43.60526],[-108.81428,43.57556],[-108.69467,43.57576],[-108.69507,43.53226],[-108.57617,43.53256],[-108.57617,43.50326],[-108.45696,43.50316],[-108.45697,43.47428],[-108.33777,43.47406],[-108.33786,43.45977],[-108.15638,43.45961],[-108.15628,43.47063],[-107.59514,43.47228],[-107.5951,43.5014]]]},"properties":{"STATEFP":"56","COUNTYFP":"017","COUNTYNS":"01605074","GEOIDFQ":"0500000US56017","GEOID":"56017","NAME":"Hot Springs","NAMELSAD":"Hot Springs County","STUSPS":"WY","STATE_NAME":"Wyoming","LSAD":"06","ALAND":5191453509,"AWATER":5100560}}
]}